<?xml version="1.0" encoding="UTF-8"?>
<gpx version="1.1" creator="Trabakutik" xmlns="http://www.topografix.com/GPX/1/1">
<trk><name>Ahuntzen Mendi Lasterketa</name><trkseg>
<trkpt lat="43.136508" lon="-2.487795"><ele>464.6</ele></trkpt>
<trkpt lat="43.136550" lon="-2.487740"><ele>464.7</ele></trkpt>
<trkpt lat="43.136599" lon="-2.487634"><ele>464.9</ele></trkpt>
<trkpt lat="43.136617" lon="-2.487479"><ele>465.0</ele></trkpt>
<trkpt lat="43.136640" lon="-2.487414"><ele>465.0</ele></trkpt>
<trkpt lat="43.136717" lon="-2.487367"><ele>465.5</ele></trkpt>
<trkpt lat="43.136816" lon="-2.487288"><ele>466.0</ele></trkpt>
<trkpt lat="43.136936" lon="-2.487191"><ele>467.0</ele></trkpt>
<trkpt lat="43.137037" lon="-2.487151"><ele>468.1</ele></trkpt>
<trkpt lat="43.137128" lon="-2.487124"><ele>468.9</ele></trkpt>
<trkpt lat="43.137217" lon="-2.487075"><ele>469.8</ele></trkpt>
<trkpt lat="43.137324" lon="-2.487045"><ele>470.8</ele></trkpt>
<trkpt lat="43.137405" lon="-2.487016"><ele>471.7</ele></trkpt>
<trkpt lat="43.137479" lon="-2.486955"><ele>472.4</ele></trkpt>
<trkpt lat="43.137589" lon="-2.486905"><ele>473.3</ele></trkpt>
<trkpt lat="43.137709" lon="-2.486854"><ele>473.9</ele></trkpt>
<trkpt lat="43.137845" lon="-2.486820"><ele>473.8</ele></trkpt>
<trkpt lat="43.137971" lon="-2.486793"><ele>474.3</ele></trkpt>
<trkpt lat="43.138090" lon="-2.486784"><ele>474.7</ele></trkpt>
<trkpt lat="43.138241" lon="-2.486766"><ele>475.0</ele></trkpt>
<trkpt lat="43.138353" lon="-2.486726"><ele>475.4</ele></trkpt>
<trkpt lat="43.138449" lon="-2.486619"><ele>476.0</ele></trkpt>
<trkpt lat="43.138561" lon="-2.486525"><ele>476.8</ele></trkpt>
<trkpt lat="43.138685" lon="-2.486505"><ele>477.7</ele></trkpt>
<trkpt lat="43.138771" lon="-2.486517"><ele>478.7</ele></trkpt>
<trkpt lat="43.138874" lon="-2.486525"><ele>479.4</ele></trkpt>
<trkpt lat="43.138969" lon="-2.486540"><ele>480.9</ele></trkpt>
<trkpt lat="43.139075" lon="-2.486558"><ele>482.7</ele></trkpt>
<trkpt lat="43.139166" lon="-2.486568"><ele>483.8</ele></trkpt>
<trkpt lat="43.139255" lon="-2.486572"><ele>485.3</ele></trkpt>
<trkpt lat="43.139330" lon="-2.486587"><ele>486.5</ele></trkpt>
<trkpt lat="43.139422" lon="-2.486640"><ele>487.4</ele></trkpt>
<trkpt lat="43.139525" lon="-2.486662"><ele>488.1</ele></trkpt>
<trkpt lat="43.139634" lon="-2.486674"><ele>489.1</ele></trkpt>
<trkpt lat="43.139731" lon="-2.486700"><ele>489.6</ele></trkpt>
<trkpt lat="43.139862" lon="-2.486729"><ele>489.9</ele></trkpt>
<trkpt lat="43.139976" lon="-2.486748"><ele>490.1</ele></trkpt>
<trkpt lat="43.140092" lon="-2.486777"><ele>490.0</ele></trkpt>
<trkpt lat="43.140204" lon="-2.486796"><ele>489.3</ele></trkpt>
<trkpt lat="43.140322" lon="-2.486796"><ele>488.9</ele></trkpt>
<trkpt lat="43.140486" lon="-2.486816"><ele>488.3</ele></trkpt>
<trkpt lat="43.140600" lon="-2.486835"><ele>488.1</ele></trkpt>
<trkpt lat="43.140715" lon="-2.486849"><ele>488.3</ele></trkpt>
<trkpt lat="43.140826" lon="-2.486860"><ele>488.5</ele></trkpt>
<trkpt lat="43.140962" lon="-2.486881"><ele>488.8</ele></trkpt>
<trkpt lat="43.141067" lon="-2.486893"><ele>489.4</ele></trkpt>
<trkpt lat="43.141169" lon="-2.486900"><ele>490.2</ele></trkpt>
<trkpt lat="43.141271" lon="-2.486935"><ele>490.9</ele></trkpt>
<trkpt lat="43.141393" lon="-2.486960"><ele>491.6</ele></trkpt>
<trkpt lat="43.141490" lon="-2.486988"><ele>492.7</ele></trkpt>
<trkpt lat="43.141588" lon="-2.487038"><ele>493.4</ele></trkpt>
<trkpt lat="43.141685" lon="-2.487056"><ele>494.7</ele></trkpt>
<trkpt lat="43.141811" lon="-2.487050"><ele>496.4</ele></trkpt>
<trkpt lat="43.141896" lon="-2.487072"><ele>497.4</ele></trkpt>
<trkpt lat="43.141993" lon="-2.487084"><ele>498.2</ele></trkpt>
<trkpt lat="43.142100" lon="-2.487091"><ele>499.2</ele></trkpt>
<trkpt lat="43.142215" lon="-2.487093"><ele>499.9</ele></trkpt>
<trkpt lat="43.142306" lon="-2.487098"><ele>500.9</ele></trkpt>
<trkpt lat="43.142387" lon="-2.487114"><ele>501.5</ele></trkpt>
<trkpt lat="43.142477" lon="-2.487124"><ele>501.8</ele></trkpt>
<trkpt lat="43.142600" lon="-2.487140"><ele>502.8</ele></trkpt>
<trkpt lat="43.142697" lon="-2.487143"><ele>503.6</ele></trkpt>
<trkpt lat="43.142788" lon="-2.487116"><ele>504.6</ele></trkpt>
<trkpt lat="43.142869" lon="-2.487064"><ele>505.6</ele></trkpt>
<trkpt lat="43.142979" lon="-2.487006"><ele>506.7</ele></trkpt>
<trkpt lat="43.143061" lon="-2.486986"><ele>507.4</ele></trkpt>
<trkpt lat="43.143127" lon="-2.486986"><ele>508.5</ele></trkpt>
<trkpt lat="43.143184" lon="-2.486987"><ele>509.9</ele></trkpt>
<trkpt lat="43.143272" lon="-2.486958"><ele>512.0</ele></trkpt>
<trkpt lat="43.143318" lon="-2.486927"><ele>513.5</ele></trkpt>
<trkpt lat="43.143397" lon="-2.486870"><ele>515.0</ele></trkpt>
<trkpt lat="43.143455" lon="-2.486812"><ele>516.2</ele></trkpt>
<trkpt lat="43.143508" lon="-2.486747"><ele>518.0</ele></trkpt>
<trkpt lat="43.143549" lon="-2.486684"><ele>519.6</ele></trkpt>
<trkpt lat="43.143594" lon="-2.486629"><ele>521.0</ele></trkpt>
<trkpt lat="43.143651" lon="-2.486582"><ele>522.4</ele></trkpt>
<trkpt lat="43.143709" lon="-2.486533"><ele>523.9</ele></trkpt>
<trkpt lat="43.143747" lon="-2.486506"><ele>525.0</ele></trkpt>
<trkpt lat="43.143804" lon="-2.486466"><ele>526.5</ele></trkpt>
<trkpt lat="43.143874" lon="-2.486450"><ele>527.5</ele></trkpt>
<trkpt lat="43.143947" lon="-2.486410"><ele>528.6</ele></trkpt>
<trkpt lat="43.144028" lon="-2.486351"><ele>530.3</ele></trkpt>
<trkpt lat="43.144104" lon="-2.486290"><ele>531.3</ele></trkpt>
<trkpt lat="43.144165" lon="-2.486207"><ele>532.1</ele></trkpt>
<trkpt lat="43.144222" lon="-2.486133"><ele>532.8</ele></trkpt>
<trkpt lat="43.144294" lon="-2.486050"><ele>534.1</ele></trkpt>
<trkpt lat="43.144356" lon="-2.485984"><ele>534.6</ele></trkpt>
<trkpt lat="43.144424" lon="-2.485929"><ele>535.5</ele></trkpt>
<trkpt lat="43.144495" lon="-2.485891"><ele>536.2</ele></trkpt>
<trkpt lat="43.144594" lon="-2.485849"><ele>537.1</ele></trkpt>
<trkpt lat="43.144680" lon="-2.485811"><ele>537.7</ele></trkpt>
<trkpt lat="43.144777" lon="-2.485774"><ele>537.5</ele></trkpt>
<trkpt lat="43.144861" lon="-2.485746"><ele>537.2</ele></trkpt>
<trkpt lat="43.144959" lon="-2.485715"><ele>538.3</ele></trkpt>
<trkpt lat="43.145030" lon="-2.485724"><ele>539.4</ele></trkpt>
<trkpt lat="43.145109" lon="-2.485722"><ele>540.6</ele></trkpt>
<trkpt lat="43.145175" lon="-2.485731"><ele>542.1</ele></trkpt>
<trkpt lat="43.145244" lon="-2.485748"><ele>543.5</ele></trkpt>
<trkpt lat="43.145314" lon="-2.485736"><ele>544.6</ele></trkpt>
<trkpt lat="43.145395" lon="-2.485727"><ele>545.7</ele></trkpt>
<trkpt lat="43.145456" lon="-2.485737"><ele>547.1</ele></trkpt>
<trkpt lat="43.145534" lon="-2.485718"><ele>548.9</ele></trkpt>
<trkpt lat="43.145604" lon="-2.485703"><ele>549.5</ele></trkpt>
<trkpt lat="43.145653" lon="-2.485687"><ele>550.4</ele></trkpt>
<trkpt lat="43.145697" lon="-2.485643"><ele>551.6</ele></trkpt>
<trkpt lat="43.145751" lon="-2.485590"><ele>553.1</ele></trkpt>
<trkpt lat="43.145821" lon="-2.485530"><ele>553.9</ele></trkpt>
<trkpt lat="43.145889" lon="-2.485489"><ele>554.4</ele></trkpt>
<trkpt lat="43.145956" lon="-2.485477"><ele>555.4</ele></trkpt>
<trkpt lat="43.146037" lon="-2.485488"><ele>556.8</ele></trkpt>
<trkpt lat="43.146099" lon="-2.485520"><ele>558.2</ele></trkpt>
<trkpt lat="43.146125" lon="-2.485550"><ele>559.6</ele></trkpt>
<trkpt lat="43.146157" lon="-2.485587"><ele>561.3</ele></trkpt>
<trkpt lat="43.146212" lon="-2.485660"><ele>562.8</ele></trkpt>
<trkpt lat="43.146252" lon="-2.485714"><ele>564.2</ele></trkpt>
<trkpt lat="43.146290" lon="-2.485769"><ele>565.1</ele></trkpt>
<trkpt lat="43.146324" lon="-2.485851"><ele>566.3</ele></trkpt>
<trkpt lat="43.146370" lon="-2.485954"><ele>567.0</ele></trkpt>
<trkpt lat="43.146418" lon="-2.486051"><ele>567.6</ele></trkpt>
<trkpt lat="43.146373" lon="-2.486141"><ele>568.3</ele></trkpt>
<trkpt lat="43.146342" lon="-2.486242"><ele>569.2</ele></trkpt>
<trkpt lat="43.146327" lon="-2.486327"><ele>570.8</ele></trkpt>
<trkpt lat="43.146296" lon="-2.486388"><ele>572.5</ele></trkpt>
<trkpt lat="43.146276" lon="-2.486440"><ele>573.6</ele></trkpt>
<trkpt lat="43.146256" lon="-2.486487"><ele>574.5</ele></trkpt>
<trkpt lat="43.146237" lon="-2.486548"><ele>575.9</ele></trkpt>
<trkpt lat="43.146205" lon="-2.486609"><ele>577.2</ele></trkpt>
<trkpt lat="43.146180" lon="-2.486653"><ele>578.0</ele></trkpt>
<trkpt lat="43.146150" lon="-2.486697"><ele>579.0</ele></trkpt>
<trkpt lat="43.146136" lon="-2.486734"><ele>579.7</ele></trkpt>
<trkpt lat="43.146110" lon="-2.486800"><ele>581.3</ele></trkpt>
<trkpt lat="43.146103" lon="-2.486851"><ele>582.3</ele></trkpt>
<trkpt lat="43.146085" lon="-2.486890"><ele>583.5</ele></trkpt>
<trkpt lat="43.146054" lon="-2.486951"><ele>584.2</ele></trkpt>
<trkpt lat="43.146020" lon="-2.487005"><ele>585.7</ele></trkpt>
<trkpt lat="43.145996" lon="-2.487036"><ele>587.0</ele></trkpt>
<trkpt lat="43.145969" lon="-2.487058"><ele>588.3</ele></trkpt>
<trkpt lat="43.145928" lon="-2.487082"><ele>589.3</ele></trkpt>
<trkpt lat="43.145881" lon="-2.487117"><ele>591.2</ele></trkpt>
<trkpt lat="43.145854" lon="-2.487137"><ele>592.6</ele></trkpt>
<trkpt lat="43.145823" lon="-2.487174"><ele>594.1</ele></trkpt>
<trkpt lat="43.145788" lon="-2.487205"><ele>595.5</ele></trkpt>
<trkpt lat="43.145754" lon="-2.487235"><ele>597.2</ele></trkpt>
<trkpt lat="43.145715" lon="-2.487251"><ele>598.3</ele></trkpt>
<trkpt lat="43.145679" lon="-2.487263"><ele>599.7</ele></trkpt>
<trkpt lat="43.145651" lon="-2.487280"><ele>601.2</ele></trkpt>
<trkpt lat="43.145608" lon="-2.487305"><ele>602.5</ele></trkpt>
<trkpt lat="43.145599" lon="-2.487347"><ele>603.6</ele></trkpt>
<trkpt lat="43.145577" lon="-2.487382"><ele>605.2</ele></trkpt>
<trkpt lat="43.145555" lon="-2.487414"><ele>606.7</ele></trkpt>
<trkpt lat="43.145528" lon="-2.487461"><ele>608.0</ele></trkpt>
<trkpt lat="43.145507" lon="-2.487511"><ele>609.5</ele></trkpt>
<trkpt lat="43.145498" lon="-2.487557"><ele>611.0</ele></trkpt>
<trkpt lat="43.145475" lon="-2.487584"><ele>612.9</ele></trkpt>
<trkpt lat="43.145465" lon="-2.487640"><ele>614.4</ele></trkpt>
<trkpt lat="43.145476" lon="-2.487704"><ele>616.7</ele></trkpt>
<trkpt lat="43.145476" lon="-2.487759"><ele>617.6</ele></trkpt>
<trkpt lat="43.145469" lon="-2.487848"><ele>618.4</ele></trkpt>
<trkpt lat="43.145460" lon="-2.487907"><ele>619.3</ele></trkpt>
<trkpt lat="43.145453" lon="-2.487986"><ele>621.1</ele></trkpt>
<trkpt lat="43.145446" lon="-2.488030"><ele>622.2</ele></trkpt>
<trkpt lat="43.145430" lon="-2.488069"><ele>623.7</ele></trkpt>
<trkpt lat="43.145398" lon="-2.488110"><ele>625.0</ele></trkpt>
<trkpt lat="43.145361" lon="-2.488128"><ele>626.4</ele></trkpt>
<trkpt lat="43.145314" lon="-2.488144"><ele>627.7</ele></trkpt>
<trkpt lat="43.145252" lon="-2.488171"><ele>628.6</ele></trkpt>
<trkpt lat="43.145229" lon="-2.488227"><ele>630.0</ele></trkpt>
<trkpt lat="43.145208" lon="-2.488284"><ele>631.9</ele></trkpt>
<trkpt lat="43.145171" lon="-2.488322"><ele>633.1</ele></trkpt>
<trkpt lat="43.145142" lon="-2.488379"><ele>634.2</ele></trkpt>
<trkpt lat="43.145118" lon="-2.488453"><ele>634.9</ele></trkpt>
<trkpt lat="43.145106" lon="-2.488541"><ele>635.6</ele></trkpt>
<trkpt lat="43.145101" lon="-2.488634"><ele>636.6</ele></trkpt>
<trkpt lat="43.145125" lon="-2.488768"><ele>637.1</ele></trkpt>
<trkpt lat="43.145169" lon="-2.488858"><ele>638.1</ele></trkpt>
<trkpt lat="43.145173" lon="-2.488985"><ele>638.8</ele></trkpt>
<trkpt lat="43.145225" lon="-2.489088"><ele>639.0</ele></trkpt>
<trkpt lat="43.145290" lon="-2.489108"><ele>639.5</ele></trkpt>
<trkpt lat="43.145353" lon="-2.489105"><ele>640.3</ele></trkpt>
<trkpt lat="43.145444" lon="-2.489147"><ele>640.6</ele></trkpt>
<trkpt lat="43.145485" lon="-2.489211"><ele>641.4</ele></trkpt>
<trkpt lat="43.145494" lon="-2.489293"><ele>641.9</ele></trkpt>
<trkpt lat="43.145521" lon="-2.489382"><ele>642.2</ele></trkpt>
<trkpt lat="43.145528" lon="-2.489521"><ele>642.6</ele></trkpt>
<trkpt lat="43.145583" lon="-2.489623"><ele>643.5</ele></trkpt>
<trkpt lat="43.145647" lon="-2.489742"><ele>643.1</ele></trkpt>
<trkpt lat="43.145691" lon="-2.489889"><ele>642.9</ele></trkpt>
<trkpt lat="43.145768" lon="-2.490048"><ele>643.3</ele></trkpt>
<trkpt lat="43.145842" lon="-2.490192"><ele>643.0</ele></trkpt>
<trkpt lat="43.145912" lon="-2.490293"><ele>643.1</ele></trkpt>
<trkpt lat="43.145963" lon="-2.490426"><ele>643.3</ele></trkpt>
<trkpt lat="43.146009" lon="-2.490609"><ele>643.3</ele></trkpt>
<trkpt lat="43.146069" lon="-2.490724"><ele>643.5</ele></trkpt>
<trkpt lat="43.146113" lon="-2.490827"><ele>644.3</ele></trkpt>
<trkpt lat="43.146156" lon="-2.490935"><ele>644.9</ele></trkpt>
<trkpt lat="43.146200" lon="-2.491078"><ele>645.3</ele></trkpt>
<trkpt lat="43.146283" lon="-2.491214"><ele>645.5</ele></trkpt>
<trkpt lat="43.146326" lon="-2.491321"><ele>646.4</ele></trkpt>
<trkpt lat="43.146357" lon="-2.491423"><ele>648.1</ele></trkpt>
<trkpt lat="43.146393" lon="-2.491501"><ele>649.2</ele></trkpt>
<trkpt lat="43.146435" lon="-2.491622"><ele>650.1</ele></trkpt>
<trkpt lat="43.146515" lon="-2.491739"><ele>649.7</ele></trkpt>
<trkpt lat="43.146599" lon="-2.491744"><ele>648.3</ele></trkpt>
<trkpt lat="43.146660" lon="-2.491789"><ele>645.2</ele></trkpt>
<trkpt lat="43.146712" lon="-2.491835"><ele>641.6</ele></trkpt>
<trkpt lat="43.146763" lon="-2.491896"><ele>639.3</ele></trkpt>
<trkpt lat="43.146828" lon="-2.491993"><ele>636.4</ele></trkpt>
<trkpt lat="43.146899" lon="-2.492079"><ele>633.7</ele></trkpt>
<trkpt lat="43.146964" lon="-2.492217"><ele>630.0</ele></trkpt>
<trkpt lat="43.146980" lon="-2.492341"><ele>626.8</ele></trkpt>
<trkpt lat="43.146961" lon="-2.492482"><ele>624.5</ele></trkpt>
<trkpt lat="43.146913" lon="-2.492610"><ele>622.2</ele></trkpt>
<trkpt lat="43.146876" lon="-2.492777"><ele>619.6</ele></trkpt>
<trkpt lat="43.146849" lon="-2.492916"><ele>616.9</ele></trkpt>
<trkpt lat="43.146834" lon="-2.493076"><ele>614.3</ele></trkpt>
<trkpt lat="43.146821" lon="-2.493259"><ele>611.2</ele></trkpt>
<trkpt lat="43.146745" lon="-2.493506"><ele>608.5</ele></trkpt>
<trkpt lat="43.146694" lon="-2.493670"><ele>608.6</ele></trkpt>
<trkpt lat="43.146683" lon="-2.493843"><ele>608.4</ele></trkpt>
<trkpt lat="43.146683" lon="-2.494050"><ele>606.4</ele></trkpt>
<trkpt lat="43.146695" lon="-2.494260"><ele>604.5</ele></trkpt>
<trkpt lat="43.146716" lon="-2.494429"><ele>602.6</ele></trkpt>
<trkpt lat="43.146738" lon="-2.494605"><ele>601.1</ele></trkpt>
<trkpt lat="43.146758" lon="-2.494777"><ele>599.3</ele></trkpt>
<trkpt lat="43.146781" lon="-2.495006"><ele>596.6</ele></trkpt>
<trkpt lat="43.146800" lon="-2.495203"><ele>594.2</ele></trkpt>
<trkpt lat="43.146813" lon="-2.495397"><ele>591.6</ele></trkpt>
<trkpt lat="43.146831" lon="-2.495577"><ele>588.7</ele></trkpt>
<trkpt lat="43.146854" lon="-2.495793"><ele>585.0</ele></trkpt>
<trkpt lat="43.146869" lon="-2.495949"><ele>581.9</ele></trkpt>
<trkpt lat="43.146888" lon="-2.496104"><ele>578.1</ele></trkpt>
<trkpt lat="43.146904" lon="-2.496288"><ele>574.6</ele></trkpt>
<trkpt lat="43.146942" lon="-2.496462"><ele>570.5</ele></trkpt>
<trkpt lat="43.146999" lon="-2.496658"><ele>565.9</ele></trkpt>
<trkpt lat="43.147005" lon="-2.496872"><ele>562.1</ele></trkpt>
<trkpt lat="43.147032" lon="-2.497053"><ele>558.4</ele></trkpt>
<trkpt lat="43.147050" lon="-2.497211"><ele>556.5</ele></trkpt>
<trkpt lat="43.147079" lon="-2.497411"><ele>553.5</ele></trkpt>
<trkpt lat="43.147109" lon="-2.497581"><ele>551.1</ele></trkpt>
<trkpt lat="43.147171" lon="-2.497700"><ele>548.4</ele></trkpt>
<trkpt lat="43.147183" lon="-2.497850"><ele>545.4</ele></trkpt>
<trkpt lat="43.147199" lon="-2.498026"><ele>542.9</ele></trkpt>
<trkpt lat="43.147236" lon="-2.498147"><ele>540.2</ele></trkpt>
<trkpt lat="43.147282" lon="-2.498269"><ele>537.6</ele></trkpt>
<trkpt lat="43.147320" lon="-2.498397"><ele>534.6</ele></trkpt>
<trkpt lat="43.147378" lon="-2.498546"><ele>530.3</ele></trkpt>
<trkpt lat="43.147432" lon="-2.498645"><ele>526.8</ele></trkpt>
<trkpt lat="43.147480" lon="-2.498734"><ele>523.1</ele></trkpt>
<trkpt lat="43.147537" lon="-2.498800"><ele>519.4</ele></trkpt>
<trkpt lat="43.147623" lon="-2.498853"><ele>515.1</ele></trkpt>
<trkpt lat="43.147676" lon="-2.498893"><ele>510.7</ele></trkpt>
<trkpt lat="43.147717" lon="-2.498995"><ele>508.2</ele></trkpt>
<trkpt lat="43.147751" lon="-2.499032"><ele>505.4</ele></trkpt>
<trkpt lat="43.147717" lon="-2.499191"><ele>502.7</ele></trkpt>
<trkpt lat="43.147575" lon="-2.499262"><ele>500.4</ele></trkpt>
<trkpt lat="43.147564" lon="-2.499338"><ele>498.2</ele></trkpt>
<trkpt lat="43.147733" lon="-2.499374"><ele>496.3</ele></trkpt>
<trkpt lat="43.147908" lon="-2.499293"><ele>495.7</ele></trkpt>
<trkpt lat="43.148003" lon="-2.499159"><ele>494.4</ele></trkpt>
<trkpt lat="43.148070" lon="-2.498993"><ele>491.9</ele></trkpt>
<trkpt lat="43.148144" lon="-2.498841"><ele>489.0</ele></trkpt>
<trkpt lat="43.148253" lon="-2.498665"><ele>485.6</ele></trkpt>
<trkpt lat="43.148368" lon="-2.498568"><ele>484.3</ele></trkpt>
<trkpt lat="43.148487" lon="-2.498470"><ele>483.3</ele></trkpt>
<trkpt lat="43.148621" lon="-2.498382"><ele>482.0</ele></trkpt>
<trkpt lat="43.148760" lon="-2.498201"><ele>480.1</ele></trkpt>
<trkpt lat="43.148821" lon="-2.498041"><ele>478.0</ele></trkpt>
<trkpt lat="43.148834" lon="-2.497868"><ele>476.4</ele></trkpt>
<trkpt lat="43.148833" lon="-2.497702"><ele>474.1</ele></trkpt>
<trkpt lat="43.148832" lon="-2.497512"><ele>470.5</ele></trkpt>
<trkpt lat="43.148806" lon="-2.497367"><ele>467.8</ele></trkpt>
<trkpt lat="43.148799" lon="-2.497215"><ele>465.6</ele></trkpt>
<trkpt lat="43.148855" lon="-2.497077"><ele>463.6</ele></trkpt>
<trkpt lat="43.148953" lon="-2.496975"><ele>461.8</ele></trkpt>
<trkpt lat="43.149074" lon="-2.496835"><ele>460.0</ele></trkpt>
<trkpt lat="43.149161" lon="-2.496715"><ele>459.0</ele></trkpt>
<trkpt lat="43.149260" lon="-2.496565"><ele>457.8</ele></trkpt>
<trkpt lat="43.149351" lon="-2.496382"><ele>455.5</ele></trkpt>
<trkpt lat="43.149448" lon="-2.496150"><ele>451.9</ele></trkpt>
<trkpt lat="43.149535" lon="-2.496011"><ele>449.4</ele></trkpt>
<trkpt lat="43.149632" lon="-2.495884"><ele>447.1</ele></trkpt>
<trkpt lat="43.149747" lon="-2.495891"><ele>446.6</ele></trkpt>
<trkpt lat="43.149872" lon="-2.495967"><ele>447.8</ele></trkpt>
<trkpt lat="43.149963" lon="-2.496037"><ele>448.4</ele></trkpt>
<trkpt lat="43.150072" lon="-2.496088"><ele>448.7</ele></trkpt>
<trkpt lat="43.150186" lon="-2.496123"><ele>448.8</ele></trkpt>
<trkpt lat="43.150338" lon="-2.496164"><ele>449.3</ele></trkpt>
<trkpt lat="43.150458" lon="-2.496206"><ele>449.2</ele></trkpt>
<trkpt lat="43.150583" lon="-2.496246"><ele>449.3</ele></trkpt>
<trkpt lat="43.150696" lon="-2.496289"><ele>449.7</ele></trkpt>
<trkpt lat="43.150841" lon="-2.496327"><ele>449.8</ele></trkpt>
<trkpt lat="43.150958" lon="-2.496339"><ele>450.1</ele></trkpt>
<trkpt lat="43.151081" lon="-2.496336"><ele>450.2</ele></trkpt>
<trkpt lat="43.151171" lon="-2.496220"><ele>450.7</ele></trkpt>
<trkpt lat="43.151211" lon="-2.495993"><ele>449.5</ele></trkpt>
<trkpt lat="43.151161" lon="-2.495817"><ele>447.5</ele></trkpt>
<trkpt lat="43.151107" lon="-2.495635"><ele>446.2</ele></trkpt>
<trkpt lat="43.151067" lon="-2.495442"><ele>444.1</ele></trkpt>
<trkpt lat="43.151030" lon="-2.495193"><ele>440.7</ele></trkpt>
<trkpt lat="43.151000" lon="-2.495008"><ele>438.3</ele></trkpt>
<trkpt lat="43.150989" lon="-2.494823"><ele>435.8</ele></trkpt>
<trkpt lat="43.150967" lon="-2.494644"><ele>433.2</ele></trkpt>
<trkpt lat="43.150930" lon="-2.494394"><ele>428.8</ele></trkpt>
<trkpt lat="43.150875" lon="-2.494225"><ele>427.3</ele></trkpt>
<trkpt lat="43.150837" lon="-2.494070"><ele>426.6</ele></trkpt>
<trkpt lat="43.150767" lon="-2.493893"><ele>426.2</ele></trkpt>
<trkpt lat="43.150636" lon="-2.493735"><ele>425.0</ele></trkpt>
<trkpt lat="43.150608" lon="-2.493556"><ele>422.8</ele></trkpt>
<trkpt lat="43.150650" lon="-2.493408"><ele>420.7</ele></trkpt>
<trkpt lat="43.150709" lon="-2.493440"><ele>417.2</ele></trkpt>
<trkpt lat="43.150805" lon="-2.493613"><ele>414.2</ele></trkpt>
<trkpt lat="43.150974" lon="-2.493759"><ele>411.3</ele></trkpt>
<trkpt lat="43.151074" lon="-2.493871"><ele>409.7</ele></trkpt>
<trkpt lat="43.151094" lon="-2.494028"><ele>407.0</ele></trkpt>
<trkpt lat="43.151177" lon="-2.494187"><ele>403.6</ele></trkpt>
<trkpt lat="43.151334" lon="-2.494299"><ele>400.8</ele></trkpt>
<trkpt lat="43.151427" lon="-2.494398"><ele>399.0</ele></trkpt>
<trkpt lat="43.151464" lon="-2.494440"><ele>398.9</ele></trkpt>
<trkpt lat="43.151496" lon="-2.494457"><ele>398.5</ele></trkpt>
<trkpt lat="43.151548" lon="-2.494471"><ele>395.4</ele></trkpt>
<trkpt lat="43.151609" lon="-2.494447"><ele>392.6</ele></trkpt>
<trkpt lat="43.151650" lon="-2.494467"><ele>389.5</ele></trkpt>
<trkpt lat="43.151720" lon="-2.494517"><ele>386.0</ele></trkpt>
<trkpt lat="43.151810" lon="-2.494600"><ele>382.0</ele></trkpt>
<trkpt lat="43.151906" lon="-2.494728"><ele>378.2</ele></trkpt>
<trkpt lat="43.151978" lon="-2.494832"><ele>377.2</ele></trkpt>
<trkpt lat="43.152052" lon="-2.494913"><ele>376.4</ele></trkpt>
<trkpt lat="43.152183" lon="-2.495016"><ele>373.1</ele></trkpt>
<trkpt lat="43.152292" lon="-2.495116"><ele>371.3</ele></trkpt>
<trkpt lat="43.152390" lon="-2.495225"><ele>370.4</ele></trkpt>
<trkpt lat="43.152479" lon="-2.495332"><ele>371.0</ele></trkpt>
<trkpt lat="43.152588" lon="-2.495474"><ele>370.9</ele></trkpt>
<trkpt lat="43.152646" lon="-2.495601"><ele>370.4</ele></trkpt>
<trkpt lat="43.152672" lon="-2.495744"><ele>369.4</ele></trkpt>
<trkpt lat="43.152674" lon="-2.495893"><ele>368.7</ele></trkpt>
<trkpt lat="43.152659" lon="-2.496111"><ele>367.9</ele></trkpt>
<trkpt lat="43.152665" lon="-2.496276"><ele>367.4</ele></trkpt>
<trkpt lat="43.152692" lon="-2.496420"><ele>366.5</ele></trkpt>
<trkpt lat="43.152722" lon="-2.496595"><ele>363.9</ele></trkpt>
<trkpt lat="43.152721" lon="-2.496837"><ele>360.2</ele></trkpt>
<trkpt lat="43.152682" lon="-2.497014"><ele>358.1</ele></trkpt>
<trkpt lat="43.152642" lon="-2.497181"><ele>355.9</ele></trkpt>
<trkpt lat="43.152645" lon="-2.497289"><ele>354.1</ele></trkpt>
<trkpt lat="43.152638" lon="-2.497392"><ele>352.5</ele></trkpt>
<trkpt lat="43.152611" lon="-2.497473"><ele>349.5</ele></trkpt>
<trkpt lat="43.152564" lon="-2.497544"><ele>347.1</ele></trkpt>
<trkpt lat="43.152572" lon="-2.497641"><ele>345.5</ele></trkpt>
<trkpt lat="43.152546" lon="-2.497670"><ele>343.8</ele></trkpt>
<trkpt lat="43.152558" lon="-2.497773"><ele>339.9</ele></trkpt>
<trkpt lat="43.152568" lon="-2.497895"><ele>339.1</ele></trkpt>
<trkpt lat="43.152575" lon="-2.498016"><ele>340.0</ele></trkpt>
<trkpt lat="43.152606" lon="-2.498174"><ele>341.1</ele></trkpt>
<trkpt lat="43.152611" lon="-2.498381"><ele>341.0</ele></trkpt>
<trkpt lat="43.152596" lon="-2.498569"><ele>339.6</ele></trkpt>
<trkpt lat="43.152580" lon="-2.498762"><ele>338.2</ele></trkpt>
<trkpt lat="43.152538" lon="-2.498959"><ele>335.8</ele></trkpt>
<trkpt lat="43.152501" lon="-2.499200"><ele>332.0</ele></trkpt>
<trkpt lat="43.152561" lon="-2.499393"><ele>329.9</ele></trkpt>
<trkpt lat="43.152661" lon="-2.499553"><ele>328.8</ele></trkpt>
<trkpt lat="43.152721" lon="-2.499723"><ele>328.2</ele></trkpt>
<trkpt lat="43.152716" lon="-2.499945"><ele>326.6</ele></trkpt>
<trkpt lat="43.152682" lon="-2.500145"><ele>325.0</ele></trkpt>
<trkpt lat="43.152648" lon="-2.500343"><ele>323.4</ele></trkpt>
<trkpt lat="43.152604" lon="-2.500554"><ele>322.3</ele></trkpt>
<trkpt lat="43.152493" lon="-2.500777"><ele>320.6</ele></trkpt>
<trkpt lat="43.152384" lon="-2.500976"><ele>317.8</ele></trkpt>
<trkpt lat="43.152363" lon="-2.501200"><ele>315.8</ele></trkpt>
<trkpt lat="43.152464" lon="-2.501364"><ele>315.0</ele></trkpt>
<trkpt lat="43.152591" lon="-2.501525"><ele>315.0</ele></trkpt>
<trkpt lat="43.152692" lon="-2.501654"><ele>314.7</ele></trkpt>
<trkpt lat="43.152793" lon="-2.501802"><ele>314.2</ele></trkpt>
<trkpt lat="43.152898" lon="-2.501949"><ele>313.6</ele></trkpt>
<trkpt lat="43.153004" lon="-2.502120"><ele>312.8</ele></trkpt>
<trkpt lat="43.153094" lon="-2.502222"><ele>312.5</ele></trkpt>
<trkpt lat="43.153202" lon="-2.502288"><ele>312.0</ele></trkpt>
<trkpt lat="43.153298" lon="-2.502356"><ele>311.7</ele></trkpt>
<trkpt lat="43.153422" lon="-2.502445"><ele>311.6</ele></trkpt>
<trkpt lat="43.153520" lon="-2.502540"><ele>311.6</ele></trkpt>
<trkpt lat="43.153608" lon="-2.502620"><ele>311.7</ele></trkpt>
<trkpt lat="43.153729" lon="-2.502733"><ele>311.9</ele></trkpt>
<trkpt lat="43.153863" lon="-2.502851"><ele>312.0</ele></trkpt>
<trkpt lat="43.153972" lon="-2.502945"><ele>312.0</ele></trkpt>
<trkpt lat="43.154070" lon="-2.503029"><ele>312.1</ele></trkpt>
<trkpt lat="43.154157" lon="-2.503131"><ele>311.8</ele></trkpt>
<trkpt lat="43.154252" lon="-2.503313"><ele>311.8</ele></trkpt>
<trkpt lat="43.154354" lon="-2.503354"><ele>311.7</ele></trkpt>
<trkpt lat="43.154470" lon="-2.503338"><ele>311.5</ele></trkpt>
<trkpt lat="43.154589" lon="-2.503357"><ele>311.0</ele></trkpt>
<trkpt lat="43.154707" lon="-2.503420"><ele>311.1</ele></trkpt>
<trkpt lat="43.154806" lon="-2.503567"><ele>310.8</ele></trkpt>
<trkpt lat="43.154818" lon="-2.503737"><ele>310.9</ele></trkpt>
<trkpt lat="43.154807" lon="-2.503897"><ele>310.8</ele></trkpt>
<trkpt lat="43.154804" lon="-2.504061"><ele>310.9</ele></trkpt>
<trkpt lat="43.154824" lon="-2.504265"><ele>310.7</ele></trkpt>
<trkpt lat="43.154862" lon="-2.504408"><ele>310.6</ele></trkpt>
<trkpt lat="43.154918" lon="-2.504528"><ele>310.4</ele></trkpt>
<trkpt lat="43.154986" lon="-2.504640"><ele>310.6</ele></trkpt>
<trkpt lat="43.155111" lon="-2.504780"><ele>310.6</ele></trkpt>
<trkpt lat="43.155201" lon="-2.504878"><ele>310.0</ele></trkpt>
<trkpt lat="43.155292" lon="-2.504993"><ele>309.6</ele></trkpt>
<trkpt lat="43.155374" lon="-2.505095"><ele>309.5</ele></trkpt>
<trkpt lat="43.155490" lon="-2.505178"><ele>309.4</ele></trkpt>
<trkpt lat="43.155598" lon="-2.505270"><ele>309.4</ele></trkpt>
<trkpt lat="43.155684" lon="-2.505379"><ele>309.8</ele></trkpt>
<trkpt lat="43.155764" lon="-2.505493"><ele>310.0</ele></trkpt>
<trkpt lat="43.155858" lon="-2.505632"><ele>310.2</ele></trkpt>
<trkpt lat="43.155956" lon="-2.505777"><ele>310.6</ele></trkpt>
<trkpt lat="43.156017" lon="-2.505941"><ele>310.7</ele></trkpt>
<trkpt lat="43.156006" lon="-2.506109"><ele>310.4</ele></trkpt>
<trkpt lat="43.155955" lon="-2.506309"><ele>310.8</ele></trkpt>
<trkpt lat="43.155899" lon="-2.506429"><ele>311.2</ele></trkpt>
<trkpt lat="43.155938" lon="-2.506551"><ele>311.6</ele></trkpt>
<trkpt lat="43.156048" lon="-2.506568"><ele>312.4</ele></trkpt>
<trkpt lat="43.156190" lon="-2.506527"><ele>312.2</ele></trkpt>
<trkpt lat="43.156300" lon="-2.506532"><ele>312.0</ele></trkpt>
<trkpt lat="43.156420" lon="-2.506584"><ele>312.1</ele></trkpt>
<trkpt lat="43.156518" lon="-2.506659"><ele>312.1</ele></trkpt>
<trkpt lat="43.156641" lon="-2.506764"><ele>312.0</ele></trkpt>
<trkpt lat="43.156740" lon="-2.506844"><ele>312.0</ele></trkpt>
<trkpt lat="43.156854" lon="-2.506936"><ele>312.0</ele></trkpt>
<trkpt lat="43.156950" lon="-2.507032"><ele>312.0</ele></trkpt>
<trkpt lat="43.157010" lon="-2.507157"><ele>312.3</ele></trkpt>
<trkpt lat="43.157032" lon="-2.507253"><ele>313.7</ele></trkpt>
<trkpt lat="43.157062" lon="-2.507346"><ele>315.0</ele></trkpt>
<trkpt lat="43.157082" lon="-2.507436"><ele>316.4</ele></trkpt>
<trkpt lat="43.157119" lon="-2.507531"><ele>317.4</ele></trkpt>
<trkpt lat="43.157183" lon="-2.507632"><ele>318.2</ele></trkpt>
<trkpt lat="43.157236" lon="-2.507726"><ele>319.0</ele></trkpt>
<trkpt lat="43.157293" lon="-2.507819"><ele>319.7</ele></trkpt>
<trkpt lat="43.157345" lon="-2.507913"><ele>320.3</ele></trkpt>
<trkpt lat="43.157382" lon="-2.508027"><ele>321.3</ele></trkpt>
<trkpt lat="43.157418" lon="-2.508110"><ele>322.5</ele></trkpt>
<trkpt lat="43.157458" lon="-2.508191"><ele>323.4</ele></trkpt>
<trkpt lat="43.157494" lon="-2.508280"><ele>324.7</ele></trkpt>
<trkpt lat="43.157533" lon="-2.508386"><ele>325.9</ele></trkpt>
<trkpt lat="43.157576" lon="-2.508475"><ele>327.1</ele></trkpt>
<trkpt lat="43.157626" lon="-2.508571"><ele>327.8</ele></trkpt>
<trkpt lat="43.157673" lon="-2.508661"><ele>328.4</ele></trkpt>
<trkpt lat="43.157729" lon="-2.508762"><ele>329.6</ele></trkpt>
<trkpt lat="43.157764" lon="-2.508849"><ele>330.6</ele></trkpt>
<trkpt lat="43.157788" lon="-2.508958"><ele>331.5</ele></trkpt>
<trkpt lat="43.157786" lon="-2.509105"><ele>331.6</ele></trkpt>
<trkpt lat="43.157820" lon="-2.509291"><ele>330.9</ele></trkpt>
<trkpt lat="43.157875" lon="-2.509382"><ele>331.2</ele></trkpt>
<trkpt lat="43.157930" lon="-2.509451"><ele>332.2</ele></trkpt>
<trkpt lat="43.157988" lon="-2.509526"><ele>333.6</ele></trkpt>
<trkpt lat="43.158073" lon="-2.509611"><ele>335.1</ele></trkpt>
<trkpt lat="43.158131" lon="-2.509640"><ele>336.0</ele></trkpt>
<trkpt lat="43.158194" lon="-2.509637"><ele>336.8</ele></trkpt>
<trkpt lat="43.158288" lon="-2.509632"><ele>337.9</ele></trkpt>
<trkpt lat="43.158385" lon="-2.509691"><ele>339.7</ele></trkpt>
<trkpt lat="43.158443" lon="-2.509773"><ele>340.4</ele></trkpt>
<trkpt lat="43.158495" lon="-2.509865"><ele>341.2</ele></trkpt>
<trkpt lat="43.158540" lon="-2.509942"><ele>342.0</ele></trkpt>
<trkpt lat="43.158593" lon="-2.510042"><ele>343.2</ele></trkpt>
<trkpt lat="43.158629" lon="-2.510117"><ele>344.1</ele></trkpt>
<trkpt lat="43.158672" lon="-2.510192"><ele>344.6</ele></trkpt>
<trkpt lat="43.158713" lon="-2.510270"><ele>345.6</ele></trkpt>
<trkpt lat="43.158770" lon="-2.510381"><ele>346.3</ele></trkpt>
<trkpt lat="43.158818" lon="-2.510469"><ele>346.8</ele></trkpt>
<trkpt lat="43.158871" lon="-2.510560"><ele>347.2</ele></trkpt>
<trkpt lat="43.158924" lon="-2.510659"><ele>347.2</ele></trkpt>
<trkpt lat="43.158954" lon="-2.510778"><ele>347.4</ele></trkpt>
<trkpt lat="43.158938" lon="-2.510929"><ele>347.6</ele></trkpt>
<trkpt lat="43.158919" lon="-2.511054"><ele>347.7</ele></trkpt>
<trkpt lat="43.158906" lon="-2.511190"><ele>347.4</ele></trkpt>
<trkpt lat="43.158877" lon="-2.511365"><ele>346.2</ele></trkpt>
<trkpt lat="43.158830" lon="-2.511560"><ele>344.9</ele></trkpt>
<trkpt lat="43.158787" lon="-2.511693"><ele>343.9</ele></trkpt>
<trkpt lat="43.158711" lon="-2.511813"><ele>342.7</ele></trkpt>
<trkpt lat="43.158610" lon="-2.511946"><ele>340.5</ele></trkpt>
<trkpt lat="43.158475" lon="-2.512104"><ele>337.6</ele></trkpt>
<trkpt lat="43.158371" lon="-2.512208"><ele>336.1</ele></trkpt>
<trkpt lat="43.158267" lon="-2.512288"><ele>334.0</ele></trkpt>
<trkpt lat="43.158130" lon="-2.512344"><ele>332.2</ele></trkpt>
<trkpt lat="43.157970" lon="-2.512405"><ele>329.2</ele></trkpt>
<trkpt lat="43.157830" lon="-2.512499"><ele>327.1</ele></trkpt>
<trkpt lat="43.157706" lon="-2.512589"><ele>324.8</ele></trkpt>
<trkpt lat="43.157595" lon="-2.512652"><ele>323.9</ele></trkpt>
<trkpt lat="43.157454" lon="-2.512717"><ele>323.2</ele></trkpt>
<trkpt lat="43.157368" lon="-2.512825"><ele>323.1</ele></trkpt>
<trkpt lat="43.157294" lon="-2.512933"><ele>322.9</ele></trkpt>
<trkpt lat="43.157198" lon="-2.513034"><ele>321.4</ele></trkpt>
<trkpt lat="43.157054" lon="-2.513130"><ele>318.6</ele></trkpt>
<trkpt lat="43.156931" lon="-2.513220"><ele>316.3</ele></trkpt>
<trkpt lat="43.156892" lon="-2.513316"><ele>314.3</ele></trkpt>
<trkpt lat="43.156933" lon="-2.513396"><ele>314.2</ele></trkpt>
<trkpt lat="43.157086" lon="-2.513521"><ele>316.0</ele></trkpt>
<trkpt lat="43.157158" lon="-2.513620"><ele>317.2</ele></trkpt>
<trkpt lat="43.157205" lon="-2.513680"><ele>318.6</ele></trkpt>
<trkpt lat="43.157271" lon="-2.513713"><ele>319.6</ele></trkpt>
<trkpt lat="43.157358" lon="-2.513701"><ele>320.5</ele></trkpt>
<trkpt lat="43.157417" lon="-2.513687"><ele>321.1</ele></trkpt>
<trkpt lat="43.157492" lon="-2.513686"><ele>321.9</ele></trkpt>
<trkpt lat="43.157569" lon="-2.513687"><ele>322.8</ele></trkpt>
<trkpt lat="43.157660" lon="-2.513683"><ele>323.6</ele></trkpt>
<trkpt lat="43.157733" lon="-2.513701"><ele>324.0</ele></trkpt>
<trkpt lat="43.157811" lon="-2.513715"><ele>324.6</ele></trkpt>
<trkpt lat="43.157874" lon="-2.513739"><ele>325.6</ele></trkpt>
<trkpt lat="43.157964" lon="-2.513762"><ele>327.0</ele></trkpt>
<trkpt lat="43.158039" lon="-2.513797"><ele>327.8</ele></trkpt>
<trkpt lat="43.158127" lon="-2.513832"><ele>328.7</ele></trkpt>
<trkpt lat="43.158196" lon="-2.513866"><ele>329.5</ele></trkpt>
<trkpt lat="43.158283" lon="-2.513886"><ele>330.0</ele></trkpt>
<trkpt lat="43.158396" lon="-2.513890"><ele>330.9</ele></trkpt>
<trkpt lat="43.158475" lon="-2.513887"><ele>331.7</ele></trkpt>
<trkpt lat="43.158560" lon="-2.513897"><ele>332.2</ele></trkpt>
<trkpt lat="43.158640" lon="-2.513896"><ele>333.0</ele></trkpt>
<trkpt lat="43.158755" lon="-2.513909"><ele>334.3</ele></trkpt>
<trkpt lat="43.158843" lon="-2.513900"><ele>334.8</ele></trkpt>
<trkpt lat="43.158945" lon="-2.513903"><ele>335.2</ele></trkpt>
<trkpt lat="43.159024" lon="-2.513905"><ele>335.6</ele></trkpt>
<trkpt lat="43.159123" lon="-2.513962"><ele>336.2</ele></trkpt>
<trkpt lat="43.159154" lon="-2.514068"><ele>336.9</ele></trkpt>
<trkpt lat="43.159155" lon="-2.514190"><ele>337.3</ele></trkpt>
<trkpt lat="43.159140" lon="-2.514322"><ele>337.4</ele></trkpt>
<trkpt lat="43.159110" lon="-2.514486"><ele>337.9</ele></trkpt>
<trkpt lat="43.159091" lon="-2.514619"><ele>338.5</ele></trkpt>
<trkpt lat="43.159078" lon="-2.514768"><ele>338.5</ele></trkpt>
<trkpt lat="43.159072" lon="-2.514921"><ele>338.5</ele></trkpt>
<trkpt lat="43.159033" lon="-2.515093"><ele>338.2</ele></trkpt>
<trkpt lat="43.159014" lon="-2.515223"><ele>338.5</ele></trkpt>
<trkpt lat="43.158983" lon="-2.515355"><ele>338.9</ele></trkpt>
<trkpt lat="43.158969" lon="-2.515472"><ele>339.2</ele></trkpt>
<trkpt lat="43.158940" lon="-2.515643"><ele>340.2</ele></trkpt>
<trkpt lat="43.158915" lon="-2.515770"><ele>340.9</ele></trkpt>
<trkpt lat="43.158860" lon="-2.515885"><ele>341.5</ele></trkpt>
<trkpt lat="43.158821" lon="-2.516032"><ele>341.5</ele></trkpt>
<trkpt lat="43.158838" lon="-2.516233"><ele>340.9</ele></trkpt>
<trkpt lat="43.158840" lon="-2.516376"><ele>340.7</ele></trkpt>
<trkpt lat="43.158844" lon="-2.516528"><ele>340.4</ele></trkpt>
<trkpt lat="43.158857" lon="-2.516676"><ele>340.6</ele></trkpt>
<trkpt lat="43.158822" lon="-2.516826"><ele>341.7</ele></trkpt>
<trkpt lat="43.158773" lon="-2.516935"><ele>342.3</ele></trkpt>
<trkpt lat="43.158735" lon="-2.517044"><ele>342.8</ele></trkpt>
<trkpt lat="43.158687" lon="-2.517183"><ele>343.2</ele></trkpt>
<trkpt lat="43.158655" lon="-2.517340"><ele>343.6</ele></trkpt>
<trkpt lat="43.158634" lon="-2.517455"><ele>344.2</ele></trkpt>
<trkpt lat="43.158614" lon="-2.517548"><ele>345.1</ele></trkpt>
<trkpt lat="43.158597" lon="-2.517625"><ele>345.8</ele></trkpt>
<trkpt lat="43.158529" lon="-2.517733"><ele>346.8</ele></trkpt>
<trkpt lat="43.158531" lon="-2.517882"><ele>347.3</ele></trkpt>
<trkpt lat="43.158599" lon="-2.517959"><ele>347.4</ele></trkpt>
<trkpt lat="43.158586" lon="-2.518071"><ele>348.0</ele></trkpt>
<trkpt lat="43.158519" lon="-2.518144"><ele>349.1</ele></trkpt>
<trkpt lat="43.158419" lon="-2.518185"><ele>350.3</ele></trkpt>
<trkpt lat="43.158366" lon="-2.518161"><ele>351.0</ele></trkpt>
<trkpt lat="43.158319" lon="-2.518184"><ele>351.7</ele></trkpt>
<trkpt lat="43.158289" lon="-2.518203"><ele>352.2</ele></trkpt>
<trkpt lat="43.158255" lon="-2.518177"><ele>353.2</ele></trkpt>
<trkpt lat="43.158246" lon="-2.518153"><ele>354.5</ele></trkpt>
<trkpt lat="43.158243" lon="-2.518134"><ele>356.2</ele></trkpt>
<trkpt lat="43.158217" lon="-2.518124"><ele>357.6</ele></trkpt>
<trkpt lat="43.158186" lon="-2.518086"><ele>359.0</ele></trkpt>
<trkpt lat="43.158183" lon="-2.518028"><ele>360.3</ele></trkpt>
<trkpt lat="43.158190" lon="-2.517972"><ele>361.6</ele></trkpt>
<trkpt lat="43.158197" lon="-2.517900"><ele>362.6</ele></trkpt>
<trkpt lat="43.158209" lon="-2.517813"><ele>364.3</ele></trkpt>
<trkpt lat="43.158223" lon="-2.517747"><ele>365.2</ele></trkpt>
<trkpt lat="43.158225" lon="-2.517677"><ele>366.2</ele></trkpt>
<trkpt lat="43.158230" lon="-2.517603"><ele>366.9</ele></trkpt>
<trkpt lat="43.158228" lon="-2.517501"><ele>367.4</ele></trkpt>
<trkpt lat="43.158242" lon="-2.517422"><ele>368.0</ele></trkpt>
<trkpt lat="43.158236" lon="-2.517358"><ele>368.8</ele></trkpt>
<trkpt lat="43.158235" lon="-2.517279"><ele>369.3</ele></trkpt>
<trkpt lat="43.158229" lon="-2.517187"><ele>369.9</ele></trkpt>
<trkpt lat="43.158224" lon="-2.517123"><ele>370.8</ele></trkpt>
<trkpt lat="43.158217" lon="-2.517068"><ele>372.0</ele></trkpt>
<trkpt lat="43.158201" lon="-2.517010"><ele>373.1</ele></trkpt>
<trkpt lat="43.158184" lon="-2.516937"><ele>374.5</ele></trkpt>
<trkpt lat="43.158174" lon="-2.516880"><ele>375.7</ele></trkpt>
<trkpt lat="43.158170" lon="-2.516824"><ele>376.8</ele></trkpt>
<trkpt lat="43.158152" lon="-2.516766"><ele>378.1</ele></trkpt>
<trkpt lat="43.158141" lon="-2.516699"><ele>379.9</ele></trkpt>
<trkpt lat="43.158134" lon="-2.516631"><ele>380.3</ele></trkpt>
<trkpt lat="43.158133" lon="-2.516566"><ele>381.3</ele></trkpt>
<trkpt lat="43.158122" lon="-2.516496"><ele>382.9</ele></trkpt>
<trkpt lat="43.158104" lon="-2.516439"><ele>382.2</ele></trkpt>
<trkpt lat="43.158092" lon="-2.516351"><ele>381.7</ele></trkpt>
<trkpt lat="43.158079" lon="-2.516274"><ele>382.9</ele></trkpt>
<trkpt lat="43.158073" lon="-2.516210"><ele>385.4</ele></trkpt>
<trkpt lat="43.158069" lon="-2.516142"><ele>386.1</ele></trkpt>
<trkpt lat="43.158053" lon="-2.516067"><ele>386.9</ele></trkpt>
<trkpt lat="43.158041" lon="-2.516011"><ele>390.2</ele></trkpt>
<trkpt lat="43.158030" lon="-2.515941"><ele>390.7</ele></trkpt>
<trkpt lat="43.158023" lon="-2.515873"><ele>391.0</ele></trkpt>
<trkpt lat="43.158013" lon="-2.515791"><ele>391.8</ele></trkpt>
<trkpt lat="43.157998" lon="-2.515732"><ele>393.7</ele></trkpt>
<trkpt lat="43.157976" lon="-2.515669"><ele>394.4</ele></trkpt>
<trkpt lat="43.157959" lon="-2.515638"><ele>394.2</ele></trkpt>
<trkpt lat="43.157921" lon="-2.515587"><ele>395.1</ele></trkpt>
<trkpt lat="43.157887" lon="-2.515577"><ele>396.1</ele></trkpt>
<trkpt lat="43.157857" lon="-2.515588"><ele>397.4</ele></trkpt>
<trkpt lat="43.157819" lon="-2.515612"><ele>399.2</ele></trkpt>
<trkpt lat="43.157790" lon="-2.515663"><ele>401.4</ele></trkpt>
<trkpt lat="43.157752" lon="-2.515688"><ele>402.6</ele></trkpt>
<trkpt lat="43.157726" lon="-2.515728"><ele>405.8</ele></trkpt>
<trkpt lat="43.157716" lon="-2.515784"><ele>408.4</ele></trkpt>
<trkpt lat="43.157691" lon="-2.515828"><ele>407.4</ele></trkpt>
<trkpt lat="43.157665" lon="-2.515882"><ele>407.0</ele></trkpt>
<trkpt lat="43.157633" lon="-2.515931"><ele>407.1</ele></trkpt>
<trkpt lat="43.157602" lon="-2.515968"><ele>408.8</ele></trkpt>
<trkpt lat="43.157571" lon="-2.515996"><ele>410.1</ele></trkpt>
<trkpt lat="43.157534" lon="-2.516037"><ele>412.1</ele></trkpt>
<trkpt lat="43.157511" lon="-2.516074"><ele>414.2</ele></trkpt>
<trkpt lat="43.157474" lon="-2.516100"><ele>414.5</ele></trkpt>
<trkpt lat="43.157431" lon="-2.516125"><ele>415.0</ele></trkpt>
<trkpt lat="43.157405" lon="-2.516152"><ele>415.8</ele></trkpt>
<trkpt lat="43.157377" lon="-2.516174"><ele>417.3</ele></trkpt>
<trkpt lat="43.157349" lon="-2.516209"><ele>419.6</ele></trkpt>
<trkpt lat="43.157322" lon="-2.516252"><ele>422.0</ele></trkpt>
<trkpt lat="43.157293" lon="-2.516295"><ele>423.2</ele></trkpt>
<trkpt lat="43.157275" lon="-2.516327"><ele>422.3</ele></trkpt>
<trkpt lat="43.157256" lon="-2.516367"><ele>422.7</ele></trkpt>
<trkpt lat="43.157235" lon="-2.516426"><ele>424.4</ele></trkpt>
<trkpt lat="43.157215" lon="-2.516472"><ele>428.2</ele></trkpt>
<trkpt lat="43.157191" lon="-2.516497"><ele>432.8</ele></trkpt>
<trkpt lat="43.157162" lon="-2.516525"><ele>435.0</ele></trkpt>
<trkpt lat="43.157144" lon="-2.516560"><ele>432.6</ele></trkpt>
<trkpt lat="43.157108" lon="-2.516618"><ele>431.5</ele></trkpt>
<trkpt lat="43.157087" lon="-2.516669"><ele>433.0</ele></trkpt>
<trkpt lat="43.157057" lon="-2.516720"><ele>434.6</ele></trkpt>
<trkpt lat="43.157036" lon="-2.516762"><ele>436.0</ele></trkpt>
<trkpt lat="43.156996" lon="-2.516829"><ele>436.8</ele></trkpt>
<trkpt lat="43.156966" lon="-2.516874"><ele>437.6</ele></trkpt>
<trkpt lat="43.156930" lon="-2.516914"><ele>438.0</ele></trkpt>
<trkpt lat="43.156898" lon="-2.516949"><ele>439.2</ele></trkpt>
<trkpt lat="43.156874" lon="-2.517010"><ele>441.7</ele></trkpt>
<trkpt lat="43.156863" lon="-2.517058"><ele>443.0</ele></trkpt>
<trkpt lat="43.156851" lon="-2.517095"><ele>446.5</ele></trkpt>
<trkpt lat="43.156845" lon="-2.517124"><ele>448.4</ele></trkpt>
<trkpt lat="43.156827" lon="-2.517187"><ele>449.2</ele></trkpt>
<trkpt lat="43.156810" lon="-2.517228"><ele>449.2</ele></trkpt>
<trkpt lat="43.156781" lon="-2.517262"><ele>449.4</ele></trkpt>
<trkpt lat="43.156755" lon="-2.517314"><ele>449.9</ele></trkpt>
<trkpt lat="43.156720" lon="-2.517367"><ele>451.0</ele></trkpt>
<trkpt lat="43.156693" lon="-2.517413"><ele>451.4</ele></trkpt>
<trkpt lat="43.156671" lon="-2.517454"><ele>451.2</ele></trkpt>
<trkpt lat="43.156632" lon="-2.517510"><ele>452.2</ele></trkpt>
<trkpt lat="43.156592" lon="-2.517563"><ele>454.7</ele></trkpt>
<trkpt lat="43.156573" lon="-2.517611"><ele>457.3</ele></trkpt>
<trkpt lat="43.156550" lon="-2.517663"><ele>456.8</ele></trkpt>
<trkpt lat="43.156519" lon="-2.517732"><ele>457.5</ele></trkpt>
<trkpt lat="43.156493" lon="-2.517815"><ele>459.1</ele></trkpt>
<trkpt lat="43.156466" lon="-2.517868"><ele>460.0</ele></trkpt>
<trkpt lat="43.156459" lon="-2.517870"><ele>460.6</ele></trkpt>
<trkpt lat="43.156457" lon="-2.517879"><ele>460.5</ele></trkpt>
<trkpt lat="43.156441" lon="-2.517884"><ele>460.4</ele></trkpt>
<trkpt lat="43.156345" lon="-2.517855"><ele>463.1</ele></trkpt>
<trkpt lat="43.156209" lon="-2.517849"><ele>464.4</ele></trkpt>
<trkpt lat="43.156085" lon="-2.517907"><ele>463.8</ele></trkpt>
<trkpt lat="43.155952" lon="-2.518043"><ele>461.1</ele></trkpt>
<trkpt lat="43.155852" lon="-2.518160"><ele>459.6</ele></trkpt>
<trkpt lat="43.155743" lon="-2.518276"><ele>458.8</ele></trkpt>
<trkpt lat="43.155636" lon="-2.518379"><ele>458.3</ele></trkpt>
<trkpt lat="43.155529" lon="-2.518461"><ele>457.9</ele></trkpt>
<trkpt lat="43.155392" lon="-2.518565"><ele>457.4</ele></trkpt>
<trkpt lat="43.155272" lon="-2.518644"><ele>457.7</ele></trkpt>
<trkpt lat="43.155181" lon="-2.518673"><ele>457.4</ele></trkpt>
<trkpt lat="43.155059" lon="-2.518713"><ele>457.4</ele></trkpt>
<trkpt lat="43.154923" lon="-2.518604"><ele>458.1</ele></trkpt>
<trkpt lat="43.154840" lon="-2.518493"><ele>458.3</ele></trkpt>
<trkpt lat="43.154762" lon="-2.518364"><ele>458.2</ele></trkpt>
<trkpt lat="43.154685" lon="-2.518235"><ele>457.9</ele></trkpt>
<trkpt lat="43.154584" lon="-2.518092"><ele>453.5</ele></trkpt>
<trkpt lat="43.154480" lon="-2.518007"><ele>453.2</ele></trkpt>
<trkpt lat="43.154363" lon="-2.517950"><ele>453.3</ele></trkpt>
<trkpt lat="43.154234" lon="-2.517892"><ele>453.2</ele></trkpt>
<trkpt lat="43.154104" lon="-2.517777"><ele>452.5</ele></trkpt>
<trkpt lat="43.154040" lon="-2.517649"><ele>451.4</ele></trkpt>
<trkpt lat="43.154014" lon="-2.517478"><ele>450.6</ele></trkpt>
<trkpt lat="43.154015" lon="-2.517322"><ele>449.4</ele></trkpt>
<trkpt lat="43.154003" lon="-2.517105"><ele>448.8</ele></trkpt>
<trkpt lat="43.153927" lon="-2.516967"><ele>448.5</ele></trkpt>
<trkpt lat="43.153840" lon="-2.516925"><ele>449.4</ele></trkpt>
<trkpt lat="43.153761" lon="-2.516954"><ele>450.9</ele></trkpt>
<trkpt lat="43.153702" lon="-2.517013"><ele>453.1</ele></trkpt>
<trkpt lat="43.153674" lon="-2.517065"><ele>454.4</ele></trkpt>
<trkpt lat="43.153659" lon="-2.517135"><ele>455.7</ele></trkpt>
<trkpt lat="43.153658" lon="-2.517198"><ele>456.9</ele></trkpt>
<trkpt lat="43.153655" lon="-2.517257"><ele>458.0</ele></trkpt>
<trkpt lat="43.153664" lon="-2.517305"><ele>459.1</ele></trkpt>
<trkpt lat="43.153664" lon="-2.517347"><ele>460.1</ele></trkpt>
<trkpt lat="43.153641" lon="-2.517396"><ele>461.0</ele></trkpt>
<trkpt lat="43.153590" lon="-2.517425"><ele>462.2</ele></trkpt>
<trkpt lat="43.153547" lon="-2.517460"><ele>461.6</ele></trkpt>
<trkpt lat="43.153518" lon="-2.517470"><ele>461.3</ele></trkpt>
<trkpt lat="43.153487" lon="-2.517506"><ele>462.2</ele></trkpt>
<trkpt lat="43.153445" lon="-2.517571"><ele>463.7</ele></trkpt>
<trkpt lat="43.153418" lon="-2.517619"><ele>464.6</ele></trkpt>
<trkpt lat="43.153376" lon="-2.517669"><ele>465.0</ele></trkpt>
<trkpt lat="43.153342" lon="-2.517715"><ele>466.0</ele></trkpt>
<trkpt lat="43.153309" lon="-2.517771"><ele>467.1</ele></trkpt>
<trkpt lat="43.153263" lon="-2.517841"><ele>469.8</ele></trkpt>
<trkpt lat="43.153219" lon="-2.517916"><ele>474.0</ele></trkpt>
<trkpt lat="43.153163" lon="-2.517972"><ele>476.9</ele></trkpt>
<trkpt lat="43.153084" lon="-2.518047"><ele>476.8</ele></trkpt>
<trkpt lat="43.153010" lon="-2.518177"><ele>475.3</ele></trkpt>
<trkpt lat="43.153011" lon="-2.518253"><ele>474.8</ele></trkpt>
<trkpt lat="43.152997" lon="-2.518325"><ele>474.0</ele></trkpt>
<trkpt lat="43.152987" lon="-2.518394"><ele>473.6</ele></trkpt>
<trkpt lat="43.152965" lon="-2.518462"><ele>474.0</ele></trkpt>
<trkpt lat="43.152959" lon="-2.518535"><ele>474.8</ele></trkpt>
<trkpt lat="43.152923" lon="-2.518587"><ele>478.4</ele></trkpt>
<trkpt lat="43.152889" lon="-2.518659"><ele>478.4</ele></trkpt>
<trkpt lat="43.152872" lon="-2.518721"><ele>478.2</ele></trkpt>
<trkpt lat="43.152883" lon="-2.518782"><ele>479.0</ele></trkpt>
<trkpt lat="43.152931" lon="-2.518826"><ele>480.1</ele></trkpt>
<trkpt lat="43.152968" lon="-2.518824"><ele>481.0</ele></trkpt>
<trkpt lat="43.153027" lon="-2.518775"><ele>484.0</ele></trkpt>
<trkpt lat="43.153071" lon="-2.518737"><ele>484.7</ele></trkpt>
<trkpt lat="43.153104" lon="-2.518710"><ele>486.8</ele></trkpt>
<trkpt lat="43.153150" lon="-2.518683"><ele>487.8</ele></trkpt>
<trkpt lat="43.153203" lon="-2.518642"><ele>487.3</ele></trkpt>
<trkpt lat="43.153252" lon="-2.518636"><ele>489.5</ele></trkpt>
<trkpt lat="43.153312" lon="-2.518642"><ele>493.6</ele></trkpt>
<trkpt lat="43.153345" lon="-2.518633"><ele>495.8</ele></trkpt>
<trkpt lat="43.153426" lon="-2.518656"><ele>497.5</ele></trkpt>
<trkpt lat="43.153503" lon="-2.518699"><ele>498.4</ele></trkpt>
<trkpt lat="43.153562" lon="-2.518757"><ele>499.4</ele></trkpt>
<trkpt lat="43.153586" lon="-2.518817"><ele>499.9</ele></trkpt>
<trkpt lat="43.153552" lon="-2.518864"><ele>497.6</ele></trkpt>
<trkpt lat="43.153518" lon="-2.518890"><ele>497.5</ele></trkpt>
<trkpt lat="43.153478" lon="-2.518917"><ele>498.9</ele></trkpt>
<trkpt lat="43.153439" lon="-2.518940"><ele>502.2</ele></trkpt>
<trkpt lat="43.153383" lon="-2.518995"><ele>505.1</ele></trkpt>
<trkpt lat="43.153345" lon="-2.519040"><ele>506.5</ele></trkpt>
<trkpt lat="43.153316" lon="-2.519109"><ele>507.4</ele></trkpt>
<trkpt lat="43.153298" lon="-2.519180"><ele>508.5</ele></trkpt>
<trkpt lat="43.153269" lon="-2.519293"><ele>510.4</ele></trkpt>
<trkpt lat="43.153240" lon="-2.519378"><ele>512.1</ele></trkpt>
<trkpt lat="43.153237" lon="-2.519470"><ele>514.7</ele></trkpt>
<trkpt lat="43.153219" lon="-2.519547"><ele>515.3</ele></trkpt>
<trkpt lat="43.153196" lon="-2.519647"><ele>515.6</ele></trkpt>
<trkpt lat="43.153182" lon="-2.519768"><ele>516.9</ele></trkpt>
<trkpt lat="43.153170" lon="-2.519857"><ele>518.0</ele></trkpt>
<trkpt lat="43.153151" lon="-2.519946"><ele>518.8</ele></trkpt>
<trkpt lat="43.153129" lon="-2.520042"><ele>520.1</ele></trkpt>
<trkpt lat="43.153111" lon="-2.520123"><ele>521.3</ele></trkpt>
<trkpt lat="43.153100" lon="-2.520191"><ele>522.2</ele></trkpt>
<trkpt lat="43.153095" lon="-2.520255"><ele>522.5</ele></trkpt>
<trkpt lat="43.153092" lon="-2.520319"><ele>522.8</ele></trkpt>
<trkpt lat="43.153073" lon="-2.520423"><ele>523.8</ele></trkpt>
<trkpt lat="43.153059" lon="-2.520508"><ele>524.7</ele></trkpt>
<trkpt lat="43.153042" lon="-2.520574"><ele>525.3</ele></trkpt>
<trkpt lat="43.153016" lon="-2.520658"><ele>525.8</ele></trkpt>
<trkpt lat="43.152988" lon="-2.520755"><ele>526.8</ele></trkpt>
<trkpt lat="43.152960" lon="-2.520879"><ele>527.8</ele></trkpt>
<trkpt lat="43.152940" lon="-2.520986"><ele>529.0</ele></trkpt>
<trkpt lat="43.152918" lon="-2.521081"><ele>530.0</ele></trkpt>
<trkpt lat="43.152880" lon="-2.521197"><ele>531.6</ele></trkpt>
<trkpt lat="43.152854" lon="-2.521295"><ele>532.4</ele></trkpt>
<trkpt lat="43.152848" lon="-2.521374"><ele>533.5</ele></trkpt>
<trkpt lat="43.152799" lon="-2.521409"><ele>534.5</ele></trkpt>
<trkpt lat="43.152710" lon="-2.521461"><ele>534.4</ele></trkpt>
<trkpt lat="43.152623" lon="-2.521515"><ele>534.2</ele></trkpt>
<trkpt lat="43.152525" lon="-2.521572"><ele>533.8</ele></trkpt>
<trkpt lat="43.152408" lon="-2.521583"><ele>532.2</ele></trkpt>
<trkpt lat="43.152307" lon="-2.521542"><ele>531.7</ele></trkpt>
<trkpt lat="43.152234" lon="-2.521478"><ele>532.2</ele></trkpt>
<trkpt lat="43.152168" lon="-2.521425"><ele>533.5</ele></trkpt>
<trkpt lat="43.152093" lon="-2.521386"><ele>534.9</ele></trkpt>
<trkpt lat="43.152013" lon="-2.521361"><ele>536.1</ele></trkpt>
<trkpt lat="43.151949" lon="-2.521377"><ele>537.0</ele></trkpt>
<trkpt lat="43.151885" lon="-2.521412"><ele>537.8</ele></trkpt>
<trkpt lat="43.151812" lon="-2.521447"><ele>539.0</ele></trkpt>
<trkpt lat="43.151764" lon="-2.521473"><ele>540.7</ele></trkpt>
<trkpt lat="43.151704" lon="-2.521516"><ele>541.7</ele></trkpt>
<trkpt lat="43.151629" lon="-2.521563"><ele>542.5</ele></trkpt>
<trkpt lat="43.151568" lon="-2.521630"><ele>542.8</ele></trkpt>
<trkpt lat="43.151514" lon="-2.521693"><ele>543.5</ele></trkpt>
<trkpt lat="43.151432" lon="-2.521772"><ele>544.5</ele></trkpt>
<trkpt lat="43.151364" lon="-2.521839"><ele>544.7</ele></trkpt>
<trkpt lat="43.151289" lon="-2.521912"><ele>544.8</ele></trkpt>
<trkpt lat="43.151219" lon="-2.521985"><ele>545.0</ele></trkpt>
<trkpt lat="43.151133" lon="-2.522088"><ele>545.3</ele></trkpt>
<trkpt lat="43.151067" lon="-2.522184"><ele>545.5</ele></trkpt>
<trkpt lat="43.151008" lon="-2.522277"><ele>546.1</ele></trkpt>
<trkpt lat="43.150946" lon="-2.522368"><ele>546.4</ele></trkpt>
<trkpt lat="43.150882" lon="-2.522475"><ele>546.9</ele></trkpt>
<trkpt lat="43.150838" lon="-2.522570"><ele>546.8</ele></trkpt>
<trkpt lat="43.150777" lon="-2.522654"><ele>546.8</ele></trkpt>
<trkpt lat="43.150684" lon="-2.522715"><ele>547.2</ele></trkpt>
<trkpt lat="43.150573" lon="-2.522732"><ele>548.3</ele></trkpt>
<trkpt lat="43.150497" lon="-2.522720"><ele>549.0</ele></trkpt>
<trkpt lat="43.150436" lon="-2.522691"><ele>549.8</ele></trkpt>
<trkpt lat="43.150348" lon="-2.522657"><ele>550.4</ele></trkpt>
<trkpt lat="43.150252" lon="-2.522600"><ele>551.3</ele></trkpt>
<trkpt lat="43.150176" lon="-2.522554"><ele>552.0</ele></trkpt>
<trkpt lat="43.150106" lon="-2.522508"><ele>553.2</ele></trkpt>
<trkpt lat="43.150044" lon="-2.522476"><ele>554.5</ele></trkpt>
<trkpt lat="43.149982" lon="-2.522446"><ele>555.6</ele></trkpt>
<trkpt lat="43.149922" lon="-2.522421"><ele>556.9</ele></trkpt>
<trkpt lat="43.149856" lon="-2.522420"><ele>557.6</ele></trkpt>
<trkpt lat="43.149781" lon="-2.522433"><ele>558.6</ele></trkpt>
<trkpt lat="43.149688" lon="-2.522456"><ele>559.7</ele></trkpt>
<trkpt lat="43.149601" lon="-2.522426"><ele>560.0</ele></trkpt>
<trkpt lat="43.149528" lon="-2.522353"><ele>560.2</ele></trkpt>
<trkpt lat="43.149469" lon="-2.522284"><ele>560.3</ele></trkpt>
<trkpt lat="43.149416" lon="-2.522177"><ele>561.0</ele></trkpt>
<trkpt lat="43.149368" lon="-2.522078"><ele>561.4</ele></trkpt>
<trkpt lat="43.149323" lon="-2.521971"><ele>561.3</ele></trkpt>
<trkpt lat="43.149269" lon="-2.521861"><ele>561.2</ele></trkpt>
<trkpt lat="43.149209" lon="-2.521722"><ele>561.2</ele></trkpt>
<trkpt lat="43.149164" lon="-2.521612"><ele>561.8</ele></trkpt>
<trkpt lat="43.149123" lon="-2.521497"><ele>562.2</ele></trkpt>
<trkpt lat="43.149082" lon="-2.521406"><ele>562.9</ele></trkpt>
<trkpt lat="43.149018" lon="-2.521298"><ele>563.9</ele></trkpt>
<trkpt lat="43.148968" lon="-2.521218"><ele>564.7</ele></trkpt>
<trkpt lat="43.148910" lon="-2.521116"><ele>565.7</ele></trkpt>
<trkpt lat="43.148843" lon="-2.521009"><ele>565.6</ele></trkpt>
<trkpt lat="43.148821" lon="-2.520873"><ele>565.5</ele></trkpt>
<trkpt lat="43.148804" lon="-2.520703"><ele>565.3</ele></trkpt>
<trkpt lat="43.148743" lon="-2.520584"><ele>565.2</ele></trkpt>
<trkpt lat="43.148699" lon="-2.520480"><ele>565.4</ele></trkpt>
<trkpt lat="43.148641" lon="-2.520371"><ele>566.0</ele></trkpt>
<trkpt lat="43.148582" lon="-2.520226"><ele>566.5</ele></trkpt>
<trkpt lat="43.148525" lon="-2.520134"><ele>566.9</ele></trkpt>
<trkpt lat="43.148485" lon="-2.520017"><ele>567.5</ele></trkpt>
<trkpt lat="43.148460" lon="-2.519894"><ele>567.7</ele></trkpt>
<trkpt lat="43.148443" lon="-2.519760"><ele>568.2</ele></trkpt>
<trkpt lat="43.148428" lon="-2.519639"><ele>568.7</ele></trkpt>
<trkpt lat="43.148400" lon="-2.519520"><ele>569.6</ele></trkpt>
<trkpt lat="43.148381" lon="-2.519405"><ele>570.7</ele></trkpt>
<trkpt lat="43.148365" lon="-2.519267"><ele>571.4</ele></trkpt>
<trkpt lat="43.148341" lon="-2.519174"><ele>572.5</ele></trkpt>
<trkpt lat="43.148317" lon="-2.519078"><ele>573.1</ele></trkpt>
<trkpt lat="43.148292" lon="-2.518969"><ele>573.8</ele></trkpt>
<trkpt lat="43.148285" lon="-2.518854"><ele>574.8</ele></trkpt>
<trkpt lat="43.148262" lon="-2.518739"><ele>575.5</ele></trkpt>
<trkpt lat="43.148219" lon="-2.518634"><ele>576.1</ele></trkpt>
<trkpt lat="43.148172" lon="-2.518542"><ele>576.8</ele></trkpt>
<trkpt lat="43.148121" lon="-2.518442"><ele>577.6</ele></trkpt>
<trkpt lat="43.148080" lon="-2.518340"><ele>578.3</ele></trkpt>
<trkpt lat="43.148032" lon="-2.518226"><ele>579.2</ele></trkpt>
<trkpt lat="43.147971" lon="-2.518141"><ele>579.9</ele></trkpt>
<trkpt lat="43.147891" lon="-2.518041"><ele>580.3</ele></trkpt>
<trkpt lat="43.147823" lon="-2.517935"><ele>580.0</ele></trkpt>
<trkpt lat="43.147770" lon="-2.517809"><ele>579.9</ele></trkpt>
<trkpt lat="43.147712" lon="-2.517682"><ele>579.7</ele></trkpt>
<trkpt lat="43.147640" lon="-2.517547"><ele>579.8</ele></trkpt>
<trkpt lat="43.147582" lon="-2.517442"><ele>580.0</ele></trkpt>
<trkpt lat="43.147508" lon="-2.517336"><ele>580.3</ele></trkpt>
<trkpt lat="43.147454" lon="-2.517223"><ele>580.4</ele></trkpt>
<trkpt lat="43.147401" lon="-2.517069"><ele>581.6</ele></trkpt>
<trkpt lat="43.147354" lon="-2.516934"><ele>582.3</ele></trkpt>
<trkpt lat="43.147310" lon="-2.516800"><ele>582.6</ele></trkpt>
<trkpt lat="43.147282" lon="-2.516671"><ele>582.9</ele></trkpt>
<trkpt lat="43.147272" lon="-2.516524"><ele>583.3</ele></trkpt>
<trkpt lat="43.147286" lon="-2.516332"><ele>583.6</ele></trkpt>
<trkpt lat="43.147296" lon="-2.516169"><ele>582.8</ele></trkpt>
<trkpt lat="43.147308" lon="-2.516023"><ele>582.6</ele></trkpt>
<trkpt lat="43.147324" lon="-2.515876"><ele>582.6</ele></trkpt>
<trkpt lat="43.147377" lon="-2.515714"><ele>582.4</ele></trkpt>
<trkpt lat="43.147401" lon="-2.515591"><ele>582.4</ele></trkpt>
<trkpt lat="43.147426" lon="-2.515444"><ele>582.6</ele></trkpt>
<trkpt lat="43.147440" lon="-2.515287"><ele>582.7</ele></trkpt>
<trkpt lat="43.147466" lon="-2.515102"><ele>583.1</ele></trkpt>
<trkpt lat="43.147486" lon="-2.514958"><ele>583.0</ele></trkpt>
<trkpt lat="43.147499" lon="-2.514815"><ele>583.4</ele></trkpt>
<trkpt lat="43.147516" lon="-2.514690"><ele>583.7</ele></trkpt>
<trkpt lat="43.147533" lon="-2.514492"><ele>583.8</ele></trkpt>
<trkpt lat="43.147547" lon="-2.514348"><ele>584.0</ele></trkpt>
<trkpt lat="43.147584" lon="-2.514209"><ele>584.1</ele></trkpt>
<trkpt lat="43.147614" lon="-2.514080"><ele>584.0</ele></trkpt>
<trkpt lat="43.147654" lon="-2.513928"><ele>584.5</ele></trkpt>
<trkpt lat="43.147705" lon="-2.513803"><ele>584.6</ele></trkpt>
<trkpt lat="43.147749" lon="-2.513677"><ele>584.8</ele></trkpt>
<trkpt lat="43.147787" lon="-2.513566"><ele>585.5</ele></trkpt>
<trkpt lat="43.147848" lon="-2.513431"><ele>586.5</ele></trkpt>
<trkpt lat="43.147904" lon="-2.513315"><ele>587.3</ele></trkpt>
<trkpt lat="43.147966" lon="-2.513204"><ele>587.7</ele></trkpt>
<trkpt lat="43.148026" lon="-2.513093"><ele>588.1</ele></trkpt>
<trkpt lat="43.148095" lon="-2.512955"><ele>588.2</ele></trkpt>
<trkpt lat="43.148145" lon="-2.512858"><ele>588.7</ele></trkpt>
<trkpt lat="43.148219" lon="-2.512742"><ele>589.1</ele></trkpt>
<trkpt lat="43.148288" lon="-2.512632"><ele>588.8</ele></trkpt>
<trkpt lat="43.148354" lon="-2.512498"><ele>588.9</ele></trkpt>
<trkpt lat="43.148402" lon="-2.512377"><ele>589.1</ele></trkpt>
<trkpt lat="43.148434" lon="-2.512267"><ele>589.5</ele></trkpt>
<trkpt lat="43.148464" lon="-2.512166"><ele>589.8</ele></trkpt>
<trkpt lat="43.148515" lon="-2.512020"><ele>590.5</ele></trkpt>
<trkpt lat="43.148560" lon="-2.511910"><ele>591.1</ele></trkpt>
<trkpt lat="43.148620" lon="-2.511773"><ele>591.2</ele></trkpt>
<trkpt lat="43.148690" lon="-2.511663"><ele>591.6</ele></trkpt>
<trkpt lat="43.148757" lon="-2.511556"><ele>591.9</ele></trkpt>
<trkpt lat="43.148830" lon="-2.511443"><ele>592.4</ele></trkpt>
<trkpt lat="43.148870" lon="-2.511359"><ele>592.7</ele></trkpt>
<trkpt lat="43.148902" lon="-2.511264"><ele>593.3</ele></trkpt>
<trkpt lat="43.148926" lon="-2.511154"><ele>594.2</ele></trkpt>
<trkpt lat="43.148969" lon="-2.511042"><ele>595.7</ele></trkpt>
<trkpt lat="43.148987" lon="-2.510954"><ele>596.7</ele></trkpt>
<trkpt lat="43.149013" lon="-2.510853"><ele>597.6</ele></trkpt>
<trkpt lat="43.149040" lon="-2.510775"><ele>598.6</ele></trkpt>
<trkpt lat="43.149054" lon="-2.510647"><ele>599.4</ele></trkpt>
<trkpt lat="43.149052" lon="-2.510576"><ele>600.2</ele></trkpt>
<trkpt lat="43.149051" lon="-2.510508"><ele>600.9</ele></trkpt>
<trkpt lat="43.149012" lon="-2.510444"><ele>600.0</ele></trkpt>
<trkpt lat="43.148951" lon="-2.510332"><ele>602.4</ele></trkpt>
<trkpt lat="43.148866" lon="-2.510339"><ele>603.5</ele></trkpt>
<trkpt lat="43.148814" lon="-2.510358"><ele>604.3</ele></trkpt>
<trkpt lat="43.148772" lon="-2.510382"><ele>604.9</ele></trkpt>
<trkpt lat="43.148710" lon="-2.510412"><ele>603.1</ele></trkpt>
<trkpt lat="43.148667" lon="-2.510439"><ele>603.5</ele></trkpt>
<trkpt lat="43.148623" lon="-2.510457"><ele>603.9</ele></trkpt>
<trkpt lat="43.148570" lon="-2.510473"><ele>604.5</ele></trkpt>
<trkpt lat="43.148511" lon="-2.510486"><ele>607.5</ele></trkpt>
<trkpt lat="43.148473" lon="-2.510497"><ele>606.8</ele></trkpt>
<trkpt lat="43.148439" lon="-2.510523"><ele>607.7</ele></trkpt>
<trkpt lat="43.148410" lon="-2.510551"><ele>608.5</ele></trkpt>
<trkpt lat="43.148361" lon="-2.510582"><ele>609.7</ele></trkpt>
<trkpt lat="43.148331" lon="-2.510605"><ele>611.1</ele></trkpt>
<trkpt lat="43.148296" lon="-2.510617"><ele>612.4</ele></trkpt>
<trkpt lat="43.148247" lon="-2.510651"><ele>613.1</ele></trkpt>
<trkpt lat="43.148211" lon="-2.510675"><ele>614.8</ele></trkpt>
<trkpt lat="43.148177" lon="-2.510698"><ele>616.1</ele></trkpt>
<trkpt lat="43.148141" lon="-2.510703"><ele>619.4</ele></trkpt>
<trkpt lat="43.148093" lon="-2.510719"><ele>619.2</ele></trkpt>
<trkpt lat="43.148046" lon="-2.510713"><ele>620.2</ele></trkpt>
<trkpt lat="43.148004" lon="-2.510713"><ele>621.0</ele></trkpt>
<trkpt lat="43.147974" lon="-2.510719"><ele>621.7</ele></trkpt>
<trkpt lat="43.147935" lon="-2.510741"><ele>623.6</ele></trkpt>
<trkpt lat="43.147888" lon="-2.510766"><ele>625.3</ele></trkpt>
<trkpt lat="43.147854" lon="-2.510790"><ele>626.7</ele></trkpt>
<trkpt lat="43.147815" lon="-2.510816"><ele>628.5</ele></trkpt>
<trkpt lat="43.147782" lon="-2.510838"><ele>629.9</ele></trkpt>
<trkpt lat="43.147751" lon="-2.510858"><ele>630.0</ele></trkpt>
<trkpt lat="43.147702" lon="-2.510890"><ele>631.0</ele></trkpt>
<trkpt lat="43.147673" lon="-2.510915"><ele>632.2</ele></trkpt>
<trkpt lat="43.147647" lon="-2.510936"><ele>632.6</ele></trkpt>
<trkpt lat="43.147621" lon="-2.510953"><ele>633.8</ele></trkpt>
<trkpt lat="43.147581" lon="-2.510988"><ele>635.6</ele></trkpt>
<trkpt lat="43.147535" lon="-2.511016"><ele>637.4</ele></trkpt>
<trkpt lat="43.147500" lon="-2.511032"><ele>639.3</ele></trkpt>
<trkpt lat="43.147467" lon="-2.511049"><ele>640.0</ele></trkpt>
<trkpt lat="43.147410" lon="-2.511082"><ele>641.0</ele></trkpt>
<trkpt lat="43.147373" lon="-2.511099"><ele>646.5</ele></trkpt>
<trkpt lat="43.147329" lon="-2.511119"><ele>648.3</ele></trkpt>
<trkpt lat="43.147298" lon="-2.511131"><ele>647.8</ele></trkpt>
<trkpt lat="43.147251" lon="-2.511153"><ele>647.1</ele></trkpt>
<trkpt lat="43.147218" lon="-2.511166"><ele>646.9</ele></trkpt>
<trkpt lat="43.147175" lon="-2.511187"><ele>647.4</ele></trkpt>
<trkpt lat="43.147132" lon="-2.511215"><ele>648.8</ele></trkpt>
<trkpt lat="43.147099" lon="-2.511234"><ele>649.7</ele></trkpt>
<trkpt lat="43.147064" lon="-2.511237"><ele>650.6</ele></trkpt>
<trkpt lat="43.147026" lon="-2.511252"><ele>651.3</ele></trkpt>
<trkpt lat="43.147003" lon="-2.511268"><ele>653.0</ele></trkpt>
<trkpt lat="43.146960" lon="-2.511290"><ele>654.6</ele></trkpt>
<trkpt lat="43.146915" lon="-2.511293"><ele>655.2</ele></trkpt>
<trkpt lat="43.146873" lon="-2.511303"><ele>656.7</ele></trkpt>
<trkpt lat="43.146848" lon="-2.511320"><ele>657.8</ele></trkpt>
<trkpt lat="43.146817" lon="-2.511341"><ele>659.2</ele></trkpt>
<trkpt lat="43.146797" lon="-2.511339"><ele>660.0</ele></trkpt>
<trkpt lat="43.146769" lon="-2.511337"><ele>662.2</ele></trkpt>
<trkpt lat="43.146731" lon="-2.511352"><ele>663.6</ele></trkpt>
<trkpt lat="43.146685" lon="-2.511330"><ele>666.4</ele></trkpt>
<trkpt lat="43.146667" lon="-2.511347"><ele>666.4</ele></trkpt>
<trkpt lat="43.146643" lon="-2.511378"><ele>666.8</ele></trkpt>
<trkpt lat="43.146635" lon="-2.511436"><ele>668.0</ele></trkpt>
<trkpt lat="43.146620" lon="-2.511506"><ele>668.5</ele></trkpt>
<trkpt lat="43.146597" lon="-2.511537"><ele>669.5</ele></trkpt>
<trkpt lat="43.146562" lon="-2.511561"><ele>670.6</ele></trkpt>
<trkpt lat="43.146566" lon="-2.511626"><ele>672.3</ele></trkpt>
<trkpt lat="43.146585" lon="-2.511703"><ele>672.6</ele></trkpt>
<trkpt lat="43.146617" lon="-2.511811"><ele>673.2</ele></trkpt>
<trkpt lat="43.146639" lon="-2.511963"><ele>674.3</ele></trkpt>
<trkpt lat="43.146658" lon="-2.512098"><ele>675.2</ele></trkpt>
<trkpt lat="43.146650" lon="-2.512234"><ele>676.1</ele></trkpt>
<trkpt lat="43.146631" lon="-2.512375"><ele>674.9</ele></trkpt>
<trkpt lat="43.146639" lon="-2.512491"><ele>674.1</ele></trkpt>
<trkpt lat="43.146634" lon="-2.512585"><ele>672.8</ele></trkpt>
<trkpt lat="43.146612" lon="-2.512701"><ele>671.3</ele></trkpt>
<trkpt lat="43.146614" lon="-2.512831"><ele>665.9</ele></trkpt>
<trkpt lat="43.146630" lon="-2.512905"><ele>663.8</ele></trkpt>
<trkpt lat="43.146615" lon="-2.513002"><ele>662.2</ele></trkpt>
<trkpt lat="43.146616" lon="-2.513106"><ele>659.8</ele></trkpt>
<trkpt lat="43.146647" lon="-2.513247"><ele>656.0</ele></trkpt>
<trkpt lat="43.146668" lon="-2.513343"><ele>652.7</ele></trkpt>
<trkpt lat="43.146693" lon="-2.513432"><ele>649.4</ele></trkpt>
<trkpt lat="43.146697" lon="-2.513525"><ele>646.9</ele></trkpt>
<trkpt lat="43.146728" lon="-2.513670"><ele>642.8</ele></trkpt>
<trkpt lat="43.146754" lon="-2.513801"><ele>639.6</ele></trkpt>
<trkpt lat="43.146774" lon="-2.513918"><ele>636.6</ele></trkpt>
<trkpt lat="43.146813" lon="-2.514109"><ele>633.6</ele></trkpt>
<trkpt lat="43.146844" lon="-2.514311"><ele>629.8</ele></trkpt>
<trkpt lat="43.146843" lon="-2.514479"><ele>627.0</ele></trkpt>
<trkpt lat="43.146853" lon="-2.514631"><ele>623.9</ele></trkpt>
<trkpt lat="43.146887" lon="-2.514792"><ele>620.8</ele></trkpt>
<trkpt lat="43.146938" lon="-2.515011"><ele>616.2</ele></trkpt>
<trkpt lat="43.146947" lon="-2.515214"><ele>612.3</ele></trkpt>
<trkpt lat="43.146894" lon="-2.515407"><ele>607.8</ele></trkpt>
<trkpt lat="43.146860" lon="-2.515581"><ele>604.0</ele></trkpt>
<trkpt lat="43.146803" lon="-2.515745"><ele>599.0</ele></trkpt>
<trkpt lat="43.146847" lon="-2.515915"><ele>594.6</ele></trkpt>
<trkpt lat="43.146900" lon="-2.516063"><ele>593.2</ele></trkpt>
<trkpt lat="43.146937" lon="-2.516197"><ele>591.4</ele></trkpt>
<trkpt lat="43.146889" lon="-2.516365"><ele>588.0</ele></trkpt>
<trkpt lat="43.146894" lon="-2.516523"><ele>584.3</ele></trkpt>
<trkpt lat="43.146843" lon="-2.516516"><ele>581.7</ele></trkpt>
<trkpt lat="43.146758" lon="-2.516434"><ele>579.4</ele></trkpt>
<trkpt lat="43.146643" lon="-2.516310"><ele>577.9</ele></trkpt>
<trkpt lat="43.146498" lon="-2.516142"><ele>574.3</ele></trkpt>
<trkpt lat="43.146413" lon="-2.516009"><ele>572.1</ele></trkpt>
<trkpt lat="43.146346" lon="-2.515844"><ele>571.1</ele></trkpt>
<trkpt lat="43.146302" lon="-2.515676"><ele>570.0</ele></trkpt>
<trkpt lat="43.146218" lon="-2.515477"><ele>568.5</ele></trkpt>
<trkpt lat="43.146156" lon="-2.515351"><ele>567.9</ele></trkpt>
<trkpt lat="43.146076" lon="-2.515212"><ele>567.2</ele></trkpt>
<trkpt lat="43.146004" lon="-2.515080"><ele>566.7</ele></trkpt>
<trkpt lat="43.145940" lon="-2.514914"><ele>566.5</ele></trkpt>
<trkpt lat="43.145907" lon="-2.514767"><ele>565.9</ele></trkpt>
<trkpt lat="43.145855" lon="-2.514671"><ele>566.9</ele></trkpt>
<trkpt lat="43.145783" lon="-2.514578"><ele>568.1</ele></trkpt>
<trkpt lat="43.145696" lon="-2.514447"><ele>568.8</ele></trkpt>
<trkpt lat="43.145617" lon="-2.514347"><ele>569.3</ele></trkpt>
<trkpt lat="43.145517" lon="-2.514262"><ele>569.0</ele></trkpt>
<trkpt lat="43.145389" lon="-2.514227"><ele>568.0</ele></trkpt>
<trkpt lat="43.145249" lon="-2.514182"><ele>566.2</ele></trkpt>
<trkpt lat="43.145153" lon="-2.514115"><ele>565.9</ele></trkpt>
<trkpt lat="43.145034" lon="-2.514028"><ele>565.4</ele></trkpt>
<trkpt lat="43.144924" lon="-2.513929"><ele>564.4</ele></trkpt>
<trkpt lat="43.144806" lon="-2.513798"><ele>563.1</ele></trkpt>
<trkpt lat="43.144713" lon="-2.513684"><ele>562.3</ele></trkpt>
<trkpt lat="43.144612" lon="-2.513545"><ele>561.3</ele></trkpt>
<trkpt lat="43.144524" lon="-2.513404"><ele>560.0</ele></trkpt>
<trkpt lat="43.144427" lon="-2.513224"><ele>558.6</ele></trkpt>
<trkpt lat="43.144353" lon="-2.513085"><ele>557.1</ele></trkpt>
<trkpt lat="43.144268" lon="-2.512960"><ele>555.0</ele></trkpt>
<trkpt lat="43.144214" lon="-2.512885"><ele>553.0</ele></trkpt>
<trkpt lat="43.144128" lon="-2.512704"><ele>551.7</ele></trkpt>
<trkpt lat="43.144051" lon="-2.512537"><ele>550.0</ele></trkpt>
<trkpt lat="43.143980" lon="-2.512355"><ele>548.1</ele></trkpt>
<trkpt lat="43.143924" lon="-2.512196"><ele>545.4</ele></trkpt>
<trkpt lat="43.143840" lon="-2.512005"><ele>541.6</ele></trkpt>
<trkpt lat="43.143784" lon="-2.511842"><ele>538.2</ele></trkpt>
<trkpt lat="43.143726" lon="-2.511658"><ele>535.5</ele></trkpt>
<trkpt lat="43.143655" lon="-2.511464"><ele>532.2</ele></trkpt>
<trkpt lat="43.143585" lon="-2.511210"><ele>527.8</ele></trkpt>
<trkpt lat="43.143519" lon="-2.510999"><ele>524.9</ele></trkpt>
<trkpt lat="43.143471" lon="-2.510786"><ele>522.4</ele></trkpt>
<trkpt lat="43.143448" lon="-2.510566"><ele>520.3</ele></trkpt>
<trkpt lat="43.143435" lon="-2.510362"><ele>518.9</ele></trkpt>
<trkpt lat="43.143433" lon="-2.510110"><ele>517.2</ele></trkpt>
<trkpt lat="43.143446" lon="-2.509910"><ele>516.0</ele></trkpt>
<trkpt lat="43.143480" lon="-2.509711"><ele>514.4</ele></trkpt>
<trkpt lat="43.143520" lon="-2.509523"><ele>513.1</ele></trkpt>
<trkpt lat="43.143583" lon="-2.509278"><ele>510.5</ele></trkpt>
<trkpt lat="43.143632" lon="-2.509052"><ele>508.4</ele></trkpt>
<trkpt lat="43.143625" lon="-2.508843"><ele>506.6</ele></trkpt>
<trkpt lat="43.143490" lon="-2.508785"><ele>504.1</ele></trkpt>
<trkpt lat="43.143318" lon="-2.508960"><ele>500.0</ele></trkpt>
<trkpt lat="43.143194" lon="-2.509056"><ele>496.8</ele></trkpt>
<trkpt lat="43.143063" lon="-2.509116"><ele>493.7</ele></trkpt>
<trkpt lat="43.142923" lon="-2.509188"><ele>490.1</ele></trkpt>
<trkpt lat="43.142739" lon="-2.509262"><ele>486.0</ele></trkpt>
<trkpt lat="43.142607" lon="-2.509278"><ele>482.8</ele></trkpt>
<trkpt lat="43.142443" lon="-2.509261"><ele>479.3</ele></trkpt>
<trkpt lat="43.142337" lon="-2.509115"><ele>476.0</ele></trkpt>
<trkpt lat="43.142332" lon="-2.508823"><ele>472.4</ele></trkpt>
<trkpt lat="43.142338" lon="-2.508595"><ele>470.0</ele></trkpt>
<trkpt lat="43.142316" lon="-2.508357"><ele>467.5</ele></trkpt>
<trkpt lat="43.142146" lon="-2.508257"><ele>465.2</ele></trkpt>
<trkpt lat="43.141918" lon="-2.508277"><ele>462.5</ele></trkpt>
<trkpt lat="43.141754" lon="-2.508283"><ele>461.3</ele></trkpt>
<trkpt lat="43.141602" lon="-2.508307"><ele>460.6</ele></trkpt>
<trkpt lat="43.141450" lon="-2.508388"><ele>460.1</ele></trkpt>
<trkpt lat="43.141266" lon="-2.508516"><ele>459.5</ele></trkpt>
<trkpt lat="43.141111" lon="-2.508536"><ele>459.1</ele></trkpt>
<trkpt lat="43.140984" lon="-2.508633"><ele>459.1</ele></trkpt>
<trkpt lat="43.140877" lon="-2.508738"><ele>459.6</ele></trkpt>
<trkpt lat="43.140762" lon="-2.508872"><ele>460.0</ele></trkpt>
<trkpt lat="43.140689" lon="-2.508992"><ele>460.0</ele></trkpt>
<trkpt lat="43.140625" lon="-2.509101"><ele>460.2</ele></trkpt>
<trkpt lat="43.140580" lon="-2.509192"><ele>460.0</ele></trkpt>
<trkpt lat="43.140492" lon="-2.509285"><ele>460.3</ele></trkpt>
<trkpt lat="43.140412" lon="-2.509352"><ele>460.9</ele></trkpt>
<trkpt lat="43.140332" lon="-2.509430"><ele>461.0</ele></trkpt>
<trkpt lat="43.140255" lon="-2.509515"><ele>461.1</ele></trkpt>
<trkpt lat="43.140163" lon="-2.509600"><ele>461.1</ele></trkpt>
<trkpt lat="43.140058" lon="-2.509704"><ele>461.2</ele></trkpt>
<trkpt lat="43.139968" lon="-2.509795"><ele>461.7</ele></trkpt>
<trkpt lat="43.139870" lon="-2.509882"><ele>461.8</ele></trkpt>
<trkpt lat="43.139769" lon="-2.509966"><ele>462.2</ele></trkpt>
<trkpt lat="43.139639" lon="-2.510052"><ele>462.5</ele></trkpt>
<trkpt lat="43.139524" lon="-2.510098"><ele>462.4</ele></trkpt>
<trkpt lat="43.139396" lon="-2.510136"><ele>462.4</ele></trkpt>
<trkpt lat="43.139276" lon="-2.510172"><ele>462.1</ele></trkpt>
<trkpt lat="43.139127" lon="-2.510198"><ele>461.7</ele></trkpt>
<trkpt lat="43.139004" lon="-2.510247"><ele>461.4</ele></trkpt>
<trkpt lat="43.138889" lon="-2.510296"><ele>460.8</ele></trkpt>
<trkpt lat="43.138760" lon="-2.510344"><ele>459.8</ele></trkpt>
<trkpt lat="43.138598" lon="-2.510385"><ele>457.8</ele></trkpt>
<trkpt lat="43.138461" lon="-2.510403"><ele>456.5</ele></trkpt>
<trkpt lat="43.138324" lon="-2.510408"><ele>455.1</ele></trkpt>
<trkpt lat="43.138183" lon="-2.510403"><ele>454.0</ele></trkpt>
<trkpt lat="43.138015" lon="-2.510377"><ele>452.8</ele></trkpt>
<trkpt lat="43.137879" lon="-2.510344"><ele>451.9</ele></trkpt>
<trkpt lat="43.137739" lon="-2.510362"><ele>451.2</ele></trkpt>
<trkpt lat="43.137611" lon="-2.510447"><ele>450.7</ele></trkpt>
<trkpt lat="43.137470" lon="-2.510571"><ele>450.4</ele></trkpt>
<trkpt lat="43.137354" lon="-2.510661"><ele>450.5</ele></trkpt>
<trkpt lat="43.137234" lon="-2.510747"><ele>450.5</ele></trkpt>
<trkpt lat="43.137121" lon="-2.510848"><ele>449.9</ele></trkpt>
<trkpt lat="43.136986" lon="-2.511006"><ele>449.0</ele></trkpt>
<trkpt lat="43.136899" lon="-2.511112"><ele>448.8</ele></trkpt>
<trkpt lat="43.136810" lon="-2.511211"><ele>448.6</ele></trkpt>
<trkpt lat="43.136711" lon="-2.511323"><ele>448.2</ele></trkpt>
<trkpt lat="43.136599" lon="-2.511458"><ele>447.7</ele></trkpt>
<trkpt lat="43.136500" lon="-2.511566"><ele>446.9</ele></trkpt>
<trkpt lat="43.136398" lon="-2.511670"><ele>446.6</ele></trkpt>
<trkpt lat="43.136316" lon="-2.511779"><ele>446.2</ele></trkpt>
<trkpt lat="43.136218" lon="-2.511908"><ele>446.3</ele></trkpt>
<trkpt lat="43.136144" lon="-2.512013"><ele>446.3</ele></trkpt>
<trkpt lat="43.136061" lon="-2.512140"><ele>446.0</ele></trkpt>
<trkpt lat="43.135968" lon="-2.512280"><ele>445.8</ele></trkpt>
<trkpt lat="43.135904" lon="-2.512417"><ele>445.8</ele></trkpt>
<trkpt lat="43.135812" lon="-2.512570"><ele>446.1</ele></trkpt>
<trkpt lat="43.135725" lon="-2.512657"><ele>446.1</ele></trkpt>
<trkpt lat="43.135678" lon="-2.512683"><ele>446.3</ele></trkpt>
<trkpt lat="43.135617" lon="-2.512717"><ele>448.0</ele></trkpt>
<trkpt lat="43.135514" lon="-2.512774"><ele>449.1</ele></trkpt>
<trkpt lat="43.135433" lon="-2.512788"><ele>449.4</ele></trkpt>
<trkpt lat="43.135360" lon="-2.512788"><ele>450.2</ele></trkpt>
<trkpt lat="43.135283" lon="-2.512837"><ele>451.3</ele></trkpt>
<trkpt lat="43.135166" lon="-2.512863"><ele>451.6</ele></trkpt>
<trkpt lat="43.135112" lon="-2.512817"><ele>452.2</ele></trkpt>
<trkpt lat="43.135030" lon="-2.512800"><ele>451.8</ele></trkpt>
<trkpt lat="43.134997" lon="-2.512892"><ele>451.4</ele></trkpt>
<trkpt lat="43.134999" lon="-2.513046"><ele>451.6</ele></trkpt>
<trkpt lat="43.135004" lon="-2.513140"><ele>451.9</ele></trkpt>
<trkpt lat="43.134997" lon="-2.513227"><ele>452.5</ele></trkpt>
<trkpt lat="43.134964" lon="-2.513300"><ele>453.6</ele></trkpt>
<trkpt lat="43.134892" lon="-2.513398"><ele>455.0</ele></trkpt>
<trkpt lat="43.134826" lon="-2.513469"><ele>455.6</ele></trkpt>
<trkpt lat="43.134778" lon="-2.513543"><ele>456.6</ele></trkpt>
<trkpt lat="43.134710" lon="-2.513566"><ele>457.9</ele></trkpt>
<trkpt lat="43.134667" lon="-2.513480"><ele>459.5</ele></trkpt>
<trkpt lat="43.134648" lon="-2.513409"><ele>460.8</ele></trkpt>
<trkpt lat="43.134639" lon="-2.513357"><ele>462.1</ele></trkpt>
<trkpt lat="43.134649" lon="-2.513287"><ele>463.3</ele></trkpt>
<trkpt lat="43.134639" lon="-2.513207"><ele>464.6</ele></trkpt>
<trkpt lat="43.134641" lon="-2.513139"><ele>465.8</ele></trkpt>
<trkpt lat="43.134633" lon="-2.513064"><ele>466.9</ele></trkpt>
<trkpt lat="43.134629" lon="-2.512989"><ele>467.6</ele></trkpt>
<trkpt lat="43.134602" lon="-2.512910"><ele>468.6</ele></trkpt>
<trkpt lat="43.134589" lon="-2.512850"><ele>469.4</ele></trkpt>
<trkpt lat="43.134586" lon="-2.512798"><ele>470.2</ele></trkpt>
<trkpt lat="43.134572" lon="-2.512739"><ele>471.3</ele></trkpt>
<trkpt lat="43.134572" lon="-2.512669"><ele>472.9</ele></trkpt>
<trkpt lat="43.134580" lon="-2.512606"><ele>474.2</ele></trkpt>
<trkpt lat="43.134590" lon="-2.512530"><ele>475.3</ele></trkpt>
<trkpt lat="43.134592" lon="-2.512461"><ele>476.5</ele></trkpt>
<trkpt lat="43.134590" lon="-2.512363"><ele>477.6</ele></trkpt>
<trkpt lat="43.134593" lon="-2.512291"><ele>478.0</ele></trkpt>
<trkpt lat="43.134593" lon="-2.512215"><ele>478.8</ele></trkpt>
<trkpt lat="43.134590" lon="-2.512155"><ele>479.9</ele></trkpt>
<trkpt lat="43.134583" lon="-2.512092"><ele>480.9</ele></trkpt>
<trkpt lat="43.134564" lon="-2.512012"><ele>482.1</ele></trkpt>
<trkpt lat="43.134551" lon="-2.512004"><ele>483.1</ele></trkpt>
<trkpt lat="43.134555" lon="-2.511977"><ele>483.7</ele></trkpt>
<trkpt lat="43.134545" lon="-2.511907"><ele>483.9</ele></trkpt>
<trkpt lat="43.134525" lon="-2.511837"><ele>484.9</ele></trkpt>
<trkpt lat="43.134517" lon="-2.511785"><ele>486.1</ele></trkpt>
<trkpt lat="43.134519" lon="-2.511728"><ele>487.0</ele></trkpt>
<trkpt lat="43.134514" lon="-2.511664"><ele>488.0</ele></trkpt>
<trkpt lat="43.134497" lon="-2.511571"><ele>488.8</ele></trkpt>
<trkpt lat="43.134491" lon="-2.511493"><ele>489.9</ele></trkpt>
<trkpt lat="43.134483" lon="-2.511436"><ele>490.9</ele></trkpt>
<trkpt lat="43.134473" lon="-2.511376"><ele>491.8</ele></trkpt>
<trkpt lat="43.134464" lon="-2.511285"><ele>492.9</ele></trkpt>
<trkpt lat="43.134468" lon="-2.511238"><ele>493.7</ele></trkpt>
<trkpt lat="43.134483" lon="-2.511186"><ele>495.0</ele></trkpt>
<trkpt lat="43.134481" lon="-2.511130"><ele>496.0</ele></trkpt>
<trkpt lat="43.134485" lon="-2.511056"><ele>497.6</ele></trkpt>
<trkpt lat="43.134494" lon="-2.510987"><ele>498.6</ele></trkpt>
<trkpt lat="43.134513" lon="-2.510926"><ele>499.9</ele></trkpt>
<trkpt lat="43.134528" lon="-2.510874"><ele>500.9</ele></trkpt>
<trkpt lat="43.134518" lon="-2.510820"><ele>502.2</ele></trkpt>
<trkpt lat="43.134527" lon="-2.510777"><ele>503.5</ele></trkpt>
<trkpt lat="43.134544" lon="-2.510715"><ele>503.6</ele></trkpt>
<trkpt lat="43.134566" lon="-2.510631"><ele>503.6</ele></trkpt>
<trkpt lat="43.134603" lon="-2.510516"><ele>503.6</ele></trkpt>
<trkpt lat="43.134581" lon="-2.510431"><ele>503.3</ele></trkpt>
<trkpt lat="43.134565" lon="-2.510379"><ele>503.0</ele></trkpt>
<trkpt lat="43.134550" lon="-2.510334"><ele>502.9</ele></trkpt>
<trkpt lat="43.134524" lon="-2.510302"><ele>504.5</ele></trkpt>
<trkpt lat="43.134483" lon="-2.510277"><ele>506.8</ele></trkpt>
<trkpt lat="43.134465" lon="-2.510274"><ele>508.1</ele></trkpt>
<trkpt lat="43.134437" lon="-2.510260"><ele>508.4</ele></trkpt>
<trkpt lat="43.134422" lon="-2.510215"><ele>509.0</ele></trkpt>
<trkpt lat="43.134412" lon="-2.510171"><ele>509.9</ele></trkpt>
<trkpt lat="43.134391" lon="-2.510147"><ele>511.9</ele></trkpt>
<trkpt lat="43.134365" lon="-2.510125"><ele>513.2</ele></trkpt>
<trkpt lat="43.134363" lon="-2.510081"><ele>513.8</ele></trkpt>
<trkpt lat="43.134365" lon="-2.510032"><ele>514.7</ele></trkpt>
<trkpt lat="43.134358" lon="-2.510015"><ele>515.0</ele></trkpt>
<trkpt lat="43.134346" lon="-2.509978"><ele>515.4</ele></trkpt>
<trkpt lat="43.134330" lon="-2.509933"><ele>516.3</ele></trkpt>
<trkpt lat="43.134290" lon="-2.509878"><ele>517.3</ele></trkpt>
<trkpt lat="43.134258" lon="-2.509837"><ele>517.9</ele></trkpt>
<trkpt lat="43.134225" lon="-2.509791"><ele>519.3</ele></trkpt>
<trkpt lat="43.134219" lon="-2.509754"><ele>520.1</ele></trkpt>
<trkpt lat="43.134244" lon="-2.509695"><ele>522.5</ele></trkpt>
<trkpt lat="43.134270" lon="-2.509653"><ele>522.9</ele></trkpt>
<trkpt lat="43.134282" lon="-2.509591"><ele>524.8</ele></trkpt>
<trkpt lat="43.134272" lon="-2.509496"><ele>524.9</ele></trkpt>
<trkpt lat="43.134299" lon="-2.509406"><ele>525.5</ele></trkpt>
<trkpt lat="43.134288" lon="-2.509351"><ele>525.2</ele></trkpt>
<trkpt lat="43.134259" lon="-2.509272"><ele>526.5</ele></trkpt>
<trkpt lat="43.134232" lon="-2.509214"><ele>528.2</ele></trkpt>
<trkpt lat="43.134188" lon="-2.509177"><ele>528.4</ele></trkpt>
<trkpt lat="43.134166" lon="-2.509177"><ele>529.1</ele></trkpt>
<trkpt lat="43.134140" lon="-2.509139"><ele>530.1</ele></trkpt>
<trkpt lat="43.134117" lon="-2.509108"><ele>530.9</ele></trkpt>
<trkpt lat="43.134099" lon="-2.509107"><ele>533.3</ele></trkpt>
<trkpt lat="43.134092" lon="-2.509090"><ele>533.2</ele></trkpt>
<trkpt lat="43.134069" lon="-2.509072"><ele>533.8</ele></trkpt>
<trkpt lat="43.134032" lon="-2.509097"><ele>535.2</ele></trkpt>
<trkpt lat="43.133988" lon="-2.509113"><ele>536.2</ele></trkpt>
<trkpt lat="43.133964" lon="-2.509120"><ele>537.4</ele></trkpt>
<trkpt lat="43.133913" lon="-2.509151"><ele>540.6</ele></trkpt>
<trkpt lat="43.133856" lon="-2.509217"><ele>540.4</ele></trkpt>
<trkpt lat="43.133790" lon="-2.509242"><ele>546.0</ele></trkpt>
<trkpt lat="43.133738" lon="-2.509197"><ele>548.0</ele></trkpt>
<trkpt lat="43.133691" lon="-2.509185"><ele>547.6</ele></trkpt>
<trkpt lat="43.133632" lon="-2.509202"><ele>546.7</ele></trkpt>
<trkpt lat="43.133547" lon="-2.509283"><ele>547.0</ele></trkpt>
<trkpt lat="43.133493" lon="-2.509383"><ele>547.1</ele></trkpt>
<trkpt lat="43.133451" lon="-2.509341"><ele>546.8</ele></trkpt>
<trkpt lat="43.133409" lon="-2.509300"><ele>546.4</ele></trkpt>
<trkpt lat="43.133380" lon="-2.509273"><ele>547.9</ele></trkpt>
<trkpt lat="43.133340" lon="-2.509241"><ele>550.9</ele></trkpt>
<trkpt lat="43.133297" lon="-2.509231"><ele>551.4</ele></trkpt>
<trkpt lat="43.133257" lon="-2.509223"><ele>548.6</ele></trkpt>
<trkpt lat="43.133211" lon="-2.509219"><ele>548.5</ele></trkpt>
<trkpt lat="43.133161" lon="-2.509200"><ele>548.8</ele></trkpt>
<trkpt lat="43.133108" lon="-2.509198"><ele>549.9</ele></trkpt>
<trkpt lat="43.133051" lon="-2.509189"><ele>550.7</ele></trkpt>
<trkpt lat="43.133007" lon="-2.509174"><ele>553.4</ele></trkpt>
<trkpt lat="43.132965" lon="-2.509168"><ele>554.3</ele></trkpt>
<trkpt lat="43.132935" lon="-2.509157"><ele>555.0</ele></trkpt>
<trkpt lat="43.132895" lon="-2.509143"><ele>555.9</ele></trkpt>
<trkpt lat="43.132866" lon="-2.509129"><ele>557.5</ele></trkpt>
<trkpt lat="43.132847" lon="-2.509103"><ele>559.1</ele></trkpt>
<trkpt lat="43.132816" lon="-2.509075"><ele>559.9</ele></trkpt>
<trkpt lat="43.132814" lon="-2.509049"><ele>561.3</ele></trkpt>
<trkpt lat="43.132796" lon="-2.509008"><ele>561.8</ele></trkpt>
<trkpt lat="43.132769" lon="-2.508963"><ele>563.5</ele></trkpt>
<trkpt lat="43.132757" lon="-2.508930"><ele>566.8</ele></trkpt>
<trkpt lat="43.132737" lon="-2.508890"><ele>572.1</ele></trkpt>
<trkpt lat="43.132711" lon="-2.508851"><ele>571.9</ele></trkpt>
<trkpt lat="43.132675" lon="-2.508809"><ele>568.6</ele></trkpt>
<trkpt lat="43.132646" lon="-2.508772"><ele>569.6</ele></trkpt>
<trkpt lat="43.132630" lon="-2.508755"><ele>570.4</ele></trkpt>
<trkpt lat="43.132616" lon="-2.508737"><ele>571.6</ele></trkpt>
<trkpt lat="43.132621" lon="-2.508707"><ele>572.0</ele></trkpt>
<trkpt lat="43.132626" lon="-2.508676"><ele>572.8</ele></trkpt>
<trkpt lat="43.132638" lon="-2.508635"><ele>574.0</ele></trkpt>
<trkpt lat="43.132643" lon="-2.508587"><ele>574.8</ele></trkpt>
<trkpt lat="43.132657" lon="-2.508540"><ele>576.5</ele></trkpt>
<trkpt lat="43.132662" lon="-2.508505"><ele>577.5</ele></trkpt>
<trkpt lat="43.132678" lon="-2.508487"><ele>580.3</ele></trkpt>
<trkpt lat="43.132688" lon="-2.508453"><ele>580.1</ele></trkpt>
<trkpt lat="43.132639" lon="-2.508417"><ele>582.0</ele></trkpt>
<trkpt lat="43.132631" lon="-2.508393"><ele>583.2</ele></trkpt>
<trkpt lat="43.132616" lon="-2.508358"><ele>583.7</ele></trkpt>
<trkpt lat="43.132611" lon="-2.508312"><ele>584.6</ele></trkpt>
<trkpt lat="43.132591" lon="-2.508269"><ele>587.3</ele></trkpt>
<trkpt lat="43.132577" lon="-2.508253"><ele>589.1</ele></trkpt>
<trkpt lat="43.132556" lon="-2.508231"><ele>589.4</ele></trkpt>
<trkpt lat="43.132534" lon="-2.508214"><ele>590.8</ele></trkpt>
<trkpt lat="43.132506" lon="-2.508215"><ele>591.4</ele></trkpt>
<trkpt lat="43.132456" lon="-2.508195"><ele>593.2</ele></trkpt>
<trkpt lat="43.132431" lon="-2.508173"><ele>594.5</ele></trkpt>
<trkpt lat="43.132405" lon="-2.508139"><ele>595.2</ele></trkpt>
<trkpt lat="43.132359" lon="-2.508116"><ele>596.8</ele></trkpt>
<trkpt lat="43.132307" lon="-2.508088"><ele>597.8</ele></trkpt>
<trkpt lat="43.132260" lon="-2.508059"><ele>598.6</ele></trkpt>
<trkpt lat="43.132216" lon="-2.508021"><ele>599.4</ele></trkpt>
<trkpt lat="43.132172" lon="-2.507983"><ele>600.4</ele></trkpt>
<trkpt lat="43.132086" lon="-2.507936"><ele>601.6</ele></trkpt>
<trkpt lat="43.132078" lon="-2.507839"><ele>604.4</ele></trkpt>
<trkpt lat="43.132083" lon="-2.507743"><ele>605.9</ele></trkpt>
<trkpt lat="43.132101" lon="-2.507637"><ele>607.1</ele></trkpt>
<trkpt lat="43.132117" lon="-2.507540"><ele>608.2</ele></trkpt>
<trkpt lat="43.132118" lon="-2.507483"><ele>607.5</ele></trkpt>
<trkpt lat="43.132122" lon="-2.507409"><ele>605.8</ele></trkpt>
<trkpt lat="43.132144" lon="-2.507349"><ele>608.9</ele></trkpt>
<trkpt lat="43.132157" lon="-2.507278"><ele>609.9</ele></trkpt>
<trkpt lat="43.132174" lon="-2.507216"><ele>608.7</ele></trkpt>
<trkpt lat="43.132190" lon="-2.507155"><ele>609.7</ele></trkpt>
<trkpt lat="43.132203" lon="-2.507102"><ele>610.8</ele></trkpt>
<trkpt lat="43.132231" lon="-2.507038"><ele>613.6</ele></trkpt>
<trkpt lat="43.132243" lon="-2.506952"><ele>614.9</ele></trkpt>
<trkpt lat="43.132252" lon="-2.506839"><ele>616.4</ele></trkpt>
<trkpt lat="43.132242" lon="-2.506721"><ele>620.6</ele></trkpt>
<trkpt lat="43.132231" lon="-2.506550"><ele>621.4</ele></trkpt>
<trkpt lat="43.132218" lon="-2.506453"><ele>621.8</ele></trkpt>
<trkpt lat="43.132202" lon="-2.506336"><ele>622.7</ele></trkpt>
<trkpt lat="43.132182" lon="-2.506209"><ele>623.4</ele></trkpt>
<trkpt lat="43.132155" lon="-2.506059"><ele>622.9</ele></trkpt>
<trkpt lat="43.132138" lon="-2.505932"><ele>622.5</ele></trkpt>
<trkpt lat="43.132119" lon="-2.505800"><ele>623.3</ele></trkpt>
<trkpt lat="43.132107" lon="-2.505671"><ele>623.6</ele></trkpt>
<trkpt lat="43.132087" lon="-2.505524"><ele>624.5</ele></trkpt>
<trkpt lat="43.132070" lon="-2.505422"><ele>625.3</ele></trkpt>
<trkpt lat="43.132060" lon="-2.505354"><ele>625.7</ele></trkpt>
<trkpt lat="43.132055" lon="-2.505284"><ele>625.8</ele></trkpt>
<trkpt lat="43.132048" lon="-2.505219"><ele>626.6</ele></trkpt>
<trkpt lat="43.132049" lon="-2.505139"><ele>628.4</ele></trkpt>
<trkpt lat="43.132042" lon="-2.505056"><ele>625.5</ele></trkpt>
<trkpt lat="43.132032" lon="-2.504974"><ele>625.0</ele></trkpt>
<trkpt lat="43.132016" lon="-2.504877"><ele>626.2</ele></trkpt>
<trkpt lat="43.132012" lon="-2.504765"><ele>629.6</ele></trkpt>
<trkpt lat="43.132014" lon="-2.504654"><ele>630.6</ele></trkpt>
<trkpt lat="43.132034" lon="-2.504540"><ele>633.2</ele></trkpt>
<trkpt lat="43.132057" lon="-2.504397"><ele>634.5</ele></trkpt>
<trkpt lat="43.132031" lon="-2.504235"><ele>635.7</ele></trkpt>
<trkpt lat="43.132001" lon="-2.504100"><ele>636.0</ele></trkpt>
<trkpt lat="43.131967" lon="-2.503971"><ele>635.8</ele></trkpt>
<trkpt lat="43.131942" lon="-2.503854"><ele>636.1</ele></trkpt>
<trkpt lat="43.131932" lon="-2.503751"><ele>637.0</ele></trkpt>
<trkpt lat="43.131918" lon="-2.503696"><ele>637.1</ele></trkpt>
<trkpt lat="43.131901" lon="-2.503637"><ele>637.5</ele></trkpt>
<trkpt lat="43.131880" lon="-2.503580"><ele>635.4</ele></trkpt>
<trkpt lat="43.131837" lon="-2.503528"><ele>635.3</ele></trkpt>
<trkpt lat="43.131774" lon="-2.503495"><ele>636.2</ele></trkpt>
<trkpt lat="43.131716" lon="-2.503478"><ele>637.4</ele></trkpt>
<trkpt lat="43.131686" lon="-2.503432"><ele>638.6</ele></trkpt>
<trkpt lat="43.131684" lon="-2.503362"><ele>640.5</ele></trkpt>
<trkpt lat="43.131678" lon="-2.503323"><ele>641.8</ele></trkpt>
<trkpt lat="43.131666" lon="-2.503272"><ele>644.1</ele></trkpt>
<trkpt lat="43.131657" lon="-2.503209"><ele>645.3</ele></trkpt>
<trkpt lat="43.131647" lon="-2.503135"><ele>647.4</ele></trkpt>
<trkpt lat="43.131637" lon="-2.503088"><ele>648.9</ele></trkpt>
<trkpt lat="43.131630" lon="-2.503033"><ele>649.7</ele></trkpt>
<trkpt lat="43.131613" lon="-2.502967"><ele>650.8</ele></trkpt>
<trkpt lat="43.131608" lon="-2.502889"><ele>652.0</ele></trkpt>
<trkpt lat="43.131598" lon="-2.502814"><ele>652.9</ele></trkpt>
<trkpt lat="43.131582" lon="-2.502753"><ele>654.2</ele></trkpt>
<trkpt lat="43.131581" lon="-2.502689"><ele>655.7</ele></trkpt>
<trkpt lat="43.131586" lon="-2.502612"><ele>656.5</ele></trkpt>
<trkpt lat="43.131566" lon="-2.502547"><ele>657.5</ele></trkpt>
<trkpt lat="43.131547" lon="-2.502479"><ele>658.2</ele></trkpt>
<trkpt lat="43.131543" lon="-2.502415"><ele>659.7</ele></trkpt>
<trkpt lat="43.131540" lon="-2.502320"><ele>661.8</ele></trkpt>
<trkpt lat="43.131538" lon="-2.502235"><ele>661.7</ele></trkpt>
<trkpt lat="43.131535" lon="-2.502162"><ele>663.9</ele></trkpt>
<trkpt lat="43.131534" lon="-2.502079"><ele>665.1</ele></trkpt>
<trkpt lat="43.131549" lon="-2.502001"><ele>665.4</ele></trkpt>
<trkpt lat="43.131557" lon="-2.501901"><ele>665.2</ele></trkpt>
<trkpt lat="43.131554" lon="-2.501834"><ele>666.3</ele></trkpt>
<trkpt lat="43.131562" lon="-2.501753"><ele>667.7</ele></trkpt>
<trkpt lat="43.131549" lon="-2.501696"><ele>667.2</ele></trkpt>
<trkpt lat="43.131529" lon="-2.501614"><ele>668.5</ele></trkpt>
<trkpt lat="43.131502" lon="-2.501552"><ele>670.6</ele></trkpt>
<trkpt lat="43.131488" lon="-2.501480"><ele>671.9</ele></trkpt>
<trkpt lat="43.131482" lon="-2.501414"><ele>672.0</ele></trkpt>
<trkpt lat="43.131479" lon="-2.501345"><ele>673.2</ele></trkpt>
<trkpt lat="43.131469" lon="-2.501281"><ele>674.4</ele></trkpt>
<trkpt lat="43.131449" lon="-2.501222"><ele>677.0</ele></trkpt>
<trkpt lat="43.131424" lon="-2.501156"><ele>679.4</ele></trkpt>
<trkpt lat="43.131389" lon="-2.501072"><ele>678.8</ele></trkpt>
<trkpt lat="43.131372" lon="-2.501012"><ele>678.4</ele></trkpt>
<trkpt lat="43.131350" lon="-2.500962"><ele>679.4</ele></trkpt>
<trkpt lat="43.131323" lon="-2.500916"><ele>680.7</ele></trkpt>
<trkpt lat="43.131295" lon="-2.500865"><ele>682.6</ele></trkpt>
<trkpt lat="43.131270" lon="-2.500809"><ele>683.8</ele></trkpt>
<trkpt lat="43.131241" lon="-2.500760"><ele>686.6</ele></trkpt>
<trkpt lat="43.131222" lon="-2.500712"><ele>687.0</ele></trkpt>
<trkpt lat="43.131200" lon="-2.500639"><ele>688.2</ele></trkpt>
<trkpt lat="43.131182" lon="-2.500595"><ele>689.3</ele></trkpt>
<trkpt lat="43.131153" lon="-2.500539"><ele>690.8</ele></trkpt>
<trkpt lat="43.131138" lon="-2.500502"><ele>692.4</ele></trkpt>
<trkpt lat="43.131109" lon="-2.500438"><ele>695.0</ele></trkpt>
<trkpt lat="43.131090" lon="-2.500392"><ele>695.4</ele></trkpt>
<trkpt lat="43.131067" lon="-2.500352"><ele>696.8</ele></trkpt>
<trkpt lat="43.131042" lon="-2.500316"><ele>697.9</ele></trkpt>
<trkpt lat="43.131022" lon="-2.500291"><ele>699.2</ele></trkpt>
<trkpt lat="43.131013" lon="-2.500247"><ele>700.4</ele></trkpt>
<trkpt lat="43.130994" lon="-2.500198"><ele>701.4</ele></trkpt>
<trkpt lat="43.130966" lon="-2.500160"><ele>702.5</ele></trkpt>
<trkpt lat="43.130941" lon="-2.500114"><ele>704.4</ele></trkpt>
<trkpt lat="43.130916" lon="-2.500090"><ele>705.7</ele></trkpt>
<trkpt lat="43.130889" lon="-2.500069"><ele>706.5</ele></trkpt>
<trkpt lat="43.130863" lon="-2.500034"><ele>708.3</ele></trkpt>
<trkpt lat="43.130833" lon="-2.500014"><ele>709.2</ele></trkpt>
<trkpt lat="43.130801" lon="-2.499991"><ele>710.9</ele></trkpt>
<trkpt lat="43.130777" lon="-2.499959"><ele>711.9</ele></trkpt>
<trkpt lat="43.130746" lon="-2.499934"><ele>713.1</ele></trkpt>
<trkpt lat="43.130716" lon="-2.499910"><ele>714.8</ele></trkpt>
<trkpt lat="43.130670" lon="-2.499871"><ele>716.2</ele></trkpt>
<trkpt lat="43.130637" lon="-2.499823"><ele>717.9</ele></trkpt>
<trkpt lat="43.130607" lon="-2.499768"><ele>720.4</ele></trkpt>
<trkpt lat="43.130583" lon="-2.499716"><ele>721.1</ele></trkpt>
<trkpt lat="43.130549" lon="-2.499620"><ele>722.9</ele></trkpt>
<trkpt lat="43.130510" lon="-2.499547"><ele>724.7</ele></trkpt>
<trkpt lat="43.130478" lon="-2.499462"><ele>726.5</ele></trkpt>
<trkpt lat="43.130454" lon="-2.499371"><ele>728.1</ele></trkpt>
<trkpt lat="43.130411" lon="-2.499303"><ele>729.1</ele></trkpt>
<trkpt lat="43.130369" lon="-2.499226"><ele>730.4</ele></trkpt>
<trkpt lat="43.130335" lon="-2.499143"><ele>735.2</ele></trkpt>
<trkpt lat="43.130304" lon="-2.499077"><ele>737.0</ele></trkpt>
<trkpt lat="43.130301" lon="-2.498982"><ele>740.9</ele></trkpt>
<trkpt lat="43.130304" lon="-2.498903"><ele>742.1</ele></trkpt>
<trkpt lat="43.130296" lon="-2.498795"><ele>742.5</ele></trkpt>
<trkpt lat="43.130246" lon="-2.498670"><ele>741.1</ele></trkpt>
<trkpt lat="43.130184" lon="-2.498480"><ele>738.5</ele></trkpt>
<trkpt lat="43.130159" lon="-2.498333"><ele>733.4</ele></trkpt>
<trkpt lat="43.130119" lon="-2.498165"><ele>730.9</ele></trkpt>
<trkpt lat="43.130093" lon="-2.497987"><ele>728.0</ele></trkpt>
<trkpt lat="43.130046" lon="-2.497829"><ele>724.3</ele></trkpt>
<trkpt lat="43.130048" lon="-2.497702"><ele>720.0</ele></trkpt>
<trkpt lat="43.130030" lon="-2.497560"><ele>716.2</ele></trkpt>
<trkpt lat="43.129935" lon="-2.497510"><ele>713.0</ele></trkpt>
<trkpt lat="43.129782" lon="-2.497488"><ele>708.9</ele></trkpt>
<trkpt lat="43.129671" lon="-2.497422"><ele>704.8</ele></trkpt>
<trkpt lat="43.129547" lon="-2.497358"><ele>700.9</ele></trkpt>
<trkpt lat="43.129445" lon="-2.497226"><ele>696.9</ele></trkpt>
<trkpt lat="43.129294" lon="-2.497009"><ele>693.0</ele></trkpt>
<trkpt lat="43.129288" lon="-2.496862"><ele>691.5</ele></trkpt>
<trkpt lat="43.129388" lon="-2.496775"><ele>689.8</ele></trkpt>
<trkpt lat="43.129503" lon="-2.496733"><ele>685.2</ele></trkpt>
<trkpt lat="43.129576" lon="-2.496623"><ele>680.8</ele></trkpt>
<trkpt lat="43.129572" lon="-2.496445"><ele>675.1</ele></trkpt>
<trkpt lat="43.129555" lon="-2.496293"><ele>671.4</ele></trkpt>
<trkpt lat="43.129533" lon="-2.496161"><ele>668.9</ele></trkpt>
<trkpt lat="43.129550" lon="-2.495991"><ele>666.4</ele></trkpt>
<trkpt lat="43.129701" lon="-2.495808"><ele>663.4</ele></trkpt>
<trkpt lat="43.129816" lon="-2.495684"><ele>660.7</ele></trkpt>
<trkpt lat="43.129921" lon="-2.495558"><ele>657.3</ele></trkpt>
<trkpt lat="43.130027" lon="-2.495442"><ele>653.8</ele></trkpt>
<trkpt lat="43.130143" lon="-2.495285"><ele>648.8</ele></trkpt>
<trkpt lat="43.130272" lon="-2.495146"><ele>644.9</ele></trkpt>
<trkpt lat="43.130393" lon="-2.494974"><ele>640.4</ele></trkpt>
<trkpt lat="43.130507" lon="-2.494807"><ele>636.4</ele></trkpt>
<trkpt lat="43.130675" lon="-2.494619"><ele>631.5</ele></trkpt>
<trkpt lat="43.130814" lon="-2.494459"><ele>627.1</ele></trkpt>
<trkpt lat="43.130911" lon="-2.494313"><ele>623.7</ele></trkpt>
<trkpt lat="43.130993" lon="-2.494221"><ele>620.7</ele></trkpt>
<trkpt lat="43.131105" lon="-2.494088"><ele>616.9</ele></trkpt>
<trkpt lat="43.131171" lon="-2.494010"><ele>613.1</ele></trkpt>
<trkpt lat="43.131272" lon="-2.493925"><ele>609.7</ele></trkpt>
<trkpt lat="43.131358" lon="-2.493852"><ele>607.5</ele></trkpt>
<trkpt lat="43.131435" lon="-2.493811"><ele>605.4</ele></trkpt>
<trkpt lat="43.131494" lon="-2.493823"><ele>603.6</ele></trkpt>
<trkpt lat="43.131595" lon="-2.493807"><ele>601.3</ele></trkpt>
<trkpt lat="43.131690" lon="-2.493787"><ele>597.5</ele></trkpt>
<trkpt lat="43.131805" lon="-2.493716"><ele>593.1</ele></trkpt>
<trkpt lat="43.131893" lon="-2.493654"><ele>589.9</ele></trkpt>
<trkpt lat="43.131987" lon="-2.493569"><ele>586.3</ele></trkpt>
<trkpt lat="43.132058" lon="-2.493421"><ele>582.9</ele></trkpt>
<trkpt lat="43.132119" lon="-2.493218"><ele>579.1</ele></trkpt>
<trkpt lat="43.132159" lon="-2.493100"><ele>576.7</ele></trkpt>
<trkpt lat="43.132222" lon="-2.492968"><ele>573.7</ele></trkpt>
<trkpt lat="43.132283" lon="-2.492836"><ele>570.8</ele></trkpt>
<trkpt lat="43.132365" lon="-2.492718"><ele>566.8</ele></trkpt>
<trkpt lat="43.132400" lon="-2.492563"><ele>563.9</ele></trkpt>
<trkpt lat="43.132383" lon="-2.492413"><ele>562.0</ele></trkpt>
<trkpt lat="43.132362" lon="-2.492267"><ele>561.2</ele></trkpt>
<trkpt lat="43.132335" lon="-2.492085"><ele>560.3</ele></trkpt>
<trkpt lat="43.132305" lon="-2.491936"><ele>559.5</ele></trkpt>
<trkpt lat="43.132255" lon="-2.491845"><ele>557.6</ele></trkpt>
<trkpt lat="43.132222" lon="-2.491724"><ele>556.0</ele></trkpt>
<trkpt lat="43.132205" lon="-2.491579"><ele>553.1</ele></trkpt>
<trkpt lat="43.132258" lon="-2.491410"><ele>549.6</ele></trkpt>
<trkpt lat="43.132344" lon="-2.491305"><ele>546.4</ele></trkpt>
<trkpt lat="43.132413" lon="-2.491191"><ele>543.6</ele></trkpt>
<trkpt lat="43.132483" lon="-2.491075"><ele>541.2</ele></trkpt>
<trkpt lat="43.132571" lon="-2.490891"><ele>538.5</ele></trkpt>
<trkpt lat="43.132616" lon="-2.490729"><ele>535.4</ele></trkpt>
<trkpt lat="43.132652" lon="-2.490577"><ele>533.2</ele></trkpt>
<trkpt lat="43.132762" lon="-2.490529"><ele>530.9</ele></trkpt>
<trkpt lat="43.132899" lon="-2.490392"><ele>526.9</ele></trkpt>
<trkpt lat="43.133001" lon="-2.490258"><ele>523.2</ele></trkpt>
<trkpt lat="43.133077" lon="-2.490127"><ele>520.0</ele></trkpt>
<trkpt lat="43.133175" lon="-2.489984"><ele>516.5</ele></trkpt>
<trkpt lat="43.133258" lon="-2.489765"><ele>513.0</ele></trkpt>
<trkpt lat="43.133396" lon="-2.489675"><ele>510.2</ele></trkpt>
<trkpt lat="43.133419" lon="-2.489478"><ele>507.6</ele></trkpt>
<trkpt lat="43.133508" lon="-2.489388"><ele>505.6</ele></trkpt>
<trkpt lat="43.133743" lon="-2.489407"><ele>501.6</ele></trkpt>
<trkpt lat="43.133944" lon="-2.489366"><ele>498.3</ele></trkpt>
<trkpt lat="43.134115" lon="-2.489306"><ele>495.0</ele></trkpt>
<trkpt lat="43.134296" lon="-2.489229"><ele>491.8</ele></trkpt>
<trkpt lat="43.134516" lon="-2.489159"><ele>487.7</ele></trkpt>
<trkpt lat="43.134674" lon="-2.489074"><ele>483.8</ele></trkpt>
<trkpt lat="43.134838" lon="-2.488950"><ele>480.9</ele></trkpt>
<trkpt lat="43.134996" lon="-2.488803"><ele>477.5</ele></trkpt>
<trkpt lat="43.135204" lon="-2.488715"><ele>475.5</ele></trkpt>
<trkpt lat="43.135376" lon="-2.488636"><ele>473.9</ele></trkpt>
<trkpt lat="43.135528" lon="-2.488537"><ele>471.9</ele></trkpt>
<trkpt lat="43.135661" lon="-2.488432"><ele>470.1</ele></trkpt>
<trkpt lat="43.135802" lon="-2.488267"><ele>468.2</ele></trkpt>
<trkpt lat="43.135938" lon="-2.488166"><ele>467.0</ele></trkpt>
<trkpt lat="43.136077" lon="-2.488054"><ele>466.2</ele></trkpt>
<trkpt lat="43.136211" lon="-2.487927"><ele>466.1</ele></trkpt>
<trkpt lat="43.136383" lon="-2.487843"><ele>466.2</ele></trkpt>
<trkpt lat="43.136541" lon="-2.487759"><ele>466.5</ele></trkpt>
<trkpt lat="43.136633" lon="-2.487723"><ele>466.8</ele></trkpt>
</trkseg></trk>
</gpx>
