<?xml version="1.0" encoding="UTF-8"?>
<kml xmlns="http://www.opengis.net/kml/2.2"><Document><name>Ahuntzen Mendi Lasterketa</name><Style id="track"><LineStyle><color>ff2fe0f5</color><width>4</width></LineStyle></Style><Placemark><name>Ahuntzen Mendi Lasterketa</name><styleUrl>#track</styleUrl><LineString><tessellate>1</tessellate><altitudeMode>clampToGround</altitudeMode><coordinates>-2.487795,43.136508,464.6 -2.487740,43.136550,464.7 -2.487634,43.136599,464.9 -2.487479,43.136617,465.0 -2.487414,43.136640,465.0 -2.487367,43.136717,465.5 -2.487288,43.136816,466.0 -2.487191,43.136936,467.0 -2.487151,43.137037,468.1 -2.487124,43.137128,468.9 -2.487075,43.137217,469.8 -2.487045,43.137324,470.8 -2.487016,43.137405,471.7 -2.486955,43.137479,472.4 -2.486905,43.137589,473.3 -2.486854,43.137709,473.9 -2.486820,43.137845,473.8 -2.486793,43.137971,474.3 -2.486784,43.138090,474.7 -2.486766,43.138241,475.0 -2.486726,43.138353,475.4 -2.486619,43.138449,476.0 -2.486525,43.138561,476.8 -2.486505,43.138685,477.7 -2.486517,43.138771,478.7 -2.486525,43.138874,479.4 -2.486540,43.138969,480.9 -2.486558,43.139075,482.7 -2.486568,43.139166,483.8 -2.486572,43.139255,485.3 -2.486587,43.139330,486.5 -2.486640,43.139422,487.4 -2.486662,43.139525,488.1 -2.486674,43.139634,489.1 -2.486700,43.139731,489.6 -2.486729,43.139862,489.9 -2.486748,43.139976,490.1 -2.486777,43.140092,490.0 -2.486796,43.140204,489.3 -2.486796,43.140322,488.9 -2.486816,43.140486,488.3 -2.486835,43.140600,488.1 -2.486849,43.140715,488.3 -2.486860,43.140826,488.5 -2.486881,43.140962,488.8 -2.486893,43.141067,489.4 -2.486900,43.141169,490.2 -2.486935,43.141271,490.9 -2.486960,43.141393,491.6 -2.486988,43.141490,492.7 -2.487038,43.141588,493.4 -2.487056,43.141685,494.7 -2.487050,43.141811,496.4 -2.487072,43.141896,497.4 -2.487084,43.141993,498.2 -2.487091,43.142100,499.2 -2.487093,43.142215,499.9 -2.487098,43.142306,500.9 -2.487114,43.142387,501.5 -2.487124,43.142477,501.8 -2.487140,43.142600,502.8 -2.487143,43.142697,503.6 -2.487116,43.142788,504.6 -2.487064,43.142869,505.6 -2.487006,43.142979,506.7 -2.486986,43.143061,507.4 -2.486986,43.143127,508.5 -2.486987,43.143184,509.9 -2.486958,43.143272,512.0 -2.486927,43.143318,513.5 -2.486870,43.143397,515.0 -2.486812,43.143455,516.2 -2.486747,43.143508,518.0 -2.486684,43.143549,519.6 -2.486629,43.143594,521.0 -2.486582,43.143651,522.4 -2.486533,43.143709,523.9 -2.486506,43.143747,525.0 -2.486466,43.143804,526.5 -2.486450,43.143874,527.5 -2.486410,43.143947,528.6 -2.486351,43.144028,530.3 -2.486290,43.144104,531.3 -2.486207,43.144165,532.1 -2.486133,43.144222,532.8 -2.486050,43.144294,534.1 -2.485984,43.144356,534.6 -2.485929,43.144424,535.5 -2.485891,43.144495,536.2 -2.485849,43.144594,537.1 -2.485811,43.144680,537.7 -2.485774,43.144777,537.5 -2.485746,43.144861,537.2 -2.485715,43.144959,538.3 -2.485724,43.145030,539.4 -2.485722,43.145109,540.6 -2.485731,43.145175,542.1 -2.485748,43.145244,543.5 -2.485736,43.145314,544.6 -2.485727,43.145395,545.7 -2.485737,43.145456,547.1 -2.485718,43.145534,548.9 -2.485703,43.145604,549.5 -2.485687,43.145653,550.4 -2.485643,43.145697,551.6 -2.485590,43.145751,553.1 -2.485530,43.145821,553.9 -2.485489,43.145889,554.4 -2.485477,43.145956,555.4 -2.485488,43.146037,556.8 -2.485520,43.146099,558.2 -2.485550,43.146125,559.6 -2.485587,43.146157,561.3 -2.485660,43.146212,562.8 -2.485714,43.146252,564.2 -2.485769,43.146290,565.1 -2.485851,43.146324,566.3 -2.485954,43.146370,567.0 -2.486051,43.146418,567.6 -2.486141,43.146373,568.3 -2.486242,43.146342,569.2 -2.486327,43.146327,570.8 -2.486388,43.146296,572.5 -2.486440,43.146276,573.6 -2.486487,43.146256,574.5 -2.486548,43.146237,575.9 -2.486609,43.146205,577.2 -2.486653,43.146180,578.0 -2.486697,43.146150,579.0 -2.486734,43.146136,579.7 -2.486800,43.146110,581.3 -2.486851,43.146103,582.3 -2.486890,43.146085,583.5 -2.486951,43.146054,584.2 -2.487005,43.146020,585.7 -2.487036,43.145996,587.0 -2.487058,43.145969,588.3 -2.487082,43.145928,589.3 -2.487117,43.145881,591.2 -2.487137,43.145854,592.6 -2.487174,43.145823,594.1 -2.487205,43.145788,595.5 -2.487235,43.145754,597.2 -2.487251,43.145715,598.3 -2.487263,43.145679,599.7 -2.487280,43.145651,601.2 -2.487305,43.145608,602.5 -2.487347,43.145599,603.6 -2.487382,43.145577,605.2 -2.487414,43.145555,606.7 -2.487461,43.145528,608.0 -2.487511,43.145507,609.5 -2.487557,43.145498,611.0 -2.487584,43.145475,612.9 -2.487640,43.145465,614.4 -2.487704,43.145476,616.7 -2.487759,43.145476,617.6 -2.487848,43.145469,618.4 -2.487907,43.145460,619.3 -2.487986,43.145453,621.1 -2.488030,43.145446,622.2 -2.488069,43.145430,623.7 -2.488110,43.145398,625.0 -2.488128,43.145361,626.4 -2.488144,43.145314,627.7 -2.488171,43.145252,628.6 -2.488227,43.145229,630.0 -2.488284,43.145208,631.9 -2.488322,43.145171,633.1 -2.488379,43.145142,634.2 -2.488453,43.145118,634.9 -2.488541,43.145106,635.6 -2.488634,43.145101,636.6 -2.488768,43.145125,637.1 -2.488858,43.145169,638.1 -2.488985,43.145173,638.8 -2.489088,43.145225,639.0 -2.489108,43.145290,639.5 -2.489105,43.145353,640.3 -2.489147,43.145444,640.6 -2.489211,43.145485,641.4 -2.489293,43.145494,641.9 -2.489382,43.145521,642.2 -2.489521,43.145528,642.6 -2.489623,43.145583,643.5 -2.489742,43.145647,643.1 -2.489889,43.145691,642.9 -2.490048,43.145768,643.3 -2.490192,43.145842,643.0 -2.490293,43.145912,643.1 -2.490426,43.145963,643.3 -2.490609,43.146009,643.3 -2.490724,43.146069,643.5 -2.490827,43.146113,644.3 -2.490935,43.146156,644.9 -2.491078,43.146200,645.3 -2.491214,43.146283,645.5 -2.491321,43.146326,646.4 -2.491423,43.146357,648.1 -2.491501,43.146393,649.2 -2.491622,43.146435,650.1 -2.491739,43.146515,649.7 -2.491744,43.146599,648.3 -2.491789,43.146660,645.2 -2.491835,43.146712,641.6 -2.491896,43.146763,639.3 -2.491993,43.146828,636.4 -2.492079,43.146899,633.7 -2.492217,43.146964,630.0 -2.492341,43.146980,626.8 -2.492482,43.146961,624.5 -2.492610,43.146913,622.2 -2.492777,43.146876,619.6 -2.492916,43.146849,616.9 -2.493076,43.146834,614.3 -2.493259,43.146821,611.2 -2.493506,43.146745,608.5 -2.493670,43.146694,608.6 -2.493843,43.146683,608.4 -2.494050,43.146683,606.4 -2.494260,43.146695,604.5 -2.494429,43.146716,602.6 -2.494605,43.146738,601.1 -2.494777,43.146758,599.3 -2.495006,43.146781,596.6 -2.495203,43.146800,594.2 -2.495397,43.146813,591.6 -2.495577,43.146831,588.7 -2.495793,43.146854,585.0 -2.495949,43.146869,581.9 -2.496104,43.146888,578.1 -2.496288,43.146904,574.6 -2.496462,43.146942,570.5 -2.496658,43.146999,565.9 -2.496872,43.147005,562.1 -2.497053,43.147032,558.4 -2.497211,43.147050,556.5 -2.497411,43.147079,553.5 -2.497581,43.147109,551.1 -2.497700,43.147171,548.4 -2.497850,43.147183,545.4 -2.498026,43.147199,542.9 -2.498147,43.147236,540.2 -2.498269,43.147282,537.6 -2.498397,43.147320,534.6 -2.498546,43.147378,530.3 -2.498645,43.147432,526.8 -2.498734,43.147480,523.1 -2.498800,43.147537,519.4 -2.498853,43.147623,515.1 -2.498893,43.147676,510.7 -2.498995,43.147717,508.2 -2.499032,43.147751,505.4 -2.499191,43.147717,502.7 -2.499262,43.147575,500.4 -2.499338,43.147564,498.2 -2.499374,43.147733,496.3 -2.499293,43.147908,495.7 -2.499159,43.148003,494.4 -2.498993,43.148070,491.9 -2.498841,43.148144,489.0 -2.498665,43.148253,485.6 -2.498568,43.148368,484.3 -2.498470,43.148487,483.3 -2.498382,43.148621,482.0 -2.498201,43.148760,480.1 -2.498041,43.148821,478.0 -2.497868,43.148834,476.4 -2.497702,43.148833,474.1 -2.497512,43.148832,470.5 -2.497367,43.148806,467.8 -2.497215,43.148799,465.6 -2.497077,43.148855,463.6 -2.496975,43.148953,461.8 -2.496835,43.149074,460.0 -2.496715,43.149161,459.0 -2.496565,43.149260,457.8 -2.496382,43.149351,455.5 -2.496150,43.149448,451.9 -2.496011,43.149535,449.4 -2.495884,43.149632,447.1 -2.495891,43.149747,446.6 -2.495967,43.149872,447.8 -2.496037,43.149963,448.4 -2.496088,43.150072,448.7 -2.496123,43.150186,448.8 -2.496164,43.150338,449.3 -2.496206,43.150458,449.2 -2.496246,43.150583,449.3 -2.496289,43.150696,449.7 -2.496327,43.150841,449.8 -2.496339,43.150958,450.1 -2.496336,43.151081,450.2 -2.496220,43.151171,450.7 -2.495993,43.151211,449.5 -2.495817,43.151161,447.5 -2.495635,43.151107,446.2 -2.495442,43.151067,444.1 -2.495193,43.151030,440.7 -2.495008,43.151000,438.3 -2.494823,43.150989,435.8 -2.494644,43.150967,433.2 -2.494394,43.150930,428.8 -2.494225,43.150875,427.3 -2.494070,43.150837,426.6 -2.493893,43.150767,426.2 -2.493735,43.150636,425.0 -2.493556,43.150608,422.8 -2.493408,43.150650,420.7 -2.493440,43.150709,417.2 -2.493613,43.150805,414.2 -2.493759,43.150974,411.3 -2.493871,43.151074,409.7 -2.494028,43.151094,407.0 -2.494187,43.151177,403.6 -2.494299,43.151334,400.8 -2.494398,43.151427,399.0 -2.494440,43.151464,398.9 -2.494457,43.151496,398.5 -2.494471,43.151548,395.4 -2.494447,43.151609,392.6 -2.494467,43.151650,389.5 -2.494517,43.151720,386.0 -2.494600,43.151810,382.0 -2.494728,43.151906,378.2 -2.494832,43.151978,377.2 -2.494913,43.152052,376.4 -2.495016,43.152183,373.1 -2.495116,43.152292,371.3 -2.495225,43.152390,370.4 -2.495332,43.152479,371.0 -2.495474,43.152588,370.9 -2.495601,43.152646,370.4 -2.495744,43.152672,369.4 -2.495893,43.152674,368.7 -2.496111,43.152659,367.9 -2.496276,43.152665,367.4 -2.496420,43.152692,366.5 -2.496595,43.152722,363.9 -2.496837,43.152721,360.2 -2.497014,43.152682,358.1 -2.497181,43.152642,355.9 -2.497289,43.152645,354.1 -2.497392,43.152638,352.5 -2.497473,43.152611,349.5 -2.497544,43.152564,347.1 -2.497641,43.152572,345.5 -2.497670,43.152546,343.8 -2.497773,43.152558,339.9 -2.497895,43.152568,339.1 -2.498016,43.152575,340.0 -2.498174,43.152606,341.1 -2.498381,43.152611,341.0 -2.498569,43.152596,339.6 -2.498762,43.152580,338.2 -2.498959,43.152538,335.8 -2.499200,43.152501,332.0 -2.499393,43.152561,329.9 -2.499553,43.152661,328.8 -2.499723,43.152721,328.2 -2.499945,43.152716,326.6 -2.500145,43.152682,325.0 -2.500343,43.152648,323.4 -2.500554,43.152604,322.3 -2.500777,43.152493,320.6 -2.500976,43.152384,317.8 -2.501200,43.152363,315.8 -2.501364,43.152464,315.0 -2.501525,43.152591,315.0 -2.501654,43.152692,314.7 -2.501802,43.152793,314.2 -2.501949,43.152898,313.6 -2.502120,43.153004,312.8 -2.502222,43.153094,312.5 -2.502288,43.153202,312.0 -2.502356,43.153298,311.7 -2.502445,43.153422,311.6 -2.502540,43.153520,311.6 -2.502620,43.153608,311.7 -2.502733,43.153729,311.9 -2.502851,43.153863,312.0 -2.502945,43.153972,312.0 -2.503029,43.154070,312.1 -2.503131,43.154157,311.8 -2.503313,43.154252,311.8 -2.503354,43.154354,311.7 -2.503338,43.154470,311.5 -2.503357,43.154589,311.0 -2.503420,43.154707,311.1 -2.503567,43.154806,310.8 -2.503737,43.154818,310.9 -2.503897,43.154807,310.8 -2.504061,43.154804,310.9 -2.504265,43.154824,310.7 -2.504408,43.154862,310.6 -2.504528,43.154918,310.4 -2.504640,43.154986,310.6 -2.504780,43.155111,310.6 -2.504878,43.155201,310.0 -2.504993,43.155292,309.6 -2.505095,43.155374,309.5 -2.505178,43.155490,309.4 -2.505270,43.155598,309.4 -2.505379,43.155684,309.8 -2.505493,43.155764,310.0 -2.505632,43.155858,310.2 -2.505777,43.155956,310.6 -2.505941,43.156017,310.7 -2.506109,43.156006,310.4 -2.506309,43.155955,310.8 -2.506429,43.155899,311.2 -2.506551,43.155938,311.6 -2.506568,43.156048,312.4 -2.506527,43.156190,312.2 -2.506532,43.156300,312.0 -2.506584,43.156420,312.1 -2.506659,43.156518,312.1 -2.506764,43.156641,312.0 -2.506844,43.156740,312.0 -2.506936,43.156854,312.0 -2.507032,43.156950,312.0 -2.507157,43.157010,312.3 -2.507253,43.157032,313.7 -2.507346,43.157062,315.0 -2.507436,43.157082,316.4 -2.507531,43.157119,317.4 -2.507632,43.157183,318.2 -2.507726,43.157236,319.0 -2.507819,43.157293,319.7 -2.507913,43.157345,320.3 -2.508027,43.157382,321.3 -2.508110,43.157418,322.5 -2.508191,43.157458,323.4 -2.508280,43.157494,324.7 -2.508386,43.157533,325.9 -2.508475,43.157576,327.1 -2.508571,43.157626,327.8 -2.508661,43.157673,328.4 -2.508762,43.157729,329.6 -2.508849,43.157764,330.6 -2.508958,43.157788,331.5 -2.509105,43.157786,331.6 -2.509291,43.157820,330.9 -2.509382,43.157875,331.2 -2.509451,43.157930,332.2 -2.509526,43.157988,333.6 -2.509611,43.158073,335.1 -2.509640,43.158131,336.0 -2.509637,43.158194,336.8 -2.509632,43.158288,337.9 -2.509691,43.158385,339.7 -2.509773,43.158443,340.4 -2.509865,43.158495,341.2 -2.509942,43.158540,342.0 -2.510042,43.158593,343.2 -2.510117,43.158629,344.1 -2.510192,43.158672,344.6 -2.510270,43.158713,345.6 -2.510381,43.158770,346.3 -2.510469,43.158818,346.8 -2.510560,43.158871,347.2 -2.510659,43.158924,347.2 -2.510778,43.158954,347.4 -2.510929,43.158938,347.6 -2.511054,43.158919,347.7 -2.511190,43.158906,347.4 -2.511365,43.158877,346.2 -2.511560,43.158830,344.9 -2.511693,43.158787,343.9 -2.511813,43.158711,342.7 -2.511946,43.158610,340.5 -2.512104,43.158475,337.6 -2.512208,43.158371,336.1 -2.512288,43.158267,334.0 -2.512344,43.158130,332.2 -2.512405,43.157970,329.2 -2.512499,43.157830,327.1 -2.512589,43.157706,324.8 -2.512652,43.157595,323.9 -2.512717,43.157454,323.2 -2.512825,43.157368,323.1 -2.512933,43.157294,322.9 -2.513034,43.157198,321.4 -2.513130,43.157054,318.6 -2.513220,43.156931,316.3 -2.513316,43.156892,314.3 -2.513396,43.156933,314.2 -2.513521,43.157086,316.0 -2.513620,43.157158,317.2 -2.513680,43.157205,318.6 -2.513713,43.157271,319.6 -2.513701,43.157358,320.5 -2.513687,43.157417,321.1 -2.513686,43.157492,321.9 -2.513687,43.157569,322.8 -2.513683,43.157660,323.6 -2.513701,43.157733,324.0 -2.513715,43.157811,324.6 -2.513739,43.157874,325.6 -2.513762,43.157964,327.0 -2.513797,43.158039,327.8 -2.513832,43.158127,328.7 -2.513866,43.158196,329.5 -2.513886,43.158283,330.0 -2.513890,43.158396,330.9 -2.513887,43.158475,331.7 -2.513897,43.158560,332.2 -2.513896,43.158640,333.0 -2.513909,43.158755,334.3 -2.513900,43.158843,334.8 -2.513903,43.158945,335.2 -2.513905,43.159024,335.6 -2.513962,43.159123,336.2 -2.514068,43.159154,336.9 -2.514190,43.159155,337.3 -2.514322,43.159140,337.4 -2.514486,43.159110,337.9 -2.514619,43.159091,338.5 -2.514768,43.159078,338.5 -2.514921,43.159072,338.5 -2.515093,43.159033,338.2 -2.515223,43.159014,338.5 -2.515355,43.158983,338.9 -2.515472,43.158969,339.2 -2.515643,43.158940,340.2 -2.515770,43.158915,340.9 -2.515885,43.158860,341.5 -2.516032,43.158821,341.5 -2.516233,43.158838,340.9 -2.516376,43.158840,340.7 -2.516528,43.158844,340.4 -2.516676,43.158857,340.6 -2.516826,43.158822,341.7 -2.516935,43.158773,342.3 -2.517044,43.158735,342.8 -2.517183,43.158687,343.2 -2.517340,43.158655,343.6 -2.517455,43.158634,344.2 -2.517548,43.158614,345.1 -2.517625,43.158597,345.8 -2.517733,43.158529,346.8 -2.517882,43.158531,347.3 -2.517959,43.158599,347.4 -2.518071,43.158586,348.0 -2.518144,43.158519,349.1 -2.518185,43.158419,350.3 -2.518161,43.158366,351.0 -2.518184,43.158319,351.7 -2.518203,43.158289,352.2 -2.518177,43.158255,353.2 -2.518153,43.158246,354.5 -2.518134,43.158243,356.2 -2.518124,43.158217,357.6 -2.518086,43.158186,359.0 -2.518028,43.158183,360.3 -2.517972,43.158190,361.6 -2.517900,43.158197,362.6 -2.517813,43.158209,364.3 -2.517747,43.158223,365.2 -2.517677,43.158225,366.2 -2.517603,43.158230,366.9 -2.517501,43.158228,367.4 -2.517422,43.158242,368.0 -2.517358,43.158236,368.8 -2.517279,43.158235,369.3 -2.517187,43.158229,369.9 -2.517123,43.158224,370.8 -2.517068,43.158217,372.0 -2.517010,43.158201,373.1 -2.516937,43.158184,374.5 -2.516880,43.158174,375.7 -2.516824,43.158170,376.8 -2.516766,43.158152,378.1 -2.516699,43.158141,379.9 -2.516631,43.158134,380.3 -2.516566,43.158133,381.3 -2.516496,43.158122,382.9 -2.516439,43.158104,382.2 -2.516351,43.158092,381.7 -2.516274,43.158079,382.9 -2.516210,43.158073,385.4 -2.516142,43.158069,386.1 -2.516067,43.158053,386.9 -2.516011,43.158041,390.2 -2.515941,43.158030,390.7 -2.515873,43.158023,391.0 -2.515791,43.158013,391.8 -2.515732,43.157998,393.7 -2.515669,43.157976,394.4 -2.515638,43.157959,394.2 -2.515587,43.157921,395.1 -2.515577,43.157887,396.1 -2.515588,43.157857,397.4 -2.515612,43.157819,399.2 -2.515663,43.157790,401.4 -2.515688,43.157752,402.6 -2.515728,43.157726,405.8 -2.515784,43.157716,408.4 -2.515828,43.157691,407.4 -2.515882,43.157665,407.0 -2.515931,43.157633,407.1 -2.515968,43.157602,408.8 -2.515996,43.157571,410.1 -2.516037,43.157534,412.1 -2.516074,43.157511,414.2 -2.516100,43.157474,414.5 -2.516125,43.157431,415.0 -2.516152,43.157405,415.8 -2.516174,43.157377,417.3 -2.516209,43.157349,419.6 -2.516252,43.157322,422.0 -2.516295,43.157293,423.2 -2.516327,43.157275,422.3 -2.516367,43.157256,422.7 -2.516426,43.157235,424.4 -2.516472,43.157215,428.2 -2.516497,43.157191,432.8 -2.516525,43.157162,435.0 -2.516560,43.157144,432.6 -2.516618,43.157108,431.5 -2.516669,43.157087,433.0 -2.516720,43.157057,434.6 -2.516762,43.157036,436.0 -2.516829,43.156996,436.8 -2.516874,43.156966,437.6 -2.516914,43.156930,438.0 -2.516949,43.156898,439.2 -2.517010,43.156874,441.7 -2.517058,43.156863,443.0 -2.517095,43.156851,446.5 -2.517124,43.156845,448.4 -2.517187,43.156827,449.2 -2.517228,43.156810,449.2 -2.517262,43.156781,449.4 -2.517314,43.156755,449.9 -2.517367,43.156720,451.0 -2.517413,43.156693,451.4 -2.517454,43.156671,451.2 -2.517510,43.156632,452.2 -2.517563,43.156592,454.7 -2.517611,43.156573,457.3 -2.517663,43.156550,456.8 -2.517732,43.156519,457.5 -2.517815,43.156493,459.1 -2.517868,43.156466,460.0 -2.517870,43.156459,460.6 -2.517879,43.156457,460.5 -2.517884,43.156441,460.4 -2.517855,43.156345,463.1 -2.517849,43.156209,464.4 -2.517907,43.156085,463.8 -2.518043,43.155952,461.1 -2.518160,43.155852,459.6 -2.518276,43.155743,458.8 -2.518379,43.155636,458.3 -2.518461,43.155529,457.9 -2.518565,43.155392,457.4 -2.518644,43.155272,457.7 -2.518673,43.155181,457.4 -2.518713,43.155059,457.4 -2.518604,43.154923,458.1 -2.518493,43.154840,458.3 -2.518364,43.154762,458.2 -2.518235,43.154685,457.9 -2.518092,43.154584,453.5 -2.518007,43.154480,453.2 -2.517950,43.154363,453.3 -2.517892,43.154234,453.2 -2.517777,43.154104,452.5 -2.517649,43.154040,451.4 -2.517478,43.154014,450.6 -2.517322,43.154015,449.4 -2.517105,43.154003,448.8 -2.516967,43.153927,448.5 -2.516925,43.153840,449.4 -2.516954,43.153761,450.9 -2.517013,43.153702,453.1 -2.517065,43.153674,454.4 -2.517135,43.153659,455.7 -2.517198,43.153658,456.9 -2.517257,43.153655,458.0 -2.517305,43.153664,459.1 -2.517347,43.153664,460.1 -2.517396,43.153641,461.0 -2.517425,43.153590,462.2 -2.517460,43.153547,461.6 -2.517470,43.153518,461.3 -2.517506,43.153487,462.2 -2.517571,43.153445,463.7 -2.517619,43.153418,464.6 -2.517669,43.153376,465.0 -2.517715,43.153342,466.0 -2.517771,43.153309,467.1 -2.517841,43.153263,469.8 -2.517916,43.153219,474.0 -2.517972,43.153163,476.9 -2.518047,43.153084,476.8 -2.518177,43.153010,475.3 -2.518253,43.153011,474.8 -2.518325,43.152997,474.0 -2.518394,43.152987,473.6 -2.518462,43.152965,474.0 -2.518535,43.152959,474.8 -2.518587,43.152923,478.4 -2.518659,43.152889,478.4 -2.518721,43.152872,478.2 -2.518782,43.152883,479.0 -2.518826,43.152931,480.1 -2.518824,43.152968,481.0 -2.518775,43.153027,484.0 -2.518737,43.153071,484.7 -2.518710,43.153104,486.8 -2.518683,43.153150,487.8 -2.518642,43.153203,487.3 -2.518636,43.153252,489.5 -2.518642,43.153312,493.6 -2.518633,43.153345,495.8 -2.518656,43.153426,497.5 -2.518699,43.153503,498.4 -2.518757,43.153562,499.4 -2.518817,43.153586,499.9 -2.518864,43.153552,497.6 -2.518890,43.153518,497.5 -2.518917,43.153478,498.9 -2.518940,43.153439,502.2 -2.518995,43.153383,505.1 -2.519040,43.153345,506.5 -2.519109,43.153316,507.4 -2.519180,43.153298,508.5 -2.519293,43.153269,510.4 -2.519378,43.153240,512.1 -2.519470,43.153237,514.7 -2.519547,43.153219,515.3 -2.519647,43.153196,515.6 -2.519768,43.153182,516.9 -2.519857,43.153170,518.0 -2.519946,43.153151,518.8 -2.520042,43.153129,520.1 -2.520123,43.153111,521.3 -2.520191,43.153100,522.2 -2.520255,43.153095,522.5 -2.520319,43.153092,522.8 -2.520423,43.153073,523.8 -2.520508,43.153059,524.7 -2.520574,43.153042,525.3 -2.520658,43.153016,525.8 -2.520755,43.152988,526.8 -2.520879,43.152960,527.8 -2.520986,43.152940,529.0 -2.521081,43.152918,530.0 -2.521197,43.152880,531.6 -2.521295,43.152854,532.4 -2.521374,43.152848,533.5 -2.521409,43.152799,534.5 -2.521461,43.152710,534.4 -2.521515,43.152623,534.2 -2.521572,43.152525,533.8 -2.521583,43.152408,532.2 -2.521542,43.152307,531.7 -2.521478,43.152234,532.2 -2.521425,43.152168,533.5 -2.521386,43.152093,534.9 -2.521361,43.152013,536.1 -2.521377,43.151949,537.0 -2.521412,43.151885,537.8 -2.521447,43.151812,539.0 -2.521473,43.151764,540.7 -2.521516,43.151704,541.7 -2.521563,43.151629,542.5 -2.521630,43.151568,542.8 -2.521693,43.151514,543.5 -2.521772,43.151432,544.5 -2.521839,43.151364,544.7 -2.521912,43.151289,544.8 -2.521985,43.151219,545.0 -2.522088,43.151133,545.3 -2.522184,43.151067,545.5 -2.522277,43.151008,546.1 -2.522368,43.150946,546.4 -2.522475,43.150882,546.9 -2.522570,43.150838,546.8 -2.522654,43.150777,546.8 -2.522715,43.150684,547.2 -2.522732,43.150573,548.3 -2.522720,43.150497,549.0 -2.522691,43.150436,549.8 -2.522657,43.150348,550.4 -2.522600,43.150252,551.3 -2.522554,43.150176,552.0 -2.522508,43.150106,553.2 -2.522476,43.150044,554.5 -2.522446,43.149982,555.6 -2.522421,43.149922,556.9 -2.522420,43.149856,557.6 -2.522433,43.149781,558.6 -2.522456,43.149688,559.7 -2.522426,43.149601,560.0 -2.522353,43.149528,560.2 -2.522284,43.149469,560.3 -2.522177,43.149416,561.0 -2.522078,43.149368,561.4 -2.521971,43.149323,561.3 -2.521861,43.149269,561.2 -2.521722,43.149209,561.2 -2.521612,43.149164,561.8 -2.521497,43.149123,562.2 -2.521406,43.149082,562.9 -2.521298,43.149018,563.9 -2.521218,43.148968,564.7 -2.521116,43.148910,565.7 -2.521009,43.148843,565.6 -2.520873,43.148821,565.5 -2.520703,43.148804,565.3 -2.520584,43.148743,565.2 -2.520480,43.148699,565.4 -2.520371,43.148641,566.0 -2.520226,43.148582,566.5 -2.520134,43.148525,566.9 -2.520017,43.148485,567.5 -2.519894,43.148460,567.7 -2.519760,43.148443,568.2 -2.519639,43.148428,568.7 -2.519520,43.148400,569.6 -2.519405,43.148381,570.7 -2.519267,43.148365,571.4 -2.519174,43.148341,572.5 -2.519078,43.148317,573.1 -2.518969,43.148292,573.8 -2.518854,43.148285,574.8 -2.518739,43.148262,575.5 -2.518634,43.148219,576.1 -2.518542,43.148172,576.8 -2.518442,43.148121,577.6 -2.518340,43.148080,578.3 -2.518226,43.148032,579.2 -2.518141,43.147971,579.9 -2.518041,43.147891,580.3 -2.517935,43.147823,580.0 -2.517809,43.147770,579.9 -2.517682,43.147712,579.7 -2.517547,43.147640,579.8 -2.517442,43.147582,580.0 -2.517336,43.147508,580.3 -2.517223,43.147454,580.4 -2.517069,43.147401,581.6 -2.516934,43.147354,582.3 -2.516800,43.147310,582.6 -2.516671,43.147282,582.9 -2.516524,43.147272,583.3 -2.516332,43.147286,583.6 -2.516169,43.147296,582.8 -2.516023,43.147308,582.6 -2.515876,43.147324,582.6 -2.515714,43.147377,582.4 -2.515591,43.147401,582.4 -2.515444,43.147426,582.6 -2.515287,43.147440,582.7 -2.515102,43.147466,583.1 -2.514958,43.147486,583.0 -2.514815,43.147499,583.4 -2.514690,43.147516,583.7 -2.514492,43.147533,583.8 -2.514348,43.147547,584.0 -2.514209,43.147584,584.1 -2.514080,43.147614,584.0 -2.513928,43.147654,584.5 -2.513803,43.147705,584.6 -2.513677,43.147749,584.8 -2.513566,43.147787,585.5 -2.513431,43.147848,586.5 -2.513315,43.147904,587.3 -2.513204,43.147966,587.7 -2.513093,43.148026,588.1 -2.512955,43.148095,588.2 -2.512858,43.148145,588.7 -2.512742,43.148219,589.1 -2.512632,43.148288,588.8 -2.512498,43.148354,588.9 -2.512377,43.148402,589.1 -2.512267,43.148434,589.5 -2.512166,43.148464,589.8 -2.512020,43.148515,590.5 -2.511910,43.148560,591.1 -2.511773,43.148620,591.2 -2.511663,43.148690,591.6 -2.511556,43.148757,591.9 -2.511443,43.148830,592.4 -2.511359,43.148870,592.7 -2.511264,43.148902,593.3 -2.511154,43.148926,594.2 -2.511042,43.148969,595.7 -2.510954,43.148987,596.7 -2.510853,43.149013,597.6 -2.510775,43.149040,598.6 -2.510647,43.149054,599.4 -2.510576,43.149052,600.2 -2.510508,43.149051,600.9 -2.510444,43.149012,600.0 -2.510332,43.148951,602.4 -2.510339,43.148866,603.5 -2.510358,43.148814,604.3 -2.510382,43.148772,604.9 -2.510412,43.148710,603.1 -2.510439,43.148667,603.5 -2.510457,43.148623,603.9 -2.510473,43.148570,604.5 -2.510486,43.148511,607.5 -2.510497,43.148473,606.8 -2.510523,43.148439,607.7 -2.510551,43.148410,608.5 -2.510582,43.148361,609.7 -2.510605,43.148331,611.1 -2.510617,43.148296,612.4 -2.510651,43.148247,613.1 -2.510675,43.148211,614.8 -2.510698,43.148177,616.1 -2.510703,43.148141,619.4 -2.510719,43.148093,619.2 -2.510713,43.148046,620.2 -2.510713,43.148004,621.0 -2.510719,43.147974,621.7 -2.510741,43.147935,623.6 -2.510766,43.147888,625.3 -2.510790,43.147854,626.7 -2.510816,43.147815,628.5 -2.510838,43.147782,629.9 -2.510858,43.147751,630.0 -2.510890,43.147702,631.0 -2.510915,43.147673,632.2 -2.510936,43.147647,632.6 -2.510953,43.147621,633.8 -2.510988,43.147581,635.6 -2.511016,43.147535,637.4 -2.511032,43.147500,639.3 -2.511049,43.147467,640.0 -2.511082,43.147410,641.0 -2.511099,43.147373,646.5 -2.511119,43.147329,648.3 -2.511131,43.147298,647.8 -2.511153,43.147251,647.1 -2.511166,43.147218,646.9 -2.511187,43.147175,647.4 -2.511215,43.147132,648.8 -2.511234,43.147099,649.7 -2.511237,43.147064,650.6 -2.511252,43.147026,651.3 -2.511268,43.147003,653.0 -2.511290,43.146960,654.6 -2.511293,43.146915,655.2 -2.511303,43.146873,656.7 -2.511320,43.146848,657.8 -2.511341,43.146817,659.2 -2.511339,43.146797,660.0 -2.511337,43.146769,662.2 -2.511352,43.146731,663.6 -2.511330,43.146685,666.4 -2.511347,43.146667,666.4 -2.511378,43.146643,666.8 -2.511436,43.146635,668.0 -2.511506,43.146620,668.5 -2.511537,43.146597,669.5 -2.511561,43.146562,670.6 -2.511626,43.146566,672.3 -2.511703,43.146585,672.6 -2.511811,43.146617,673.2 -2.511963,43.146639,674.3 -2.512098,43.146658,675.2 -2.512234,43.146650,676.1 -2.512375,43.146631,674.9 -2.512491,43.146639,674.1 -2.512585,43.146634,672.8 -2.512701,43.146612,671.3 -2.512831,43.146614,665.9 -2.512905,43.146630,663.8 -2.513002,43.146615,662.2 -2.513106,43.146616,659.8 -2.513247,43.146647,656.0 -2.513343,43.146668,652.7 -2.513432,43.146693,649.4 -2.513525,43.146697,646.9 -2.513670,43.146728,642.8 -2.513801,43.146754,639.6 -2.513918,43.146774,636.6 -2.514109,43.146813,633.6 -2.514311,43.146844,629.8 -2.514479,43.146843,627.0 -2.514631,43.146853,623.9 -2.514792,43.146887,620.8 -2.515011,43.146938,616.2 -2.515214,43.146947,612.3 -2.515407,43.146894,607.8 -2.515581,43.146860,604.0 -2.515745,43.146803,599.0 -2.515915,43.146847,594.6 -2.516063,43.146900,593.2 -2.516197,43.146937,591.4 -2.516365,43.146889,588.0 -2.516523,43.146894,584.3 -2.516516,43.146843,581.7 -2.516434,43.146758,579.4 -2.516310,43.146643,577.9 -2.516142,43.146498,574.3 -2.516009,43.146413,572.1 -2.515844,43.146346,571.1 -2.515676,43.146302,570.0 -2.515477,43.146218,568.5 -2.515351,43.146156,567.9 -2.515212,43.146076,567.2 -2.515080,43.146004,566.7 -2.514914,43.145940,566.5 -2.514767,43.145907,565.9 -2.514671,43.145855,566.9 -2.514578,43.145783,568.1 -2.514447,43.145696,568.8 -2.514347,43.145617,569.3 -2.514262,43.145517,569.0 -2.514227,43.145389,568.0 -2.514182,43.145249,566.2 -2.514115,43.145153,565.9 -2.514028,43.145034,565.4 -2.513929,43.144924,564.4 -2.513798,43.144806,563.1 -2.513684,43.144713,562.3 -2.513545,43.144612,561.3 -2.513404,43.144524,560.0 -2.513224,43.144427,558.6 -2.513085,43.144353,557.1 -2.512960,43.144268,555.0 -2.512885,43.144214,553.0 -2.512704,43.144128,551.7 -2.512537,43.144051,550.0 -2.512355,43.143980,548.1 -2.512196,43.143924,545.4 -2.512005,43.143840,541.6 -2.511842,43.143784,538.2 -2.511658,43.143726,535.5 -2.511464,43.143655,532.2 -2.511210,43.143585,527.8 -2.510999,43.143519,524.9 -2.510786,43.143471,522.4 -2.510566,43.143448,520.3 -2.510362,43.143435,518.9 -2.510110,43.143433,517.2 -2.509910,43.143446,516.0 -2.509711,43.143480,514.4 -2.509523,43.143520,513.1 -2.509278,43.143583,510.5 -2.509052,43.143632,508.4 -2.508843,43.143625,506.6 -2.508785,43.143490,504.1 -2.508960,43.143318,500.0 -2.509056,43.143194,496.8 -2.509116,43.143063,493.7 -2.509188,43.142923,490.1 -2.509262,43.142739,486.0 -2.509278,43.142607,482.8 -2.509261,43.142443,479.3 -2.509115,43.142337,476.0 -2.508823,43.142332,472.4 -2.508595,43.142338,470.0 -2.508357,43.142316,467.5 -2.508257,43.142146,465.2 -2.508277,43.141918,462.5 -2.508283,43.141754,461.3 -2.508307,43.141602,460.6 -2.508388,43.141450,460.1 -2.508516,43.141266,459.5 -2.508536,43.141111,459.1 -2.508633,43.140984,459.1 -2.508738,43.140877,459.6 -2.508872,43.140762,460.0 -2.508992,43.140689,460.0 -2.509101,43.140625,460.2 -2.509192,43.140580,460.0 -2.509285,43.140492,460.3 -2.509352,43.140412,460.9 -2.509430,43.140332,461.0 -2.509515,43.140255,461.1 -2.509600,43.140163,461.1 -2.509704,43.140058,461.2 -2.509795,43.139968,461.7 -2.509882,43.139870,461.8 -2.509966,43.139769,462.2 -2.510052,43.139639,462.5 -2.510098,43.139524,462.4 -2.510136,43.139396,462.4 -2.510172,43.139276,462.1 -2.510198,43.139127,461.7 -2.510247,43.139004,461.4 -2.510296,43.138889,460.8 -2.510344,43.138760,459.8 -2.510385,43.138598,457.8 -2.510403,43.138461,456.5 -2.510408,43.138324,455.1 -2.510403,43.138183,454.0 -2.510377,43.138015,452.8 -2.510344,43.137879,451.9 -2.510362,43.137739,451.2 -2.510447,43.137611,450.7 -2.510571,43.137470,450.4 -2.510661,43.137354,450.5 -2.510747,43.137234,450.5 -2.510848,43.137121,449.9 -2.511006,43.136986,449.0 -2.511112,43.136899,448.8 -2.511211,43.136810,448.6 -2.511323,43.136711,448.2 -2.511458,43.136599,447.7 -2.511566,43.136500,446.9 -2.511670,43.136398,446.6 -2.511779,43.136316,446.2 -2.511908,43.136218,446.3 -2.512013,43.136144,446.3 -2.512140,43.136061,446.0 -2.512280,43.135968,445.8 -2.512417,43.135904,445.8 -2.512570,43.135812,446.1 -2.512657,43.135725,446.1 -2.512683,43.135678,446.3 -2.512717,43.135617,448.0 -2.512774,43.135514,449.1 -2.512788,43.135433,449.4 -2.512788,43.135360,450.2 -2.512837,43.135283,451.3 -2.512863,43.135166,451.6 -2.512817,43.135112,452.2 -2.512800,43.135030,451.8 -2.512892,43.134997,451.4 -2.513046,43.134999,451.6 -2.513140,43.135004,451.9 -2.513227,43.134997,452.5 -2.513300,43.134964,453.6 -2.513398,43.134892,455.0 -2.513469,43.134826,455.6 -2.513543,43.134778,456.6 -2.513566,43.134710,457.9 -2.513480,43.134667,459.5 -2.513409,43.134648,460.8 -2.513357,43.134639,462.1 -2.513287,43.134649,463.3 -2.513207,43.134639,464.6 -2.513139,43.134641,465.8 -2.513064,43.134633,466.9 -2.512989,43.134629,467.6 -2.512910,43.134602,468.6 -2.512850,43.134589,469.4 -2.512798,43.134586,470.2 -2.512739,43.134572,471.3 -2.512669,43.134572,472.9 -2.512606,43.134580,474.2 -2.512530,43.134590,475.3 -2.512461,43.134592,476.5 -2.512363,43.134590,477.6 -2.512291,43.134593,478.0 -2.512215,43.134593,478.8 -2.512155,43.134590,479.9 -2.512092,43.134583,480.9 -2.512012,43.134564,482.1 -2.512004,43.134551,483.1 -2.511977,43.134555,483.7 -2.511907,43.134545,483.9 -2.511837,43.134525,484.9 -2.511785,43.134517,486.1 -2.511728,43.134519,487.0 -2.511664,43.134514,488.0 -2.511571,43.134497,488.8 -2.511493,43.134491,489.9 -2.511436,43.134483,490.9 -2.511376,43.134473,491.8 -2.511285,43.134464,492.9 -2.511238,43.134468,493.7 -2.511186,43.134483,495.0 -2.511130,43.134481,496.0 -2.511056,43.134485,497.6 -2.510987,43.134494,498.6 -2.510926,43.134513,499.9 -2.510874,43.134528,500.9 -2.510820,43.134518,502.2 -2.510777,43.134527,503.5 -2.510715,43.134544,503.6 -2.510631,43.134566,503.6 -2.510516,43.134603,503.6 -2.510431,43.134581,503.3 -2.510379,43.134565,503.0 -2.510334,43.134550,502.9 -2.510302,43.134524,504.5 -2.510277,43.134483,506.8 -2.510274,43.134465,508.1 -2.510260,43.134437,508.4 -2.510215,43.134422,509.0 -2.510171,43.134412,509.9 -2.510147,43.134391,511.9 -2.510125,43.134365,513.2 -2.510081,43.134363,513.8 -2.510032,43.134365,514.7 -2.510015,43.134358,515.0 -2.509978,43.134346,515.4 -2.509933,43.134330,516.3 -2.509878,43.134290,517.3 -2.509837,43.134258,517.9 -2.509791,43.134225,519.3 -2.509754,43.134219,520.1 -2.509695,43.134244,522.5 -2.509653,43.134270,522.9 -2.509591,43.134282,524.8 -2.509496,43.134272,524.9 -2.509406,43.134299,525.5 -2.509351,43.134288,525.2 -2.509272,43.134259,526.5 -2.509214,43.134232,528.2 -2.509177,43.134188,528.4 -2.509177,43.134166,529.1 -2.509139,43.134140,530.1 -2.509108,43.134117,530.9 -2.509107,43.134099,533.3 -2.509090,43.134092,533.2 -2.509072,43.134069,533.8 -2.509097,43.134032,535.2 -2.509113,43.133988,536.2 -2.509120,43.133964,537.4 -2.509151,43.133913,540.6 -2.509217,43.133856,540.4 -2.509242,43.133790,546.0 -2.509197,43.133738,548.0 -2.509185,43.133691,547.6 -2.509202,43.133632,546.7 -2.509283,43.133547,547.0 -2.509383,43.133493,547.1 -2.509341,43.133451,546.8 -2.509300,43.133409,546.4 -2.509273,43.133380,547.9 -2.509241,43.133340,550.9 -2.509231,43.133297,551.4 -2.509223,43.133257,548.6 -2.509219,43.133211,548.5 -2.509200,43.133161,548.8 -2.509198,43.133108,549.9 -2.509189,43.133051,550.7 -2.509174,43.133007,553.4 -2.509168,43.132965,554.3 -2.509157,43.132935,555.0 -2.509143,43.132895,555.9 -2.509129,43.132866,557.5 -2.509103,43.132847,559.1 -2.509075,43.132816,559.9 -2.509049,43.132814,561.3 -2.509008,43.132796,561.8 -2.508963,43.132769,563.5 -2.508930,43.132757,566.8 -2.508890,43.132737,572.1 -2.508851,43.132711,571.9 -2.508809,43.132675,568.6 -2.508772,43.132646,569.6 -2.508755,43.132630,570.4 -2.508737,43.132616,571.6 -2.508707,43.132621,572.0 -2.508676,43.132626,572.8 -2.508635,43.132638,574.0 -2.508587,43.132643,574.8 -2.508540,43.132657,576.5 -2.508505,43.132662,577.5 -2.508487,43.132678,580.3 -2.508453,43.132688,580.1 -2.508417,43.132639,582.0 -2.508393,43.132631,583.2 -2.508358,43.132616,583.7 -2.508312,43.132611,584.6 -2.508269,43.132591,587.3 -2.508253,43.132577,589.1 -2.508231,43.132556,589.4 -2.508214,43.132534,590.8 -2.508215,43.132506,591.4 -2.508195,43.132456,593.2 -2.508173,43.132431,594.5 -2.508139,43.132405,595.2 -2.508116,43.132359,596.8 -2.508088,43.132307,597.8 -2.508059,43.132260,598.6 -2.508021,43.132216,599.4 -2.507983,43.132172,600.4 -2.507936,43.132086,601.6 -2.507839,43.132078,604.4 -2.507743,43.132083,605.9 -2.507637,43.132101,607.1 -2.507540,43.132117,608.2 -2.507483,43.132118,607.5 -2.507409,43.132122,605.8 -2.507349,43.132144,608.9 -2.507278,43.132157,609.9 -2.507216,43.132174,608.7 -2.507155,43.132190,609.7 -2.507102,43.132203,610.8 -2.507038,43.132231,613.6 -2.506952,43.132243,614.9 -2.506839,43.132252,616.4 -2.506721,43.132242,620.6 -2.506550,43.132231,621.4 -2.506453,43.132218,621.8 -2.506336,43.132202,622.7 -2.506209,43.132182,623.4 -2.506059,43.132155,622.9 -2.505932,43.132138,622.5 -2.505800,43.132119,623.3 -2.505671,43.132107,623.6 -2.505524,43.132087,624.5 -2.505422,43.132070,625.3 -2.505354,43.132060,625.7 -2.505284,43.132055,625.8 -2.505219,43.132048,626.6 -2.505139,43.132049,628.4 -2.505056,43.132042,625.5 -2.504974,43.132032,625.0 -2.504877,43.132016,626.2 -2.504765,43.132012,629.6 -2.504654,43.132014,630.6 -2.504540,43.132034,633.2 -2.504397,43.132057,634.5 -2.504235,43.132031,635.7 -2.504100,43.132001,636.0 -2.503971,43.131967,635.8 -2.503854,43.131942,636.1 -2.503751,43.131932,637.0 -2.503696,43.131918,637.1 -2.503637,43.131901,637.5 -2.503580,43.131880,635.4 -2.503528,43.131837,635.3 -2.503495,43.131774,636.2 -2.503478,43.131716,637.4 -2.503432,43.131686,638.6 -2.503362,43.131684,640.5 -2.503323,43.131678,641.8 -2.503272,43.131666,644.1 -2.503209,43.131657,645.3 -2.503135,43.131647,647.4 -2.503088,43.131637,648.9 -2.503033,43.131630,649.7 -2.502967,43.131613,650.8 -2.502889,43.131608,652.0 -2.502814,43.131598,652.9 -2.502753,43.131582,654.2 -2.502689,43.131581,655.7 -2.502612,43.131586,656.5 -2.502547,43.131566,657.5 -2.502479,43.131547,658.2 -2.502415,43.131543,659.7 -2.502320,43.131540,661.8 -2.502235,43.131538,661.7 -2.502162,43.131535,663.9 -2.502079,43.131534,665.1 -2.502001,43.131549,665.4 -2.501901,43.131557,665.2 -2.501834,43.131554,666.3 -2.501753,43.131562,667.7 -2.501696,43.131549,667.2 -2.501614,43.131529,668.5 -2.501552,43.131502,670.6 -2.501480,43.131488,671.9 -2.501414,43.131482,672.0 -2.501345,43.131479,673.2 -2.501281,43.131469,674.4 -2.501222,43.131449,677.0 -2.501156,43.131424,679.4 -2.501072,43.131389,678.8 -2.501012,43.131372,678.4 -2.500962,43.131350,679.4 -2.500916,43.131323,680.7 -2.500865,43.131295,682.6 -2.500809,43.131270,683.8 -2.500760,43.131241,686.6 -2.500712,43.131222,687.0 -2.500639,43.131200,688.2 -2.500595,43.131182,689.3 -2.500539,43.131153,690.8 -2.500502,43.131138,692.4 -2.500438,43.131109,695.0 -2.500392,43.131090,695.4 -2.500352,43.131067,696.8 -2.500316,43.131042,697.9 -2.500291,43.131022,699.2 -2.500247,43.131013,700.4 -2.500198,43.130994,701.4 -2.500160,43.130966,702.5 -2.500114,43.130941,704.4 -2.500090,43.130916,705.7 -2.500069,43.130889,706.5 -2.500034,43.130863,708.3 -2.500014,43.130833,709.2 -2.499991,43.130801,710.9 -2.499959,43.130777,711.9 -2.499934,43.130746,713.1 -2.499910,43.130716,714.8 -2.499871,43.130670,716.2 -2.499823,43.130637,717.9 -2.499768,43.130607,720.4 -2.499716,43.130583,721.1 -2.499620,43.130549,722.9 -2.499547,43.130510,724.7 -2.499462,43.130478,726.5 -2.499371,43.130454,728.1 -2.499303,43.130411,729.1 -2.499226,43.130369,730.4 -2.499143,43.130335,735.2 -2.499077,43.130304,737.0 -2.498982,43.130301,740.9 -2.498903,43.130304,742.1 -2.498795,43.130296,742.5 -2.498670,43.130246,741.1 -2.498480,43.130184,738.5 -2.498333,43.130159,733.4 -2.498165,43.130119,730.9 -2.497987,43.130093,728.0 -2.497829,43.130046,724.3 -2.497702,43.130048,720.0 -2.497560,43.130030,716.2 -2.497510,43.129935,713.0 -2.497488,43.129782,708.9 -2.497422,43.129671,704.8 -2.497358,43.129547,700.9 -2.497226,43.129445,696.9 -2.497009,43.129294,693.0 -2.496862,43.129288,691.5 -2.496775,43.129388,689.8 -2.496733,43.129503,685.2 -2.496623,43.129576,680.8 -2.496445,43.129572,675.1 -2.496293,43.129555,671.4 -2.496161,43.129533,668.9 -2.495991,43.129550,666.4 -2.495808,43.129701,663.4 -2.495684,43.129816,660.7 -2.495558,43.129921,657.3 -2.495442,43.130027,653.8 -2.495285,43.130143,648.8 -2.495146,43.130272,644.9 -2.494974,43.130393,640.4 -2.494807,43.130507,636.4 -2.494619,43.130675,631.5 -2.494459,43.130814,627.1 -2.494313,43.130911,623.7 -2.494221,43.130993,620.7 -2.494088,43.131105,616.9 -2.494010,43.131171,613.1 -2.493925,43.131272,609.7 -2.493852,43.131358,607.5 -2.493811,43.131435,605.4 -2.493823,43.131494,603.6 -2.493807,43.131595,601.3 -2.493787,43.131690,597.5 -2.493716,43.131805,593.1 -2.493654,43.131893,589.9 -2.493569,43.131987,586.3 -2.493421,43.132058,582.9 -2.493218,43.132119,579.1 -2.493100,43.132159,576.7 -2.492968,43.132222,573.7 -2.492836,43.132283,570.8 -2.492718,43.132365,566.8 -2.492563,43.132400,563.9 -2.492413,43.132383,562.0 -2.492267,43.132362,561.2 -2.492085,43.132335,560.3 -2.491936,43.132305,559.5 -2.491845,43.132255,557.6 -2.491724,43.132222,556.0 -2.491579,43.132205,553.1 -2.491410,43.132258,549.6 -2.491305,43.132344,546.4 -2.491191,43.132413,543.6 -2.491075,43.132483,541.2 -2.490891,43.132571,538.5 -2.490729,43.132616,535.4 -2.490577,43.132652,533.2 -2.490529,43.132762,530.9 -2.490392,43.132899,526.9 -2.490258,43.133001,523.2 -2.490127,43.133077,520.0 -2.489984,43.133175,516.5 -2.489765,43.133258,513.0 -2.489675,43.133396,510.2 -2.489478,43.133419,507.6 -2.489388,43.133508,505.6 -2.489407,43.133743,501.6 -2.489366,43.133944,498.3 -2.489306,43.134115,495.0 -2.489229,43.134296,491.8 -2.489159,43.134516,487.7 -2.489074,43.134674,483.8 -2.488950,43.134838,480.9 -2.488803,43.134996,477.5 -2.488715,43.135204,475.5 -2.488636,43.135376,473.9 -2.488537,43.135528,471.9 -2.488432,43.135661,470.1 -2.488267,43.135802,468.2 -2.488166,43.135938,467.0 -2.488054,43.136077,466.2 -2.487927,43.136211,466.1 -2.487843,43.136383,466.2 -2.487759,43.136541,466.5 -2.487723,43.136633,466.8</coordinates></LineString></Placemark></Document></kml>