<?xml version="1.0" encoding="UTF-8"?>
<kml xmlns="http://www.opengis.net/kml/2.2">
<Document>
<name>Osmagain y Arietzu</name>
<Style id="track">
<LineStyle><color>ff2fe0f5</color><width>4</width></LineStyle>
</Style>
<Placemark>
<name>Osmagain y Arietzu</name>
<styleUrl>#track</styleUrl>
<LineString>
<tessellate>1</tessellate>
<altitudeMode>clampToGround</altitudeMode>
<coordinates>-2.562827,43.195025,410.681 -2.562822,43.194997,410.861 -2.562809,43.194984,411.017 -2.562801,43.194978,411.209 -2.562774,43.194943,411.680 -2.562764,43.194928,411.844 -2.562767,43.194906,412.011 -2.562755,43.194886,412.259 -2.562744,43.194865,412.294 -2.562734,43.194853,412.417 -2.562722,43.194831,412.827 -2.562716,43.194819,413.231 -2.562709,43.194789,413.470 -2.562704,43.194776,414.036 -2.562700,43.194752,414.617 -2.562686,43.194740,414.818 -2.562679,43.194717,415.409 -2.562680,43.194698,415.825 -2.562683,43.194680,416.449 -2.562690,43.194659,416.866 -2.562704,43.194649,417.094 -2.562724,43.194642,417.489 -2.562745,43.194636,417.672 -2.562769,43.194634,417.852 -2.562790,43.194633,418.246 -2.562814,43.194635,418.495 -2.562831,43.194636,418.673 -2.562856,43.194635,419.085 -2.562881,43.194638,419.213 -2.562899,43.194635,419.409 -2.562929,43.194636,419.659 -2.562952,43.194636,419.683 -2.562974,43.194636,419.830 -2.562994,43.194636,420.058 -2.563011,43.194631,420.083 -2.563037,43.194629,420.236 -2.563050,43.194626,420.656 -2.563074,43.194630,421.230 -2.563093,43.194631,421.429 -2.563110,43.194627,421.821 -2.563131,43.194626,422.241 -2.563149,43.194625,422.605 -2.563163,43.194624,422.809 -2.563181,43.194623,423.224 -2.563199,43.194622,423.468 -2.563217,43.194623,423.635 -2.563239,43.194625,423.853 -2.563260,43.194626,424.268 -2.563280,43.194627,424.411 -2.563300,43.194626,424.851 -2.563311,43.194622,425.065 -2.563329,43.194621,425.234 -2.563346,43.194622,425.645 -2.563361,43.194623,426.047 -2.563382,43.194624,426.211 -2.563401,43.194624,426.409 -2.563421,43.194626,426.676 -2.563445,43.194631,426.880 -2.563462,43.194632,427.037 -2.563480,43.194633,427.285 -2.563500,43.194635,427.420 -2.563517,43.194636,427.613 -2.563540,43.194640,427.643 -2.563560,43.194644,427.687 -2.563576,43.194641,427.816 -2.563593,43.194644,428.025 -2.563609,43.194640,428.226 -2.563625,43.194636,428.408 -2.563627,43.194628,428.809 -2.563647,43.194620,429.034 -2.563664,43.194615,429.228 -2.563674,43.194608,429.495 -2.563688,43.194602,429.653 -2.563700,43.194595,429.818 -2.563714,43.194592,429.871 -2.563730,43.194587,430.031 -2.563744,43.194580,430.085 -2.563755,43.194575,430.234 -2.563763,43.194568,430.412 -2.563773,43.194559,430.632 -2.563785,43.194552,430.605 -2.563795,43.194544,430.809 -2.563807,43.194538,431.033 -2.563829,43.194526,431.057 -2.563838,43.194514,431.214 -2.563858,43.194503,431.242 -2.563868,43.194496,431.437 -2.563880,43.194486,431.690 -2.563888,43.194477,431.690 -2.563896,43.194468,431.624 -2.563907,43.194458,431.853 -2.563918,43.194449,431.812 -2.563924,43.194438,432.032 -2.563934,43.194428,432.205 -2.563940,43.194419,432.409 -2.563942,43.194409,432.863 -2.563948,43.194397,432.837 -2.563957,43.194388,433.074 -2.563967,43.194378,433.212 -2.563979,43.194366,433.447 -2.563991,43.194354,433.670 -2.563999,43.194341,433.820 -2.564007,43.194328,434.054 -2.564015,43.194316,434.213 -2.564022,43.194307,434.269 -2.564028,43.194301,434.404 -2.564035,43.194291,434.624 -2.564038,43.194280,435.009 -2.564047,43.194268,435.248 -2.564049,43.194257,435.462 -2.564056,43.194244,435.639 -2.564064,43.194233,436.057 -2.564067,43.194223,436.222 -2.564073,43.194213,436.485 -2.564078,43.194206,436.645 -2.564084,43.194198,437.079 -2.564094,43.194189,437.228 -2.564105,43.194179,437.419 -2.564112,43.194168,437.409 -2.564117,43.194155,437.819 -2.564124,43.194141,438.009 -2.564133,43.194130,438.243 -2.564138,43.194120,438.277 -2.564147,43.194109,438.444 -2.564159,43.194099,438.632 -2.564165,43.194090,438.657 -2.564173,43.194081,438.840 -2.564182,43.194067,439.050 -2.564186,43.194056,439.494 -2.564192,43.194046,439.623 -2.564199,43.194035,439.844 -2.564203,43.194024,440.005 -2.564207,43.194015,440.415 -2.564210,43.194004,440.609 -2.564216,43.193993,440.836 -2.564220,43.193982,441.220 -2.564224,43.193967,441.627 -2.564225,43.193955,441.845 -2.564226,43.193942,442.220 -2.564237,43.193926,442.483 -2.564240,43.193916,442.673 -2.564245,43.193909,442.877 -2.564255,43.193899,443.076 -2.564267,43.193890,443.252 -2.564270,43.193883,443.653 -2.564282,43.193872,443.808 -2.564292,43.193863,444.209 -2.564303,43.193856,444.637 -2.564313,43.193848,444.831 -2.564329,43.193838,445.218 -2.564335,43.193828,445.496 -2.564343,43.193820,445.631 -2.564351,43.193811,445.874 -2.564361,43.193802,446.044 -2.564372,43.193796,446.248 -2.564380,43.193790,446.417 -2.564391,43.193782,446.621 -2.564401,43.193776,446.841 -2.564414,43.193765,447.005 -2.564424,43.193756,447.209 -2.564434,43.193746,447.664 -2.564444,43.193740,447.858 -2.564454,43.193733,448.085 -2.564467,43.193727,448.223 -2.564474,43.193723,448.618 -2.564480,43.193717,448.841 -2.564486,43.193709,449.021 -2.564494,43.193698,449.275 -2.564505,43.193691,449.454 -2.564517,43.193685,449.853 -2.564530,43.193680,450.004 -2.564541,43.193674,450.214 -2.564552,43.193669,450.409 -2.564564,43.193662,450.677 -2.564582,43.193653,450.861 -2.564592,43.193652,451.038 -2.564607,43.193647,451.436 -2.564619,43.193641,451.611 -2.564630,43.193636,451.844 -2.564646,43.193629,452.044 -2.564659,43.193619,452.418 -2.564666,43.193612,452.617 -2.564680,43.193604,452.883 -2.564696,43.193597,453.225 -2.564709,43.193592,453.417 -2.564722,43.193586,453.809 -2.564732,43.193579,454.070 -2.564745,43.193572,454.274 -2.564757,43.193567,454.471 -2.564771,43.193563,454.689 -2.564784,43.193560,455.014 -2.564798,43.193554,455.467 -2.564812,43.193550,455.647 -2.564826,43.193541,456.041 -2.564837,43.193535,456.460 -2.564851,43.193526,456.616 -2.564862,43.193519,457.076 -2.564872,43.193513,457.213 -2.564883,43.193504,457.409 -2.564898,43.193498,457.613 -2.564908,43.193494,458.087 -2.564922,43.193487,458.014 -2.564938,43.193479,458.212 -2.564949,43.193473,458.267 -2.564963,43.193466,458.690 -2.564975,43.193459,458.850 -2.564988,43.193452,459.284 -2.564997,43.193443,459.623 -2.565011,43.193435,459.818 -2.565021,43.193430,460.298 -2.565031,43.193423,460.417 -2.565043,43.193413,460.609 -2.565050,43.193407,460.883 -2.565057,43.193398,461.067 -2.565066,43.193390,461.054 -2.565078,43.193383,461.252 -2.565089,43.193375,461.457 -2.565102,43.193368,461.620 -2.565107,43.193362,461.810 -2.565116,43.193356,462.044 -2.565125,43.193352,462.253 -2.565132,43.193346,462.454 -2.565137,43.193341,462.856 -2.565143,43.193332,463.211 -2.565151,43.193325,463.409 -2.565162,43.193319,463.847 -2.565171,43.193310,464.071 -2.565170,43.193303,464.298 -2.565174,43.193296,464.286 -2.565177,43.193291,464.631 -2.565179,43.193283,464.864 -2.565185,43.193274,465.024 -2.565193,43.193268,465.488 -2.565198,43.193261,465.617 -2.565202,43.193253,465.843 -2.565205,43.193246,466.064 -2.565210,43.193238,466.210 -2.565225,43.193229,466.209 -2.565237,43.193227,466.466 -2.565248,43.193222,466.870 -2.565258,43.193218,467.047 -2.565265,43.193209,467.495 -2.565275,43.193198,467.860 -2.565281,43.193191,468.093 -2.565289,43.193183,468.413 -2.565298,43.193172,468.687 -2.565301,43.193160,468.826 -2.565295,43.193155,469.256 -2.565289,43.193146,469.459 -2.565279,43.193139,469.614 -2.565266,43.193137,469.809 -2.565247,43.193131,470.057 -2.565236,43.193128,470.081 -2.565220,43.193121,470.058 -2.565205,43.193116,470.226 -2.565192,43.193111,470.451 -2.565180,43.193107,470.674 -2.565168,43.193102,470.894 -2.565155,43.193095,471.258 -2.565143,43.193091,471.497 -2.565132,43.193086,471.679 -2.565115,43.193080,471.805 -2.565100,43.193078,472.025 -2.565084,43.193071,472.409 -2.565073,43.193066,472.619 -2.565061,43.193061,473.073 -2.565048,43.193057,473.250 -2.565038,43.193055,473.698 -2.565025,43.193054,473.843 -2.565014,43.193048,474.096 -2.565004,43.193039,474.296 -2.564997,43.193036,474.470 -2.564983,43.193031,474.639 -2.564967,43.193026,475.061 -2.564950,43.193021,475.221 -2.564931,43.193012,475.813 -2.564917,43.193002,476.009 -2.564908,43.192997,476.488 -2.564896,43.192995,476.852 -2.564886,43.192993,477.079 -2.564869,43.192986,477.457 -2.564861,43.192983,477.892 -2.564849,43.192974,478.265 -2.564835,43.192969,478.885 -2.564819,43.192965,479.289 -2.564804,43.192953,479.898 -2.564804,43.192941,480.292 -2.564808,43.192927,480.673 -2.564819,43.192919,480.820 -2.564831,43.192917,481.209 -2.564842,43.192915,481.491 -2.564857,43.192913,481.865 -2.564874,43.192914,482.212 -2.564891,43.192918,482.660 -2.564909,43.192923,482.835 -2.564930,43.192928,483.298 -2.564953,43.192929,483.268 -2.564976,43.192934,483.252 -2.565005,43.192936,483.281 -2.565030,43.192937,483.011 -2.565054,43.192942,483.021 -2.565077,43.192945,483.003 -2.565106,43.192945,483.009 -2.565134,43.192949,483.023 -2.565162,43.192954,483.037 -2.565191,43.192955,482.814 -2.565220,43.192952,482.832 -2.565252,43.192955,483.047 -2.565276,43.192959,483.210 -2.565309,43.192966,483.470 -2.565340,43.192970,483.654 -2.565372,43.192974,483.813 -2.565404,43.192980,483.885 -2.565433,43.192980,483.889 -2.565461,43.192978,484.017 -2.565491,43.192974,484.009 -2.565516,43.192972,484.070 -2.565540,43.192970,484.234 -2.565562,43.192967,484.221 -2.565586,43.192965,484.659 -2.565605,43.192963,484.894 -2.565628,43.192965,485.217 -2.565654,43.192970,485.677 -2.565679,43.192967,485.851 -2.565705,43.192963,486.080 -2.565727,43.192960,486.482 -2.565746,43.192961,486.643 -2.565769,43.192958,487.017 -2.565787,43.192955,487.409 -2.565806,43.192954,487.620 -2.565827,43.192952,488.014 -2.565846,43.192952,488.461 -2.565870,43.192952,488.639 -2.565890,43.192951,489.224 -2.565912,43.192950,489.627 -2.565935,43.192945,489.847 -2.565955,43.192944,490.031 -2.565981,43.192946,490.270 -2.566001,43.192946,490.235 -2.566024,43.192948,490.486 -2.566043,43.192951,490.614 -2.566062,43.192951,490.809 -2.566077,43.192950,490.875 -2.566094,43.192948,491.089 -2.566112,43.192942,491.066 -2.566124,43.192933,491.064 -2.566124,43.192923,491.279 -2.566121,43.192918,491.432 -2.566120,43.192914,491.662 -2.566123,43.192914,491.666 -2.566117,43.192913,491.825 -2.566104,43.192906,492.065 -2.566090,43.192905,492.068 -2.566076,43.192905,492.214 -2.566061,43.192905,492.209 -2.566046,43.192898,492.458 -2.566033,43.192893,492.892 -2.566019,43.192887,493.029 -2.566006,43.192876,493.247 -2.565992,43.192869,493.462 -2.565980,43.192861,493.875 -2.565969,43.192858,494.015 -2.565956,43.192850,494.219 -2.565943,43.192842,494.438 -2.565928,43.192835,494.657 -2.565912,43.192830,494.800 -2.565893,43.192822,494.820 -2.565879,43.192814,495.009 -2.565863,43.192812,495.227 -2.565845,43.192811,495.461 -2.565826,43.192809,495.688 -2.565815,43.192801,495.866 -2.565803,43.192795,495.831 -2.565793,43.192789,496.094 -2.565785,43.192781,496.224 -2.565775,43.192770,496.678 -2.565766,43.192765,496.817 -2.565753,43.192758,497.065 -2.565743,43.192756,497.468 -2.565730,43.192750,497.614 -2.565722,43.192744,498.009 -2.565714,43.192743,498.298 -2.565703,43.192735,498.442 -2.565692,43.192730,498.869 -2.565682,43.192722,499.037 -2.565667,43.192717,499.232 -2.565653,43.192708,499.495 -2.565640,43.192701,499.845 -2.565629,43.192694,500.289 -2.565615,43.192689,500.668 -2.565601,43.192682,501.033 -2.565591,43.192673,501.223 -2.565577,43.192665,501.415 -2.565563,43.192659,501.609 -2.565548,43.192653,501.885 -2.565533,43.192643,502.069 -2.565521,43.192639,502.476 -2.565512,43.192635,502.674 -2.565501,43.192632,502.819 -2.565490,43.192628,503.232 -2.565471,43.192628,503.612 -2.565452,43.192625,503.666 -2.565434,43.192625,503.655 -2.565414,43.192621,503.862 -2.565395,43.192611,503.883 -2.565382,43.192606,504.011 -2.565364,43.192597,504.209 -2.565354,43.192592,504.678 -2.565342,43.192588,504.832 -2.565336,43.192585,505.219 -2.565328,43.192580,505.647 -2.565321,43.192577,506.072 -2.565314,43.192571,506.495 -2.565309,43.192566,506.895 -2.565301,43.192557,507.019 -2.565293,43.192551,507.498 -2.565283,43.192544,507.641 -2.565269,43.192533,507.881 -2.565255,43.192525,508.009 -2.565243,43.192523,508.209 -2.565230,43.192519,508.426 -2.565217,43.192513,508.870 -2.565210,43.192506,509.097 -2.565197,43.192500,509.235 -2.565185,43.192494,509.480 -2.565176,43.192489,509.833 -2.565166,43.192482,510.013 -2.565152,43.192473,510.237 -2.565141,43.192467,510.446 -2.565129,43.192461,510.631 -2.565115,43.192453,511.061 -2.565099,43.192445,511.207 -2.565085,43.192437,511.409 -2.565071,43.192427,511.685 -2.565059,43.192421,512.029 -2.565050,43.192413,512.056 -2.565038,43.192406,512.484 -2.565020,43.192402,512.619 -2.565005,43.192399,513.012 -2.564994,43.192393,513.272 -2.564984,43.192385,513.466 -2.564971,43.192382,513.655 -2.564956,43.192374,513.898 -2.564940,43.192365,514.215 -2.564925,43.192356,514.426 -2.564910,43.192347,514.609 -2.564896,43.192339,514.881 -2.564881,43.192334,515.055 -2.564867,43.192329,515.292 -2.564854,43.192325,515.440 -2.564841,43.192320,515.865 -2.564821,43.192312,516.058 -2.564807,43.192304,516.218 -2.564791,43.192296,516.642 -2.564775,43.192286,516.841 -2.564760,43.192281,517.028 -2.564744,43.192273,517.289 -2.564724,43.192267,517.417 -2.564706,43.192258,517.809 -2.564694,43.192252,518.034 -2.564675,43.192242,518.438 -2.564662,43.192239,518.825 -2.564647,43.192229,519.233 -2.564633,43.192227,519.658 -2.564615,43.192219,519.841 -2.564602,43.192212,520.011 -2.564583,43.192204,520.465 -2.564565,43.192193,520.644 -2.564548,43.192182,521.011 -2.564530,43.192171,521.421 -2.564515,43.192160,521.403 -2.564501,43.192157,521.609 -2.564484,43.192149,521.813 -2.564468,43.192144,522.277 -2.564455,43.192136,522.694 -2.564439,43.192123,523.082 -2.564424,43.192117,523.457 -2.564407,43.192109,523.620 -2.564389,43.192099,523.890 -2.564373,43.192092,524.294 -2.564356,43.192088,524.463 -2.564336,43.192078,524.683 -2.564319,43.192070,525.025 -2.564302,43.192063,525.417 -2.564284,43.192054,525.609 -2.564266,43.192053,525.860 -2.564248,43.192046,526.244 -2.564227,43.192034,526.271 -2.564209,43.192024,526.669 -2.564187,43.192013,526.864 -2.564167,43.192001,526.857 -2.564148,43.191992,526.827 -2.564122,43.191980,526.861 -2.564093,43.191971,526.830 -2.564071,43.191964,527.045 -2.564054,43.191950,527.247 -2.564031,43.191940,527.811 -2.564003,43.191929,528.409 -2.563978,43.191919,528.646 -2.563957,43.191913,529.060 -2.563935,43.191902,529.227 -2.563914,43.191895,529.415 -2.563890,43.191887,529.680 -2.563865,43.191880,529.433 -2.563839,43.191874,529.213 -2.563818,43.191860,529.297 -2.563798,43.191848,529.276 -2.563779,43.191841,529.233 -2.563754,43.191830,529.623 -2.563731,43.191816,530.015 -2.563708,43.191806,530.209 -2.563684,43.191792,530.445 -2.563663,43.191779,530.449 -2.563633,43.191767,530.416 -2.563605,43.191759,530.454 -2.563574,43.191747,530.459 -2.563549,43.191740,530.222 -2.563522,43.191727,530.282 -2.563501,43.191706,530.216 -2.563479,43.191689,530.285 -2.563468,43.191664,530.494 -2.563461,43.191649,530.857 -2.563441,43.191633,531.022 -2.563412,43.191623,531.409 -2.563386,43.191614,531.641 -2.563360,43.191605,531.855 -2.563335,43.191593,531.872 -2.563323,43.191574,531.830 -2.563312,43.191559,531.825 -2.563293,43.191551,531.898 -2.563258,43.191544,531.878 -2.563228,43.191536,531.892 -2.563212,43.191518,531.861 -2.563192,43.191501,531.668 -2.563166,43.191492,531.242 -2.563135,43.191479,531.226 -2.563104,43.191470,530.809 -2.563073,43.191462,530.668 -2.563045,43.191455,530.472 -2.563017,43.191448,530.499 -2.562992,43.191440,530.277 -2.562971,43.191439,530.282 -2.562947,43.191428,530.285 -2.562924,43.191415,530.285 -2.562901,43.191402,530.079 -2.562880,43.191389,529.828 -2.562856,43.191384,529.647 -2.562827,43.191376,529.229 -2.562795,43.191367,529.221 -2.562761,43.191364,528.609 -2.562723,43.191357,528.046 -2.562689,43.191349,527.490 -2.562653,43.191338,527.017 -2.562621,43.191330,526.825 -2.562581,43.191317,526.420 -2.562550,43.191307,526.413 -2.562512,43.191294,526.423 -2.562478,43.191285,526.457 -2.562440,43.191270,526.436 -2.562407,43.191259,526.622 -2.562367,43.191245,526.662 -2.562337,43.191232,526.608 -2.562306,43.191215,526.809 -2.562273,43.191205,527.254 -2.562240,43.191187,527.618 -2.562211,43.191173,527.875 -2.562175,43.191161,527.833 -2.562141,43.191146,527.838 -2.562106,43.191131,528.071 -2.562065,43.191120,527.851 -2.562025,43.191112,527.845 -2.561985,43.191098,528.054 -2.561953,43.191089,528.418 -2.561917,43.191080,528.898 -2.561890,43.191062,529.417 -2.561871,43.191042,529.809 -2.561843,43.191021,529.453 -2.561819,43.191004,528.687 -2.561795,43.190985,528.254 -2.561770,43.190971,527.872 -2.561741,43.190960,527.427 -2.561711,43.190951,527.230 -2.561682,43.190939,526.880 -2.561652,43.190934,526.284 -2.561613,43.190930,525.813 -2.561582,43.190923,525.267 -2.561548,43.190914,524.681 -2.561518,43.190896,524.019 -2.561493,43.190874,523.609 -2.561476,43.190846,523.478 -2.561460,43.190822,523.422 -2.561444,43.190800,523.449 -2.561426,43.190783,523.477 -2.561404,43.190765,523.442 -2.561378,43.190753,523.445 -2.561344,43.190744,523.465 -2.561319,43.190720,523.279 -2.561293,43.190707,522.828 -2.561269,43.190688,522.682 -2.561245,43.190672,522.443 -2.561221,43.190655,522.017 -2.561197,43.190636,521.609 -2.561177,43.190621,521.420 -2.561159,43.190599,521.474 -2.561138,43.190579,521.231 -2.561111,43.190557,520.889 -2.561084,43.190544,520.664 -2.561060,43.190531,520.217 -2.561039,43.190515,520.267 -2.561015,43.190500,520.021 -2.560997,43.190477,520.080 -2.560985,43.190457,520.071 -2.560970,43.190434,520.041 -2.560952,43.190417,519.815 -2.560927,43.190411,519.409 -2.560895,43.190403,519.259 -2.560865,43.190395,519.063 -2.560841,43.190383,518.860 -2.560815,43.190373,518.888 -2.560782,43.190359,518.443 -2.560755,43.190342,518.036 -2.560734,43.190327,517.656 -2.560709,43.190310,517.250 -2.560688,43.190291,516.839 -2.560671,43.190268,516.442 -2.560657,43.190251,516.222 -2.560641,43.190232,516.014 -2.560629,43.190214,515.809 -2.560621,43.190195,515.676 -2.560608,43.190175,515.490 -2.560590,43.190160,515.497 -2.560568,43.190148,515.275 -2.560546,43.190135,514.880 -2.560524,43.190123,514.663 -2.560509,43.190102,514.273 -2.560495,43.190086,514.017 -2.560479,43.190068,513.836 -2.560462,43.190056,513.624 -2.560437,43.190044,513.404 -2.560413,43.190036,513.014 -2.560382,43.190027,512.609 -2.560357,43.190014,512.494 -2.560335,43.190000,512.218 -2.560313,43.189983,512.085 -2.560295,43.189968,512.083 -2.560280,43.189951,511.858 -2.560260,43.189939,511.861 -2.560243,43.189924,512.061 -2.560223,43.189911,512.015 -2.560204,43.189900,512.294 -2.560185,43.189885,512.227 -2.560172,43.189870,512.468 -2.560154,43.189858,512.614 -2.560134,43.189846,512.809 -2.560115,43.189834,512.824 -2.560099,43.189820,512.828 -2.560081,43.189812,512.815 -2.560062,43.189807,512.823 -2.560045,43.189794,512.858 -2.560027,43.189785,512.841 -2.560013,43.189770,512.821 -2.560001,43.189756,512.835 -2.559986,43.189744,512.864 -2.559974,43.189730,512.849 -2.559963,43.189717,512.802 -2.559951,43.189706,512.822 -2.559937,43.189694,512.809 -2.559923,43.189682,512.846 -2.559909,43.189672,512.870 -2.559897,43.189659,512.817 -2.559881,43.189649,512.895 -2.559865,43.189636,512.860 -2.559848,43.189625,512.663 -2.559833,43.189616,512.473 -2.559820,43.189610,512.447 -2.559809,43.189601,512.216 -2.559796,43.189591,512.017 -2.559779,43.189579,511.887 -2.559759,43.189566,511.415 -2.559735,43.189553,511.009 -2.559713,43.189544,510.613 -2.559695,43.189531,510.217 -2.559677,43.189520,509.824 -2.559657,43.189512,509.672 -2.559641,43.189499,509.467 -2.559628,43.189487,509.240 -2.559615,43.189481,509.050 -2.559599,43.189471,508.844 -2.559587,43.189461,508.613 -2.559574,43.189451,508.414 -2.559559,43.189442,508.054 -2.559543,43.189433,507.809 -2.559523,43.189425,507.409 -2.559505,43.189420,507.083 -2.559487,43.189415,506.467 -2.559464,43.189411,506.044 -2.559443,43.189406,505.422 -2.559420,43.189404,505.067 -2.559394,43.189402,504.480 -2.559368,43.189397,503.660 -2.559339,43.189390,503.084 -2.559307,43.189387,502.283 -2.559275,43.189384,501.621 -2.559240,43.189382,500.841 -2.559204,43.189380,500.005 -2.559168,43.189374,499.609 -2.559133,43.189363,499.224 -2.559104,43.189355,499.028 -2.559065,43.189351,499.095 -2.559021,43.189355,498.863 -2.558982,43.189359,498.088 -2.558947,43.189359,497.071 -2.558914,43.189349,496.261 -2.558885,43.189342,495.675 -2.558850,43.189338,495.474 -2.558822,43.189333,495.451 -2.558792,43.189317,495.401 -2.558769,43.189306,495.211 -2.558741,43.189298,494.809 -2.558711,43.189295,494.287 -2.558682,43.189290,493.451 -2.558654,43.189286,492.868 -2.558625,43.189284,492.096 -2.558586,43.189293,491.281 -2.558556,43.189298,490.614 -2.558519,43.189299,490.244 -2.558483,43.189298,490.078 -2.558449,43.189289,489.647 -2.558416,43.189277,489.251 -2.558385,43.189262,489.001 -2.558354,43.189249,488.611 -2.558317,43.189236,488.209 -2.558288,43.189227,488.057 -2.558258,43.189212,487.681 -2.558232,43.189198,487.088 -2.558199,43.189183,486.416 -2.558168,43.189170,485.641 -2.558132,43.189155,485.254 -2.558098,43.189144,484.834 -2.558064,43.189128,484.688 -2.558033,43.189118,484.437 -2.558004,43.189109,484.424 -2.557973,43.189097,484.404 -2.557944,43.189084,484.614 -2.557914,43.189079,484.809 -2.557876,43.189072,485.014 -2.557844,43.189068,485.088 -2.557803,43.189056,485.075 -2.557769,43.189048,484.863 -2.557736,43.189033,484.688 -2.557704,43.189018,484.031 -2.557667,43.189010,483.681 -2.557636,43.189002,483.445 -2.557602,43.188997,483.234 -2.557567,43.188984,483.285 -2.557534,43.188972,483.289 -2.557498,43.188955,482.817 -2.557468,43.188945,482.409 -2.557429,43.188936,482.290 -2.557395,43.188931,481.894 -2.557358,43.188916,481.431 -2.557330,43.188901,481.019 -2.557304,43.188876,480.884 -2.557284,43.188858,480.677 -2.557252,43.188841,480.677 -2.557220,43.188830,480.471 -2.557184,43.188818,480.450 -2.557149,43.188813,480.494 -2.557109,43.188810,480.257 -2.557074,43.188807,480.022 -2.557041,43.188798,480.009 -2.557014,43.188790,479.881 -2.556985,43.188777,479.635 -2.556956,43.188766,479.622 -2.556920,43.188755,479.250 -2.556886,43.188743,479.095 -2.556857,43.188725,478.078 -2.556828,43.188708,477.458 -2.556798,43.188696,477.092 -2.556762,43.188681,476.641 -2.556728,43.188667,476.023 -2.556698,43.188649,475.683 -2.556668,43.188637,475.011 -2.556635,43.188626,474.809 -2.556602,43.188616,474.274 -2.556571,43.188604,473.858 -2.556539,43.188594,473.665 -2.556506,43.188584,473.283 -2.556473,43.188571,473.098 -2.556443,43.188559,472.891 -2.556409,43.188543,472.641 -2.556379,43.188532,472.275 -2.556346,43.188515,472.044 -2.556313,43.188501,471.649 -2.556277,43.188483,471.602 -2.556246,43.188471,471.422 -2.556211,43.188453,471.409 -2.556178,43.188442,471.496 -2.556145,43.188429,471.440 -2.556111,43.188421,471.677 -2.556077,43.188411,471.645 -2.556047,43.188405,472.080 -2.556015,43.188398,472.243 -2.555985,43.188389,472.423 -2.555955,43.188376,472.837 -2.555924,43.188366,473.096 -2.555896,43.188354,473.057 -2.555864,43.188343,473.200 -2.555835,43.188333,473.220 -2.555808,43.188325,473.009 -2.555779,43.188319,473.087 -2.555751,43.188315,473.241 -2.555725,43.188302,473.498 -2.555703,43.188291,473.696 -2.555677,43.188275,473.831 -2.555650,43.188267,473.844 -2.555624,43.188253,473.644 -2.555601,43.188243,473.448 -2.555575,43.188231,473.227 -2.555541,43.188215,473.049 -2.555504,43.188208,472.802 -2.555478,43.188198,472.822 -2.555447,43.188190,472.809 -2.555418,43.188179,472.846 -2.555391,43.188168,472.850 -2.555361,43.188156,472.847 -2.555339,43.188141,472.865 -2.555316,43.188123,472.880 -2.555292,43.188113,472.843 -2.555266,43.188097,472.833 -2.555242,43.188085,472.667 -2.555214,43.188075,472.696 -2.555184,43.188067,472.621 -2.555155,43.188058,472.641 -2.555128,43.188046,472.605 -2.555103,43.188036,472.609 -2.555077,43.188024,472.854 -2.555051,43.188012,472.898 -2.555032,43.187998,472.825 -2.555010,43.187988,472.883 -2.554982,43.187977,472.658 -2.554952,43.187964,472.691 -2.554921,43.187951,472.651 -2.554895,43.187933,472.465 -2.554874,43.187921,472.274 -2.554853,43.187906,472.299 -2.554831,43.187894,472.007 -2.554806,43.187879,472.027 -2.554777,43.187866,471.809 -2.554752,43.187854,471.661 -2.554726,43.187842,471.435 -2.554699,43.187845,471.222 -2.554659,43.187855,470.820 -2.554630,43.187865,470.425 -2.554593,43.187861,470.038 -2.554569,43.187851,469.698 -2.554544,43.187837,469.642 -2.554519,43.187828,469.641 -2.554489,43.187815,469.663 -2.554464,43.187803,469.644 -2.554437,43.187795,469.818 -2.554413,43.187784,469.809 -2.554388,43.187773,469.838 -2.554356,43.187764,469.842 -2.554331,43.187758,469.889 -2.554305,43.187749,469.897 -2.554275,43.187745,469.622 -2.554242,43.187736,469.615 -2.554215,43.187727,469.425 -2.554186,43.187715,469.439 -2.554158,43.187709,469.258 -2.554127,43.187697,469.015 -2.554096,43.187685,469.065 -2.554064,43.187674,469.011 -2.554036,43.187670,469.209 -2.554000,43.187671,469.433 -2.553968,43.187673,469.637 -2.553937,43.187670,469.674 -2.553910,43.187666,469.462 -2.553886,43.187660,469.217 -2.553858,43.187652,469.020 -2.553827,43.187646,468.660 -2.553788,43.187640,468.224 -2.553748,43.187634,468.283 -2.553708,43.187626,468.089 -2.553682,43.187624,468.206 -2.553657,43.187622,468.226 -2.553628,43.187619,468.409 -2.553600,43.187615,468.670 -2.553565,43.187613,468.644 -2.553534,43.187605,468.661 -2.553507,43.187592,468.459 -2.553478,43.187582,468.214 -2.553445,43.187568,468.087 -2.553413,43.187562,467.637 -2.553373,43.187556,467.021 -2.553342,43.187550,466.680 -2.553310,43.187540,466.039 -2.553282,43.187531,465.801 -2.553252,43.187517,465.621 -2.553222,43.187510,465.609 -2.553187,43.187500,465.675 -2.553153,43.187496,465.679 -2.553118,43.187490,465.696 -2.553084,43.187488,465.464 -2.553053,43.187475,465.239 -2.553030,43.187465,465.252 -2.552992,43.187462,465.032 -2.552961,43.187451,464.886 -2.552937,43.187437,464.815 -2.552913,43.187421,465.027 -2.552892,43.187405,465.268 -2.552865,43.187392,465.414 -2.552834,43.187389,465.809 -2.552802,43.187380,465.884 -2.552778,43.187369,465.848 -2.552752,43.187360,465.895 -2.552722,43.187354,465.843 -2.552701,43.187344,465.828 -2.552683,43.187326,465.881 -2.552656,43.187311,465.611 -2.552630,43.187291,465.215 -2.552610,43.187279,465.244 -2.552596,43.187267,465.275 -2.552577,43.187260,465.428 -2.552555,43.187256,465.820 -2.552534,43.187254,466.209 -2.552508,43.187251,466.679 -2.552482,43.187245,467.073 -2.552458,43.187241,467.060 -2.552432,43.187232,467.088 -2.552410,43.187228,467.093 -2.552383,43.187221,466.896 -2.552357,43.187216,466.876 -2.552337,43.187201,466.880 -2.552328,43.187185,467.019 -2.552310,43.187177,467.296 -2.552285,43.187169,467.431 -2.552265,43.187159,467.624 -2.552236,43.187150,467.609 -2.552216,43.187149,467.871 -2.552187,43.187144,467.835 -2.552169,43.187129,467.882 -2.552150,43.187117,468.060 -2.552128,43.187106,468.025 -2.552105,43.187100,468.218 -2.552086,43.187089,468.468 -2.552065,43.187076,468.612 -2.552048,43.187062,468.841 -2.552027,43.187050,468.874 -2.552005,43.187043,469.056 -2.551987,43.187030,469.221 -2.551971,43.187019,469.209 -2.551960,43.187002,469.429 -2.551935,43.186988,469.433 -2.551910,43.186979,469.260 -2.551888,43.186971,469.038 -2.551864,43.186969,468.823 -2.551840,43.186963,468.636 -2.551820,43.186961,468.686 -2.551801,43.186958,468.480 -2.551776,43.186952,468.419 -2.551754,43.186941,468.417 -2.551733,43.186924,468.687 -2.551713,43.186907,468.615 -2.551691,43.186890,468.609 -2.551667,43.186870,468.423 -2.551647,43.186857,468.217 -2.551629,43.186841,468.074 -2.551609,43.186831,468.012 -2.551580,43.186822,468.067 -2.551561,43.186810,468.070 -2.551537,43.186801,468.080 -2.551513,43.186782,467.894 -2.551496,43.186767,467.663 -2.551474,43.186747,467.446 -2.551451,43.186735,467.488 -2.551424,43.186717,467.216 -2.551398,43.186705,467.009 -2.551366,43.186692,467.086 -2.551339,43.186683,466.810 -2.551311,43.186672,467.037 -2.551289,43.186667,467.055 -2.551260,43.186660,467.420 -2.551235,43.186656,467.673 -2.551207,43.186653,467.823 -2.551178,43.186648,468.247 -2.551146,43.186640,468.266 -2.551120,43.186629,468.889 -2.551096,43.186624,469.006 -2.551073,43.186611,469.026 -2.551051,43.186599,469.009 -2.551035,43.186586,469.260 -2.551017,43.186576,469.294 -2.550990,43.186567,469.031 -2.550964,43.186555,469.019 -2.550943,43.186543,469.044 -2.550924,43.186527,469.087 -2.550908,43.186512,469.247 -2.550888,43.186502,469.291 -2.550861,43.186493,469.660 -2.550835,43.186482,469.683 -2.550812,43.186470,469.825 -2.550785,43.186459,469.817 -2.550758,43.186448,470.009 -2.550732,43.186440,470.430 -2.550710,43.186428,470.484 -2.550687,43.186422,470.411 -2.550663,43.186411,470.449 -2.550642,43.186402,470.644 -2.550619,43.186394,470.657 -2.550593,43.186390,470.867 -2.550567,43.186379,471.081 -2.550549,43.186364,471.280 -2.550528,43.186353,471.412 -2.550505,43.186346,471.832 -2.550482,43.186344,472.205 -2.550460,43.186331,473.009 -2.550445,43.186321,473.283 -2.550422,43.186311,473.417 -2.550399,43.186304,473.854 -2.550378,43.186294,474.082 -2.550354,43.186288,474.257 -2.550332,43.186285,474.680 -2.550314,43.186280,474.650 -2.550295,43.186279,474.634 -2.550270,43.186273,474.863 -2.550247,43.186266,474.846 -2.550228,43.186256,474.888 -2.550212,43.186248,475.016 -2.550195,43.186239,475.409 -2.550179,43.186229,475.856 -2.550161,43.186224,476.210 -2.550142,43.186214,476.437 -2.550124,43.186204,476.645 -2.550105,43.186198,476.620 -2.550087,43.186187,477.073 -2.550071,43.186177,477.273 -2.550055,43.186168,477.437 -2.550038,43.186160,477.436 -2.550022,43.186151,477.631 -2.550007,43.186139,477.861 -2.549992,43.186128,478.207 -2.549979,43.186120,478.609 -2.549966,43.186105,479.045 -2.549953,43.186095,479.299 -2.549935,43.186085,479.456 -2.549917,43.186076,479.654 -2.549897,43.186071,479.629 -2.549878,43.186062,479.812 -2.549862,43.186054,479.852 -2.549842,43.186045,480.036 -2.549826,43.186038,480.085 -2.549812,43.186028,480.282 -2.549798,43.186019,480.443 -2.549782,43.186012,480.417 -2.549767,43.186004,480.609 -2.549750,43.185997,480.680 -2.549731,43.185991,480.634 -2.549714,43.185986,480.611 -2.549696,43.185981,480.859 -2.549677,43.185973,480.824 -2.549659,43.185963,481.067 -2.549642,43.185958,481.217 -2.549625,43.185947,481.421 -2.549611,43.185941,481.480 -2.549594,43.185932,481.454 -2.549582,43.185921,481.656 -2.549567,43.185914,481.811 -2.549549,43.185904,482.009 -2.549532,43.185900,482.457 -2.549518,43.185892,482.691 -2.549504,43.185885,483.028 -2.549485,43.185878,483.226 -2.549467,43.185867,483.471 -2.549452,43.185857,483.694 -2.549435,43.185847,484.094 -2.549421,43.185841,484.218 -2.549403,43.185832,484.427 -2.549383,43.185821,484.471 -2.549361,43.185813,484.641 -2.549340,43.185802,484.615 -2.549321,43.185796,484.609 -2.549300,43.185788,484.899 -2.549283,43.185779,484.833 -2.549268,43.185772,485.020 -2.549250,43.185765,485.058 -2.549235,43.185759,485.233 -2.549222,43.185756,485.416 -2.549207,43.185750,485.696 -2.549197,43.185745,485.850 -2.549188,43.185736,485.839 -2.549180,43.185727,485.873 -2.549169,43.185717,486.085 -2.549168,43.185716,486.013 -2.549169,43.185717,485.809 -2.549170,43.185718,486.049 -2.549170,43.185718,486.033 -2.549170,43.185718,486.070 -2.549170,43.185718,486.078 -2.549170,43.185718,485.883 -2.549170,43.185718,485.896 -2.549162,43.185717,485.816 -2.549151,43.185716,485.610 -2.549132,43.185706,485.429 -2.549117,43.185696,485.284 -2.549103,43.185687,484.807 -2.549091,43.185672,484.417 -2.549078,43.185654,484.209 -2.549064,43.185648,484.220 -2.549050,43.185644,484.044 -2.549033,43.185629,484.071 -2.549013,43.185613,483.859 -2.548996,43.185597,483.644 -2.548984,43.185577,483.257 -2.548968,43.185559,482.897 -2.548967,43.185535,482.291 -2.548965,43.185515,482.250 -2.548957,43.185495,482.016 -2.548945,43.185478,481.876 -2.548931,43.185459,481.813 -2.548921,43.185436,481.809 -2.548909,43.185416,481.623 -2.548897,43.185393,481.067 -2.548884,43.185373,480.264 -2.548872,43.185355,479.662 -2.548861,43.185335,479.217 -2.548841,43.185319,478.870 -2.548823,43.185310,478.490 -2.548811,43.185304,478.094 -2.548792,43.185300,477.693 -2.548777,43.185299,477.031 -2.548760,43.185302,476.661 -2.548742,43.185303,476.207 -2.548725,43.185297,475.609 -2.548711,43.185291,475.045 -2.548693,43.185286,474.479 -2.548676,43.185278,473.626 -2.548660,43.185272,473.094 -2.548642,43.185266,472.269 -2.548633,43.185264,471.692 -2.548624,43.185265,470.832 -2.548607,43.185270,470.286 -2.548587,43.185272,469.855 -2.548568,43.185272,469.239 -2.548551,43.185275,468.601 -2.548528,43.185286,468.621 -2.548504,43.185287,468.209 -2.548482,43.185287,467.875 -2.548459,43.185286,466.279 -2.548432,43.185289,464.476 -2.548401,43.185292,462.874 -2.548380,43.185294,462.459 -2.548358,43.185295,462.062 -2.548328,43.185305,460.842 -2.548304,43.185309,460.026 -2.548283,43.185305,459.465 -2.548255,43.185292,459.038 -2.548230,43.185283,458.670 -2.548209,43.185272,458.017 -2.548186,43.185258,457.409 -2.548165,43.185247,456.485 -2.548145,43.185245,455.459 -2.548120,43.185246,454.816 -2.548102,43.185258,454.444 -2.548086,43.185268,454.059 -2.548061,43.185282,453.422 -2.548040,43.185301,453.212 -2.548029,43.185317,453.086 -2.548023,43.185342,452.635 -2.548020,43.185361,452.615 -2.548016,43.185385,453.065 -2.548019,43.185406,453.411 -2.548030,43.185433,453.809 -2.548045,43.185457,454.083 -2.548058,43.185479,454.297 -2.548071,43.185500,454.464 -2.548080,43.185526,454.682 -2.548094,43.185544,454.837 -2.548110,43.185572,455.060 -2.548126,43.185597,455.050 -2.548142,43.185623,455.024 -2.548152,43.185649,455.083 -2.548157,43.185675,454.859 -2.548165,43.185698,454.603 -2.548166,43.185720,454.423 -2.548169,43.185742,454.209 -2.548165,43.185765,454.257 -2.548162,43.185789,454.011 -2.548166,43.185811,454.288 -2.548173,43.185831,454.046 -2.548176,43.185854,454.031 -2.548179,43.185878,453.854 -2.548179,43.185897,453.674 -2.548179,43.185921,453.498 -2.548185,43.185944,453.277 -2.548189,43.185969,453.049 -2.548181,43.185988,452.602 -2.548166,43.186009,452.422 -2.548152,43.186027,452.009 -2.548142,43.186046,451.826 -2.548131,43.186066,451.480 -2.548120,43.186085,450.867 -2.548104,43.186108,450.225 -2.548094,43.186128,449.690 -2.548083,43.186151,449.083 -2.548070,43.186169,448.473 -2.548057,43.186186,448.057 -2.548048,43.186205,447.696 -2.548042,43.186226,447.431 -2.548042,43.186251,447.061 -2.548045,43.186272,446.607 -2.548047,43.186297,446.409 -2.548051,43.186319,446.025 -2.548057,43.186345,445.829 -2.548068,43.186368,445.426 -2.548079,43.186393,445.064 -2.548077,43.186421,444.499 -2.548076,43.186446,443.632 -2.548073,43.186473,443.242 -2.548080,43.186495,443.016 -2.548087,43.186520,442.265 -2.548095,43.186541,441.873 -2.548095,43.186564,441.285 -2.548097,43.186584,440.813 -2.548103,43.186610,440.609 -2.548105,43.186633,440.099 -2.548109,43.186660,439.643 -2.548117,43.186684,439.270 -2.548129,43.186710,438.458 -2.548141,43.186734,438.233 -2.548154,43.186756,437.816 -2.548161,43.186780,437.076 -2.548163,43.186802,436.680 -2.548164,43.186828,436.279 -2.548169,43.186848,435.867 -2.548175,43.186872,435.281 -2.548184,43.186891,434.619 -2.548195,43.186912,434.009 -2.548214,43.186927,433.458 -2.548239,43.186941,433.062 -2.548262,43.186954,432.689 -2.548281,43.186973,432.047 -2.548298,43.186994,431.612 -2.548320,43.187010,431.235 -2.548346,43.187021,430.625 -2.548375,43.187034,430.419 -2.548403,43.187048,430.068 -2.548429,43.187062,429.425 -2.548456,43.187074,429.026 -2.548479,43.187092,428.608 -2.548506,43.187104,428.009 -2.548527,43.187127,427.474 -2.548536,43.187147,427.058 -2.548519,43.187172,426.445 -2.548499,43.187190,426.093 -2.548471,43.187206,425.688 -2.548444,43.187223,425.031 -2.548420,43.187242,424.431 -2.548395,43.187260,424.265 -2.548369,43.187284,423.694 -2.548342,43.187306,423.284 -2.548310,43.187321,423.007 -2.548282,43.187333,422.617 -2.548252,43.187343,422.209 -2.548220,43.187350,421.830 -2.548193,43.187352,421.614 -2.548161,43.187355,421.621 -2.548131,43.187361,421.499 -2.548103,43.187372,421.244 -2.548076,43.187383,421.057 -2.548053,43.187400,420.627 -2.548033,43.187413,419.851 -2.548008,43.187430,419.050 -2.547989,43.187445,418.226 -2.547973,43.187455,417.847 -2.547948,43.187454,417.411 -2.547921,43.187455,416.609 -2.547895,43.187457,416.044 -2.547871,43.187461,415.688 -2.547845,43.187468,415.485 -2.547820,43.187476,415.423 -2.547798,43.187487,415.228 -2.547778,43.187498,414.811 -2.547762,43.187510,414.031 -2.547745,43.187525,412.415 -2.547732,43.187541,411.874 -2.547724,43.187557,411.226 -2.547727,43.187577,410.647 -2.547736,43.187593,410.011 -2.547742,43.187602,409.409 -2.547746,43.187609,409.284 -2.547746,43.187611,409.018 -2.547751,43.187607,409.025 -2.547753,43.187606,408.893 -2.547752,43.187609,408.818 -2.547751,43.187612,408.871 -2.547748,43.187611,408.891 -2.547751,43.187612,408.875 -2.547752,43.187611,409.064 -2.547752,43.187611,409.028 -2.547752,43.187611,409.089 -2.547752,43.187611,409.017 -2.547752,43.187611,409.009 -2.547751,43.187612,409.014 -2.547758,43.187620,408.878 -2.547767,43.187633,408.885 -2.547772,43.187653,408.613 -2.547769,43.187669,408.268 -2.547778,43.187683,407.811 -2.547788,43.187700,407.471 -2.547798,43.187717,407.065 -2.547808,43.187731,406.444 -2.547812,43.187748,406.058 -2.547824,43.187768,405.452 -2.547841,43.187780,405.017 -2.547862,43.187787,405.009 -2.547888,43.187796,405.067 -2.547911,43.187805,405.291 -2.547932,43.187822,405.228 -2.547954,43.187839,405.266 -2.547981,43.187860,405.051 -2.548007,43.187877,404.624 -2.548036,43.187900,404.214 -2.548061,43.187914,403.688 -2.548087,43.187926,403.497 -2.548117,43.187926,403.298 -2.548144,43.187930,403.015 -2.548163,43.187937,402.826 -2.548180,43.187948,402.409 -2.548206,43.187963,402.271 -2.548232,43.187973,401.815 -2.548261,43.187977,401.622 -2.548289,43.187977,401.290 -2.548314,43.187977,400.865 -2.548342,43.187975,400.688 -2.548364,43.187979,400.268 -2.548382,43.187990,400.042 -2.548401,43.187999,399.871 -2.548427,43.188009,399.683 -2.548458,43.188008,399.225 -2.548488,43.188005,398.817 -2.548518,43.187996,398.409 -2.548546,43.187988,398.290 -2.548572,43.187978,398.274 -2.548596,43.187962,398.231 -2.548626,43.187946,398.239 -2.548651,43.187935,398.264 -2.548682,43.187918,398.227 -2.548707,43.187901,398.047 -2.548730,43.187888,398.041 -2.548754,43.187879,398.010 -2.548779,43.187867,398.075 -2.548803,43.187850,398.028 -2.548828,43.187836,398.020 -2.548853,43.187824,398.009 -2.548877,43.187815,398.059 -2.548911,43.187808,398.013 -2.548943,43.187803,398.020 -2.548972,43.187800,398.088 -2.548991,43.187789,398.043 -2.549016,43.187779,398.046 -2.549043,43.187770,398.066 -2.549072,43.187758,397.830 -2.549099,43.187748,397.839 -2.549124,43.187737,397.842 -2.549144,43.187727,397.622 -2.549164,43.187717,397.814 -2.549190,43.187710,398.009 -2.549218,43.187702,398.056 -2.549249,43.187696,398.210 -2.549272,43.187688,398.267 -2.549299,43.187680,398.295 -2.549321,43.187673,398.260 -2.549342,43.187659,398.253 -2.549360,43.187649,398.283 -2.549380,43.187640,398.237 -2.549400,43.187630,398.226 -2.549425,43.187618,398.455 -2.549448,43.187609,398.607 -2.549472,43.187599,398.817 -2.549498,43.187593,398.809 -2.549524,43.187587,398.897 -2.549555,43.187587,398.831 -2.549579,43.187583,398.888 -2.549602,43.187582,399.026 -2.549622,43.187578,399.011 -2.549645,43.187570,399.294 -2.549669,43.187565,399.464 -2.549699,43.187561,399.458 -2.549728,43.187557,399.457 -2.549751,43.187552,399.472 -2.549777,43.187548,399.213 -2.549798,43.187541,399.214 -2.549826,43.187535,399.409 -2.549850,43.187528,399.419 -2.549877,43.187522,399.623 -2.549908,43.187520,399.620 -2.549932,43.187519,399.658 -2.549964,43.187522,399.613 -2.549993,43.187525,399.666 -2.550018,43.187527,399.416 -2.550047,43.187531,399.220 -2.550079,43.187531,398.819 -2.550109,43.187535,398.651 -2.550134,43.187543,398.601 -2.550157,43.187549,398.611 -2.550177,43.187550,398.609 -2.550200,43.187554,398.697 -2.550219,43.187556,398.861 -2.550235,43.187560,398.858 -2.550248,43.187568,398.826 -2.550261,43.187577,398.811 -2.550276,43.187585,398.814 -2.550295,43.187597,399.014 -2.550311,43.187611,399.018 -2.550333,43.187625,399.077 -2.550352,43.187639,399.256 -2.550369,43.187651,399.459 -2.550387,43.187662,399.614 -2.550405,43.187672,400.009 -2.550428,43.187682,400.297 -2.550448,43.187689,400.411 -2.550468,43.187694,400.678 -2.550482,43.187698,400.896 -2.550499,43.187701,401.061 -2.550517,43.187699,401.254 -2.550535,43.187695,401.444 -2.550560,43.187696,401.818 -2.550581,43.187696,402.047 -2.550604,43.187694,402.428 -2.550631,43.187695,402.489 -2.550653,43.187694,402.617 -2.550673,43.187698,402.809 -2.550694,43.187703,402.824 -2.550708,43.187706,403.088 -2.550723,43.187711,403.095 -2.550739,43.187717,403.253 -2.550753,43.187722,403.078 -2.550772,43.187732,403.031 -2.550787,43.187743,403.081 -2.550802,43.187761,402.845 -2.550800,43.187777,402.884 -2.550795,43.187792,402.428 -2.550792,43.187809,402.289 -2.550787,43.187823,401.817 -2.550776,43.187836,401.409 -2.550763,43.187850,400.824 -2.550748,43.187854,400.268 -2.550733,43.187864,399.675 -2.550724,43.187874,399.023 -2.550725,43.187884,398.488 -2.550730,43.187896,397.811 -2.550732,43.187904,397.431 -2.550732,43.187917,397.025 -2.550725,43.187929,396.634 -2.550713,43.187938,396.085 -2.550702,43.187945,395.889 -2.550689,43.187953,394.817 -2.550671,43.187962,394.209 -2.550653,43.187969,393.660 -2.550640,43.187976,393.234 -2.550645,43.187995,392.831 -2.550658,43.188017,392.689 -2.550675,43.188039,392.014 -2.550675,43.188074,391.297 -2.550679,43.188103,390.227 -2.550685,43.188128,389.421 -2.550692,43.188155,389.420 -2.550697,43.188179,389.214 -2.550701,43.188200,389.254 -2.550709,43.188217,389.209 -2.550718,43.188233,389.409 -2.550725,43.188259,389.643 -2.550738,43.188276,389.467 -2.550756,43.188296,389.474 -2.550765,43.188317,389.262 -2.550760,43.188336,389.087 -2.550746,43.188356,388.860 -2.550740,43.188376,388.640 -2.550746,43.188399,388.294 -2.550740,43.188420,388.033 -2.550731,43.188437,387.231 -2.550729,43.188457,386.861 -2.550733,43.188476,386.207 -2.550738,43.188496,385.809 -2.550743,43.188516,385.455 -2.550753,43.188536,385.069 -2.550784,43.188552,384.666 -2.550813,43.188563,384.424 -2.550844,43.188573,384.439 -2.550879,43.188582,384.412 -2.550904,43.188592,384.472 -2.550929,43.188606,384.616 -2.550953,43.188624,384.825 -2.550980,43.188636,384.836 -2.551020,43.188639,384.817 -2.551062,43.188640,384.818 -2.551098,43.188644,384.809 -2.551131,43.188648,384.835 -2.551170,43.188654,384.839 -2.551203,43.188659,384.686 -2.551237,43.188676,384.414 -2.551258,43.188698,384.489 -2.551282,43.188721,384.242 -2.551304,43.188735,384.032 -2.551318,43.188759,384.246 -2.551330,43.188777,384.455 -2.551344,43.188794,384.496 -2.551364,43.188807,385.031 -2.551392,43.188813,385.224 -2.551420,43.188821,385.209 -2.551452,43.188829,385.221 -2.551480,43.188832,385.225 -2.551506,43.188834,385.232 -2.551534,43.188841,385.240 -2.551560,43.188849,385.465 -2.551588,43.188853,385.848 -2.551615,43.188858,386.068 -2.551635,43.188866,386.432 -2.551655,43.188875,386.641 -2.551677,43.188883,386.858 -2.551698,43.188893,387.052 -2.551711,43.188903,387.217 -2.551735,43.188916,387.209 -2.551762,43.188919,387.427 -2.551793,43.188923,387.491 -2.551821,43.188929,387.448 -2.551854,43.188938,387.436 -2.551881,43.188940,387.461 -2.551909,43.188942,387.434 -2.551936,43.188949,387.494 -2.551966,43.188955,387.468 -2.551999,43.188958,387.477 -2.552031,43.188963,387.485 -2.552059,43.188967,387.689 -2.552088,43.188970,387.817 -2.552119,43.188976,388.009 -2.552147,43.188982,388.080 -2.552175,43.188992,388.224 -2.552205,43.188997,388.241 -2.552236,43.189009,388.239 -2.552262,43.189018,388.424 -2.552293,43.189029,388.657 -2.552318,43.189038,388.667 -2.552342,43.189049,388.631 -2.552372,43.189061,388.430 -2.552401,43.189069,388.228 -2.552426,43.189078,388.289 -2.552454,43.189090,388.217 -2.552477,43.189106,388.009 -2.552505,43.189120,388.064 -2.552532,43.189136,388.078 -2.552556,43.189148,387.835 -2.552581,43.189164,387.663 -2.552605,43.189178,387.638 -2.552630,43.189195,387.491 -2.552651,43.189211,387.251 -2.552675,43.189226,386.885 -2.552698,43.189241,386.694 -2.552720,43.189256,386.463 -2.552744,43.189274,386.244 -2.552764,43.189294,386.018 -2.552789,43.189316,385.609 -2.552809,43.189332,385.458 -2.552834,43.189351,385.022 -2.552860,43.189369,384.859 -2.552886,43.189387,384.427 -2.552913,43.189406,384.292 -2.552937,43.189421,383.835 -2.552961,43.189438,383.465 -2.552987,43.189454,383.249 -2.553010,43.189467,383.038 -2.553035,43.189478,382.897 -2.553059,43.189493,382.823 -2.553085,43.189508,382.825 -2.553113,43.189527,382.809 -2.553138,43.189540,382.661 -2.553167,43.189556,382.465 -2.553191,43.189572,382.412 -2.553216,43.189587,382.220 -2.553238,43.189599,381.885 -2.553268,43.189610,381.618 -2.553299,43.189622,381.418 -2.553330,43.189632,381.292 -2.553358,43.189642,380.841 -2.553381,43.189654,380.421 -2.553412,43.189670,380.241 -2.553444,43.189681,379.805 -2.553476,43.189696,379.409 -2.553499,43.189715,379.084 -2.553518,43.189737,379.058 -2.553544,43.189753,378.885 -2.553566,43.189772,378.693 -2.553588,43.189792,378.628 -2.553615,43.189815,378.661 -2.553636,43.189829,378.681 -2.553656,43.189847,378.635 -2.553676,43.189868,378.614 -2.553698,43.189886,378.673 -2.553719,43.189897,378.885 -2.553745,43.189912,379.013 -2.553771,43.189921,379.009 -2.553802,43.189931,379.289 -2.553825,43.189943,379.413 -2.553848,43.189959,379.430 -2.553869,43.189971,379.668 -2.553894,43.189982,379.833 -2.553918,43.189990,380.216 -2.553939,43.190003,380.626 -2.553960,43.190013,380.880 -2.553983,43.190021,381.459 -2.554007,43.190032,381.855 -2.554031,43.190044,382.007 -2.554058,43.190050,382.217 -2.554084,43.190059,382.609 -2.554110,43.190061,382.827 -2.554138,43.190069,383.271 -2.554165,43.190076,383.468 -2.554193,43.190087,383.876 -2.554217,43.190096,384.051 -2.554242,43.190108,384.434 -2.554264,43.190118,384.674 -2.554290,43.190128,384.838 -2.554309,43.190137,385.077 -2.554337,43.190150,385.257 -2.554362,43.190160,385.400 -2.554395,43.190169,385.420 -2.554423,43.190181,385.609 -2.554457,43.190193,385.667 -2.554481,43.190202,385.661 -2.554508,43.190216,385.878 -2.554534,43.190227,386.046 -2.554563,43.190240,386.081 -2.554587,43.190251,386.284 -2.554611,43.190263,386.274 -2.554638,43.190273,386.418 -2.554663,43.190283,386.457 -2.554687,43.190289,386.624 -2.554711,43.190296,387.004 -2.554733,43.190303,387.214 -2.554760,43.190315,387.809 -2.554783,43.190322,388.074 -2.554810,43.190334,388.218 -2.554834,43.190345,388.485 -2.554862,43.190357,388.663 -2.554890,43.190366,388.618 -2.554914,43.190377,388.641 -2.554938,43.190387,388.891 -2.554961,43.190393,388.845 -2.554989,43.190402,389.094 -2.555017,43.190407,389.078 -2.555046,43.190413,389.033 -2.555077,43.190419,388.626 -2.555111,43.190431,388.409 -2.555139,43.190436,388.219 -2.555175,43.190438,388.233 -2.555210,43.190440,388.040 -2.555248,43.190445,387.678 -2.555277,43.190443,387.653 -2.555313,43.190437,387.436 -2.555345,43.190433,387.036 -2.555374,43.190432,386.880 -2.555407,43.190430,386.869 -2.555446,43.190426,386.693 -2.555481,43.190427,386.665 -2.555513,43.190429,386.421 -2.555551,43.190432,386.009 -2.555584,43.190436,385.851 -2.555620,43.190449,385.415 -2.555653,43.190468,385.432 -2.555683,43.190487,385.240 -2.555703,43.190506,385.055 -2.555716,43.190531,385.088 -2.555722,43.190553,384.848 -2.555721,43.190575,384.672 -2.555721,43.190598,384.661 -2.555717,43.190627,384.484 -2.555711,43.190650,384.407 -2.555704,43.190677,384.217 -2.555707,43.190703,384.009 -2.555714,43.190732,383.890 -2.555723,43.190759,383.474 -2.555734,43.190782,383.081 -2.555745,43.190801,382.819 -2.555756,43.190825,382.634 -2.555769,43.190845,382.467 -2.555787,43.190869,382.477 -2.555806,43.190888,382.421 -2.555832,43.190906,382.490 -2.555861,43.190921,382.265 -2.555891,43.190937,382.268 -2.555920,43.190951,382.214 -2.555955,43.190963,382.209 -2.555989,43.190971,382.068 -2.556023,43.190978,381.862 -2.556056,43.190983,381.889 -2.556094,43.190987,381.627 -2.556125,43.190990,381.492 -2.556156,43.190992,381.235 -2.556186,43.190994,381.225 -2.556220,43.190998,381.279 -2.556248,43.191001,381.448 -2.556277,43.191007,381.642 -2.556309,43.191011,381.822 -2.556342,43.191017,381.814 -2.556370,43.191022,381.809 -2.556400,43.191026,382.036 -2.556431,43.191029,382.270 -2.556465,43.191035,382.287 -2.556492,43.191039,382.235 -2.556523,43.191041,382.270 -2.556551,43.191045,382.473 -2.556578,43.191050,382.453 -2.556603,43.191056,382.647 -2.556635,43.191063,383.076 -2.556664,43.191072,383.267 -2.556689,43.191081,383.281 -2.556716,43.191090,383.219 -2.556749,43.191096,383.409 -2.556782,43.191103,383.458 -2.556814,43.191108,383.452 -2.556842,43.191121,383.499 -2.556866,43.191127,383.477 -2.556894,43.191138,383.482 -2.556917,43.191148,383.445 -2.556941,43.191160,383.475 -2.556966,43.191176,383.429 -2.556990,43.191188,383.298 -2.557018,43.191203,382.897 -2.557043,43.191216,382.623 -2.557073,43.191230,382.025 -2.557097,43.191238,381.809 -2.557126,43.191253,381.441 -2.557154,43.191264,381.295 -2.557185,43.191275,381.062 -2.557211,43.191288,380.830 -2.557247,43.191295,380.615 -2.557282,43.191294,380.458 -2.557314,43.191288,380.228 -2.557350,43.191288,380.022 -2.557379,43.191288,379.831 -2.557408,43.191293,379.887 -2.557435,43.191297,379.642 -2.557463,43.191305,379.826 -2.557494,43.191308,380.009 -2.557518,43.191310,380.290 -2.557545,43.191320,380.474 -2.557562,43.191330,380.661 -2.557581,43.191344,380.839 -2.557604,43.191359,380.894 -2.557621,43.191375,380.877 -2.557622,43.191393,380.847 -2.557634,43.191401,381.081 -2.557652,43.191413,381.080 -2.557664,43.191420,381.041 -2.557675,43.191431,381.281 -2.557688,43.191432,381.009 -2.557707,43.191439,381.009 -2.557731,43.191451,380.816 -2.557755,43.191457,380.450 -2.557784,43.191463,380.057 -2.557809,43.191471,379.855 -2.557830,43.191485,379.870 -2.557848,43.191497,379.823 -2.557864,43.191507,380.013 -2.557881,43.191521,380.497 -2.557896,43.191535,380.666 -2.557912,43.191548,380.886 -2.557928,43.191556,381.060 -2.557942,43.191569,381.226 -2.557954,43.191585,381.409 -2.557963,43.191601,381.610 -2.557972,43.191616,381.884 -2.557979,43.191633,382.081 -2.557987,43.191647,382.419 -2.557989,43.191660,382.864 -2.557990,43.191675,383.067 -2.557992,43.191689,383.257 -2.557984,43.191703,383.671 -2.557977,43.191720,383.850 -2.557978,43.191734,384.077 -2.557970,43.191756,384.261 -2.557965,43.191771,384.427 -2.557958,43.191785,384.609 -2.557951,43.191800,385.079 -2.557945,43.191815,385.263 -2.557943,43.191831,385.230 -2.557947,43.191846,385.428 -2.557955,43.191861,385.433 -2.557967,43.191876,385.456 -2.557977,43.191897,385.456 -2.557989,43.191914,385.630 -2.558000,43.191933,385.669 -2.558013,43.191950,385.841 -2.558028,43.191966,386.081 -2.558044,43.191983,386.009 -2.558059,43.191998,386.209 -2.558075,43.192016,386.286 -2.558090,43.192030,386.230 -2.558104,43.192044,386.267 -2.558117,43.192060,386.465 -2.558133,43.192075,386.680 -2.558146,43.192094,386.633 -2.558160,43.192111,386.633 -2.558176,43.192129,386.457 -2.558191,43.192145,386.286 -2.558204,43.192166,386.024 -2.558220,43.192186,385.804 -2.558246,43.192200,385.814 -2.558267,43.192214,385.609 -2.558286,43.192225,385.634 -2.558309,43.192243,385.438 -2.558328,43.192260,385.425 -2.558344,43.192275,385.453 -2.558361,43.192288,385.438 -2.558381,43.192304,385.291 -2.558403,43.192320,385.241 -2.558425,43.192337,385.245 -2.558448,43.192353,385.084 -2.558467,43.192365,385.026 -2.558487,43.192383,385.047 -2.558507,43.192399,385.011 -2.558528,43.192416,384.809 -2.558548,43.192432,384.834 -2.558567,43.192448,384.468 -2.558588,43.192466,384.255 -2.558606,43.192484,383.853 -2.558627,43.192507,383.698 -2.558647,43.192526,383.421 -2.558668,43.192545,383.431 -2.558686,43.192558,383.485 -2.558707,43.192574,383.644 -2.558725,43.192587,383.832 -2.558745,43.192599,384.292 -2.558764,43.192612,384.411 -2.558781,43.192622,384.609 -2.558800,43.192633,384.885 -2.558820,43.192642,385.019 -2.558835,43.192651,385.296 -2.558854,43.192657,385.464 -2.558873,43.192662,385.899 -2.558895,43.192671,386.212 -2.558912,43.192679,386.642 -2.558933,43.192691,387.026 -2.558953,43.192699,387.235 -2.558973,43.192709,387.492 -2.558991,43.192720,387.673 -2.559007,43.192728,387.820 -2.559023,43.192736,388.009 -2.559038,43.192743,388.451 -2.559057,43.192754,388.675 -2.559075,43.192765,388.862 -2.559089,43.192776,389.030 -2.559105,43.192787,389.425 -2.559123,43.192797,389.688 -2.559141,43.192808,389.658 -2.559158,43.192820,389.832 -2.559177,43.192833,390.031 -2.559194,43.192843,390.219 -2.559193,43.192837,390.209 -2.559195,43.192835,390.419 -2.559197,43.192834,390.409 -2.559196,43.192835,390.443 -2.559196,43.192835,390.237 -2.559196,43.192835,390.014 -2.559196,43.192835,390.052 -2.559196,43.192835,389.897 -2.559197,43.192834,389.880 -2.559209,43.192843,389.810 -2.559218,43.192850,389.854 -2.559227,43.192858,389.813 -2.559242,43.192869,390.043 -2.559258,43.192882,390.264 -2.559272,43.192887,390.410 -2.559290,43.192897,390.609 -2.559308,43.192908,391.086 -2.559322,43.192911,391.260 -2.559338,43.192920,391.497 -2.559355,43.192929,391.455 -2.559369,43.192936,391.420 -2.559386,43.192945,391.493 -2.559403,43.192952,391.493 -2.559421,43.192961,391.617 -2.559437,43.192969,391.876 -2.559455,43.192980,392.032 -2.559472,43.192993,392.292 -2.559485,43.193004,392.411 -2.559501,43.193015,392.609 -2.559514,43.193024,392.825 -2.559529,43.193038,392.849 -2.559544,43.193047,393.016 -2.559561,43.193059,393.054 -2.559578,43.193067,393.099 -2.559592,43.193073,393.282 -2.559610,43.193082,393.412 -2.559625,43.193094,393.856 -2.559641,43.193104,394.075 -2.559666,43.193111,394.225 -2.559687,43.193116,394.426 -2.559712,43.193124,394.408 -2.559731,43.193128,394.409 -2.559751,43.193133,394.424 -2.559772,43.193137,394.498 -2.559790,43.193140,394.475 -2.559813,43.193144,394.433 -2.559833,43.193149,394.458 -2.559856,43.193151,394.691 -2.559877,43.193155,394.631 -2.559899,43.193158,394.655 -2.559921,43.193164,394.884 -2.559937,43.193169,395.083 -2.559954,43.193174,395.225 -2.559974,43.193179,395.417 -2.559992,43.193183,395.609 -2.560010,43.193186,395.870 -2.560026,43.193189,395.824 -2.560039,43.193193,396.071 -2.560053,43.193199,396.289 -2.560066,43.193207,396.634 -2.560083,43.193215,397.047 -2.560098,43.193226,397.297 -2.560115,43.193236,397.481 -2.560133,43.193245,397.430 -2.560151,43.193256,397.659 -2.560165,43.193268,397.803 -2.560181,43.193280,398.023 -2.560195,43.193290,398.209 -2.560206,43.193299,398.457 -2.560221,43.193312,398.661 -2.560235,43.193322,398.688 -2.560247,43.193334,398.896 -2.560261,43.193345,398.881 -2.560274,43.193355,399.074 -2.560290,43.193367,399.254 -2.560308,43.193374,399.478 -2.560324,43.193386,399.697 -2.560337,43.193396,400.056 -2.560353,43.193406,400.259 -2.560374,43.193414,400.414 -2.560390,43.193424,400.609 -2.560409,43.193434,401.057 -2.560422,43.193439,401.491 -2.560439,43.193445,401.688 -2.560457,43.193453,402.016 -2.560467,43.193455,402.281 -2.560488,43.193460,402.464 -2.560508,43.193465,402.884 -2.560528,43.193470,402.848 -2.560547,43.193476,403.097 -2.560562,43.193480,403.287 -2.560581,43.193483,403.442 -2.560598,43.193488,403.626 -2.560615,43.193491,403.809 -2.560639,43.193496,404.420 -2.560657,43.193502,404.614 -2.560676,43.193505,404.851 -2.560697,43.193506,404.889 -2.560715,43.193508,405.094 -2.560739,43.193512,405.297 -2.560759,43.193515,405.637 -2.560780,43.193519,406.281 -2.560802,43.193523,406.490 -2.560827,43.193525,406.858 -2.560851,43.193530,407.052 -2.560870,43.193534,407.417 -2.560891,43.193536,407.809 -2.560911,43.193542,408.277 -2.560931,43.193546,408.821 -2.560952,43.193555,409.298 -2.560970,43.193559,409.666 -2.560997,43.193566,409.871 -2.561016,43.193573,410.024 -2.561031,43.193579,410.214 -2.561048,43.193589,410.458 -2.561062,43.193597,410.627 -2.561086,43.193610,410.694 -2.561104,43.193617,410.657 -2.561120,43.193625,410.822 -2.561136,43.193638,410.809 -2.561155,43.193650,411.041 -2.561174,43.193664,411.285 -2.561190,43.193678,411.452 -2.561209,43.193691,411.460 -2.561226,43.193702,411.475 -2.561244,43.193713,411.618 -2.561259,43.193724,411.648 -2.561275,43.193734,411.812 -2.561292,43.193746,412.091 -2.561309,43.193758,412.264 -2.561328,43.193770,412.406 -2.561350,43.193781,412.616 -2.561366,43.193790,412.809 -2.561387,43.193799,412.878 -2.561406,43.193809,413.052 -2.561428,43.193820,413.059 -2.561451,43.193831,413.087 -2.561476,43.193840,413.272 -2.561502,43.193850,413.495 -2.561527,43.193856,413.685 -2.561552,43.193863,413.639 -2.561573,43.193868,413.828 -2.561599,43.193877,414.021 -2.561623,43.193883,414.041 -2.561647,43.193891,414.205 -2.561669,43.193899,414.409 -2.561699,43.193901,414.644 -2.561735,43.193902,414.828 -2.561766,43.193904,415.015 -2.561803,43.193911,415.053 -2.561837,43.193915,415.098 -2.561871,43.193915,415.081 -2.561896,43.193916,415.041 -2.561924,43.193922,415.055 -2.561953,43.193932,415.074 -2.561979,43.193943,415.051 -2.561998,43.193959,415.001 -2.562021,43.193980,414.811 -2.562043,43.193997,414.809 -2.562056,43.194017,414.817 -2.562061,43.194034,415.031 -2.562068,43.194057,415.478 -2.562078,43.194080,415.486 -2.562088,43.194104,415.461 -2.562091,43.194127,415.214 -2.562100,43.194148,415.044 -2.562110,43.194172,414.818 -2.562121,43.194194,414.657 -2.562130,43.194220,414.274 -2.562137,43.194243,414.056 -2.562145,43.194265,413.821 -2.562156,43.194288,413.409 -2.562166,43.194311,413.419 -2.562178,43.194334,413.263 -2.562190,43.194357,413.090 -2.562204,43.194384,412.898 -2.562220,43.194407,412.693 -2.562237,43.194433,412.456 -2.562250,43.194454,412.226 -2.562265,43.194477,412.050 -2.562284,43.194497,411.849 -2.562307,43.194518,411.668 -2.562330,43.194539,411.642 -2.562352,43.194564,411.426 -2.562371,43.194585,411.409 -2.562388,43.194610,411.428 -2.562408,43.194632,411.472 -2.562429,43.194654,411.659 -2.562450,43.194673,411.437 -2.562476,43.194696,411.422 -2.562496,43.194716,411.495 -2.562519,43.194737,411.275 -2.562542,43.194754,411.039 -2.562566,43.194778,411.048 -2.562588,43.194797,410.879 -2.562613,43.194817,410.805 -2.562638,43.194837,410.825 -2.562663,43.194858,410.809 -2.562688,43.194882,410.839 -2.562709,43.194897,410.853 -2.562740,43.194913,410.890 -2.562763,43.194932,411.088 -2.562782,43.194950,411.093 -2.562805,43.194975,410.816 -2.562825,43.194997,411.046 -2.562845,43.195014,411.060 -2.562860,43.195030,411.039 -2.562870,43.195052,411.029 -2.562879,43.195073,411.000 -2.562890,43.195083,410.820</coordinates>
</LineString>
</Placemark>
</Document>
</kml>
