<?xml version="1.0" encoding="UTF-8"?>
<kml xmlns="http://www.opengis.net/kml/2.2">
<Document>
<name>Trabakua, paseo por el barrio Goita</name>
<Style id="track">
<LineStyle><color>ff2fe0f5</color><width>4</width></LineStyle>
</Style>
<Placemark>
<name>Trabakua, paseo por el barrio Goita</name>
<styleUrl>#track</styleUrl>
<LineString>
<tessellate>1</tessellate>
<altitudeMode>clampToGround</altitudeMode>
<coordinates>-2.550162,43.209148,404.2 -2.550168,43.209164,404.4 -2.550156,43.209172,404.6 -2.550134,43.209188,404.6 -2.550114,43.209190,404.7 -2.550099,43.209195,404.8 -2.550084,43.209198,404.6 -2.550071,43.209207,404.4 -2.550050,43.209216,404.4 -2.550030,43.209223,404.5 -2.550016,43.209231,404.3 -2.550002,43.209239,403.9 -2.549983,43.209251,403.7 -2.549973,43.209260,403.6 -2.549959,43.209270,403.6 -2.549941,43.209278,403.6 -2.549921,43.209283,403.8 -2.549904,43.209289,404.0 -2.549883,43.209294,404.1 -2.549862,43.209299,404.1 -2.549843,43.209305,403.9 -2.549826,43.209308,403.7 -2.549805,43.209311,403.7 -2.549785,43.209314,403.5 -2.549767,43.209320,403.5 -2.549749,43.209326,403.4 -2.549732,43.209333,403.3 -2.549714,43.209340,403.0 -2.549696,43.209348,403.0 -2.549681,43.209356,402.8 -2.549666,43.209366,402.8 -2.549648,43.209377,402.9 -2.549632,43.209384,402.8 -2.549614,43.209392,402.9 -2.549600,43.209403,402.8 -2.549583,43.209409,402.8 -2.549570,43.209416,402.8 -2.549554,43.209428,402.6 -2.549530,43.209434,402.6 -2.549512,43.209441,402.4 -2.549493,43.209448,402.2 -2.549471,43.209454,402.0 -2.549448,43.209457,401.8 -2.549433,43.209462,401.9 -2.549418,43.209465,401.9 -2.549400,43.209470,402.0 -2.549383,43.209474,402.3 -2.549365,43.209478,402.4 -2.549345,43.209478,402.4 -2.549326,43.209482,402.5 -2.549306,43.209486,402.4 -2.549287,43.209487,402.4 -2.549265,43.209493,402.4 -2.549252,43.209495,402.4 -2.549235,43.209496,402.2 -2.549217,43.209498,402.0 -2.549199,43.209499,401.9 -2.549178,43.209499,401.6 -2.549155,43.209501,401.7 -2.549135,43.209503,401.8 -2.549115,43.209504,401.8 -2.549095,43.209506,401.8 -2.549076,43.209507,402.1 -2.549059,43.209508,401.9 -2.549042,43.209508,401.9 -2.549026,43.209507,401.9 -2.549008,43.209507,401.9 -2.548991,43.209506,401.6 -2.548971,43.209505,401.6 -2.548951,43.209506,401.6 -2.548929,43.209507,401.8 -2.548910,43.209506,401.9 -2.548892,43.209504,401.8 -2.548876,43.209502,401.8 -2.548859,43.209501,402.1 -2.548841,43.209501,402.1 -2.548822,43.209499,402.0 -2.548805,43.209498,402.1 -2.548788,43.209496,402.1 -2.548775,43.209496,402.2 -2.548757,43.209493,402.4 -2.548740,43.209489,402.8 -2.548721,43.209488,402.8 -2.548701,43.209487,403.2 -2.548682,43.209482,403.2 -2.548664,43.209479,403.1 -2.548647,43.209477,402.8 -2.548636,43.209478,402.5 -2.548604,43.209472,402.4 -2.548589,43.209464,402.9 -2.548570,43.209461,403.1 -2.548547,43.209456,403.4 -2.548530,43.209453,403.6 -2.548513,43.209450,403.8 -2.548495,43.209446,404.0 -2.548472,43.209439,404.1 -2.548453,43.209435,404.1 -2.548433,43.209430,404.2 -2.548418,43.209428,404.2 -2.548400,43.209426,404.2 -2.548380,43.209421,404.2 -2.548364,43.209416,404.4 -2.548346,43.209415,404.4 -2.548328,43.209410,404.6 -2.548310,43.209404,404.6 -2.548290,43.209398,404.7 -2.548272,43.209394,404.6 -2.548250,43.209388,404.8 -2.548233,43.209384,404.6 -2.548219,43.209383,404.4 -2.548202,43.209382,404.1 -2.548183,43.209379,403.9 -2.548165,43.209382,403.6 -2.548149,43.209380,403.7 -2.548130,43.209374,404.0 -2.548111,43.209368,404.7 -2.548092,43.209363,405.2 -2.548072,43.209360,405.5 -2.548053,43.209357,405.7 -2.548031,43.209354,405.8 -2.548010,43.209352,405.8 -2.547992,43.209350,406.1 -2.547975,43.209344,406.0 -2.547954,43.209328,406.2 -2.547940,43.209322,406.1 -2.547921,43.209316,405.6 -2.547905,43.209309,405.7 -2.547887,43.209302,405.9 -2.547876,43.209293,405.8 -2.547863,43.209280,405.9 -2.547863,43.209273,407.0 -2.547865,43.209270,407.2 -2.547870,43.209273,407.0 -2.547873,43.209277,407.0 -2.547877,43.209275,406.9 -2.547878,43.209273,406.8 -2.547879,43.209284,407.1 -2.547879,43.209284,407.2 -2.547879,43.209284,407.5 -2.547881,43.209293,407.4 -2.547869,43.209302,407.4 -2.547860,43.209309,407.5 -2.547852,43.209320,407.4 -2.547827,43.209325,407.4 -2.547796,43.209326,407.5 -2.547773,43.209329,407.4 -2.547745,43.209330,407.4 -2.547721,43.209329,407.6 -2.547701,43.209326,407.6 -2.547685,43.209321,407.7 -2.547670,43.209321,407.7 -2.547646,43.209323,407.7 -2.547625,43.209321,407.9 -2.547606,43.209319,407.8 -2.547583,43.209318,407.8 -2.547561,43.209317,407.7 -2.547544,43.209318,407.7 -2.547521,43.209319,407.6 -2.547496,43.209313,407.4 -2.547477,43.209306,407.4 -2.547457,43.209299,407.5 -2.547433,43.209295,407.3 -2.547417,43.209285,407.4 -2.547403,43.209277,407.5 -2.547384,43.209272,407.4 -2.547364,43.209260,407.6 -2.547349,43.209245,407.7 -2.547334,43.209238,407.8 -2.547325,43.209233,407.8 -2.547310,43.209229,407.9 -2.547292,43.209230,408.0 -2.547279,43.209234,408.2 -2.547262,43.209238,408.4 -2.547247,43.209244,408.4 -2.547233,43.209252,408.5 -2.547213,43.209255,408.3 -2.547194,43.209261,408.3 -2.547173,43.209268,408.3 -2.547152,43.209272,408.5 -2.547130,43.209276,408.5 -2.547106,43.209275,408.4 -2.547086,43.209268,408.2 -2.547068,43.209266,408.0 -2.547052,43.209267,408.0 -2.547032,43.209258,408.0 -2.547016,43.209249,408.0 -2.546999,43.209240,408.3 -2.546984,43.209233,408.4 -2.546966,43.209223,408.7 -2.546949,43.209218,408.6 -2.546931,43.209216,408.6 -2.546911,43.209210,408.4 -2.546893,43.209203,408.3 -2.546874,43.209200,408.1 -2.546859,43.209198,407.6 -2.546845,43.209195,407.2 -2.546830,43.209192,407.0 -2.546816,43.209195,406.8 -2.546798,43.209200,407.0 -2.546781,43.209206,407.0 -2.546764,43.209211,407.5 -2.546743,43.209215,407.4 -2.546719,43.209220,407.4 -2.546698,43.209222,407.6 -2.546669,43.209224,407.6 -2.546643,43.209222,407.6 -2.546630,43.209221,407.8 -2.546615,43.209220,408.1 -2.546605,43.209221,408.3 -2.546604,43.209224,408.5 -2.546608,43.209225,408.6 -2.546610,43.209225,408.6 -2.546613,43.209225,408.7 -2.546617,43.209225,408.7 -2.546610,43.209225,408.7 -2.546610,43.209225,408.7 -2.546622,43.209221,408.6 -2.546637,43.209220,408.6 -2.546652,43.209220,408.5 -2.546673,43.209220,408.5 -2.546692,43.209223,408.2 -2.546675,43.209228,408.0 -2.546656,43.209231,407.9 -2.546643,43.209233,408.0 -2.546629,43.209242,408.0 -2.546624,43.209250,408.3 -2.546636,43.209249,408.5 -2.546649,43.209245,408.4 -2.546657,43.209241,408.4 -2.546657,43.209237,408.3 -2.546656,43.209234,408.2 -2.546655,43.209233,408.3 -2.546655,43.209233,408.1 -2.546651,43.209234,408.1 -2.546639,43.209234,408.0 -2.546655,43.209233,408.1 -2.546641,43.209233,408.0 -2.546661,43.209233,408.2 -2.546674,43.209227,408.2 -2.546678,43.209217,408.3 -2.546672,43.209205,408.1 -2.546663,43.209195,407.8 -2.546656,43.209185,407.4 -2.546648,43.209176,407.1 -2.546641,43.209168,407.0 -2.546637,43.209165,406.9 -2.546639,43.209163,406.8 -2.546638,43.209164,406.9 -2.546638,43.209164,406.8 -2.546638,43.209164,406.8 -2.546638,43.209164,406.8 -2.546638,43.209164,406.9 -2.546638,43.209164,406.8 -2.546638,43.209164,406.9 -2.546638,43.209164,406.8 -2.546637,43.209161,406.7 -2.546626,43.209154,406.5 -2.546612,43.209147,406.3 -2.546599,43.209139,406.1 -2.546589,43.209132,405.9 -2.546577,43.209124,405.7 -2.546565,43.209114,405.6 -2.546553,43.209106,405.8 -2.546539,43.209097,405.8 -2.546526,43.209093,405.6 -2.546514,43.209087,405.7 -2.546501,43.209080,405.7 -2.546487,43.209072,405.5 -2.546473,43.209066,405.5 -2.546457,43.209058,405.2 -2.546440,43.209050,405.2 -2.546421,43.209040,405.1 -2.546406,43.209032,404.9 -2.546388,43.209023,404.7 -2.546368,43.209016,404.4 -2.546349,43.209010,404.4 -2.546332,43.209002,404.2 -2.546314,43.208995,404.2 -2.546289,43.208985,404.5 -2.546270,43.208978,404.6 -2.546254,43.208974,404.8 -2.546240,43.208966,405.3 -2.546222,43.208960,405.5 -2.546200,43.208954,405.8 -2.546183,43.208946,405.7 -2.546162,43.208939,405.2 -2.546146,43.208928,404.8 -2.546129,43.208916,404.6 -2.546114,43.208908,404.4 -2.546096,43.208902,404.2 -2.546080,43.208893,404.0 -2.546064,43.208886,404.1 -2.546048,43.208879,404.1 -2.546032,43.208871,404.1 -2.546015,43.208863,404.0 -2.546000,43.208857,403.8 -2.545984,43.208848,403.6 -2.545966,43.208835,403.4 -2.545949,43.208826,403.2 -2.545930,43.208816,403.1 -2.545910,43.208806,402.9 -2.545897,43.208802,402.6 -2.545880,43.208795,402.4 -2.545862,43.208780,402.3 -2.545846,43.208774,402.1 -2.545834,43.208769,402.0 -2.545818,43.208761,401.8 -2.545803,43.208754,401.8 -2.545788,43.208744,401.7 -2.545772,43.208736,401.6 -2.545756,43.208728,401.6 -2.545739,43.208718,401.6 -2.545723,43.208710,401.6 -2.545706,43.208702,401.6 -2.545690,43.208695,401.6 -2.545674,43.208689,401.4 -2.545659,43.208680,401.3 -2.545653,43.208670,401.3 -2.545650,43.208667,401.1 -2.545648,43.208666,401.1 -2.545648,43.208667,401.0 -2.545648,43.208668,400.9 -2.545648,43.208668,400.9 -2.545636,43.208664,400.5 -2.545623,43.208658,400.2 -2.545609,43.208654,400.0 -2.545597,43.208648,399.8 -2.545582,43.208644,399.6 -2.545568,43.208638,399.4 -2.545554,43.208629,399.5 -2.545541,43.208619,399.2 -2.545527,43.208610,399.3 -2.545509,43.208601,399.2 -2.545494,43.208594,399.1 -2.545479,43.208587,399.0 -2.545462,43.208579,399.1 -2.545447,43.208573,399.3 -2.545432,43.208567,399.2 -2.545417,43.208560,399.2 -2.545399,43.208553,399.3 -2.545381,43.208548,399.0 -2.545364,43.208539,399.0 -2.545345,43.208533,399.1 -2.545327,43.208529,399.0 -2.545307,43.208523,399.3 -2.545281,43.208516,399.4 -2.545260,43.208515,399.6 -2.545240,43.208509,399.6 -2.545218,43.208502,399.4 -2.545196,43.208496,399.2 -2.545175,43.208491,399.1 -2.545154,43.208483,398.8 -2.545135,43.208476,398.6 -2.545112,43.208470,398.2 -2.545092,43.208465,397.8 -2.545072,43.208460,397.3 -2.545051,43.208465,396.9 -2.545028,43.208468,396.5 -2.545008,43.208466,396.3 -2.544987,43.208462,396.3 -2.544963,43.208457,396.2 -2.544944,43.208454,396.1 -2.544927,43.208450,395.7 -2.544907,43.208448,395.4 -2.544882,43.208445,395.1 -2.544860,43.208449,394.7 -2.544842,43.208446,394.2 -2.544821,43.208446,393.8 -2.544797,43.208442,393.4 -2.544779,43.208439,393.0 -2.544758,43.208437,392.6 -2.544739,43.208434,392.3 -2.544722,43.208430,392.0 -2.544703,43.208425,391.9 -2.544686,43.208421,391.4 -2.544668,43.208417,391.3 -2.544652,43.208414,391.1 -2.544635,43.208411,390.9 -2.544616,43.208406,390.7 -2.544598,43.208400,390.4 -2.544582,43.208393,390.2 -2.544567,43.208388,390.1 -2.544550,43.208384,389.9 -2.544534,43.208378,389.9 -2.544516,43.208372,389.7 -2.544498,43.208364,389.5 -2.544480,43.208357,389.2 -2.544464,43.208351,389.1 -2.544449,43.208345,389.1 -2.544432,43.208336,388.8 -2.544416,43.208327,388.8 -2.544404,43.208319,388.6 -2.544386,43.208312,388.4 -2.544369,43.208305,388.2 -2.544352,43.208300,388.2 -2.544334,43.208293,388.0 -2.544317,43.208286,388.1 -2.544303,43.208280,387.8 -2.544288,43.208272,387.7 -2.544274,43.208264,387.6 -2.544255,43.208254,387.3 -2.544236,43.208247,387.1 -2.544220,43.208239,386.9 -2.544204,43.208230,386.9 -2.544186,43.208221,386.6 -2.544168,43.208213,386.4 -2.544151,43.208205,386.2 -2.544135,43.208197,386.3 -2.544121,43.208188,386.1 -2.544107,43.208177,385.8 -2.544093,43.208167,385.7 -2.544080,43.208159,385.5 -2.544066,43.208152,385.3 -2.544054,43.208142,385.0 -2.544042,43.208134,384.8 -2.544029,43.208124,384.6 -2.544018,43.208114,384.5 -2.544004,43.208103,384.2 -2.543993,43.208091,384.0 -2.543981,43.208079,383.8 -2.543970,43.208067,383.5 -2.543959,43.208054,383.5 -2.543948,43.208042,383.3 -2.543933,43.208030,383.1 -2.543921,43.208019,382.9 -2.543914,43.208007,382.6 -2.543905,43.207995,382.5 -2.543893,43.207984,382.4 -2.543879,43.207973,382.2 -2.543867,43.207963,382.0 -2.543855,43.207956,381.9 -2.543843,43.207944,381.8 -2.543836,43.207932,382.0 -2.543831,43.207921,382.2 -2.543823,43.207913,382.2 -2.543812,43.207903,382.3 -2.543803,43.207889,382.1 -2.543791,43.207876,381.9 -2.543775,43.207861,381.5 -2.543764,43.207847,381.2 -2.543751,43.207831,380.8 -2.543740,43.207816,380.7 -2.543727,43.207800,380.3 -2.543719,43.207791,379.9 -2.543708,43.207778,379.6 -2.543699,43.207767,379.4 -2.543692,43.207755,379.3 -2.543680,43.207740,379.2 -2.543668,43.207725,379.1 -2.543655,43.207710,378.8 -2.543639,43.207695,378.7 -2.543623,43.207682,378.6 -2.543609,43.207670,378.5 -2.543598,43.207657,378.3 -2.543586,43.207645,378.2 -2.543573,43.207633,378.1 -2.543558,43.207625,377.8 -2.543545,43.207614,377.6 -2.543530,43.207602,377.4 -2.543520,43.207592,377.0 -2.543510,43.207584,376.8 -2.543494,43.207576,376.9 -2.543480,43.207571,376.6 -2.543461,43.207561,376.3 -2.543443,43.207549,376.0 -2.543434,43.207534,375.6 -2.543422,43.207518,375.5 -2.543405,43.207507,375.2 -2.543393,43.207494,375.1 -2.543382,43.207482,374.9 -2.543374,43.207467,374.8 -2.543363,43.207456,374.8 -2.543348,43.207444,374.9 -2.543334,43.207431,374.9 -2.543319,43.207418,374.8 -2.543305,43.207405,374.9 -2.543294,43.207392,374.7 -2.543275,43.207383,374.4 -2.543255,43.207379,374.3 -2.543239,43.207379,373.8 -2.543223,43.207379,373.6 -2.543207,43.207379,373.4 -2.543194,43.207380,373.3 -2.543190,43.207382,373.0 -2.543189,43.207382,373.0 -2.543189,43.207380,373.0 -2.543193,43.207366,373.1 -2.543194,43.207350,373.3 -2.543194,43.207334,373.5 -2.543192,43.207321,374.3 -2.543187,43.207307,374.9 -2.543187,43.207289,375.0 -2.543189,43.207273,375.0 -2.543191,43.207254,374.8 -2.543195,43.207237,374.3 -2.543191,43.207221,373.8 -2.543189,43.207208,373.8 -2.543179,43.207192,373.8 -2.543167,43.207180,373.8 -2.543155,43.207171,373.7 -2.543139,43.207165,373.4 -2.543124,43.207156,373.2 -2.543110,43.207146,372.9 -2.543091,43.207136,372.4 -2.543076,43.207128,372.2 -2.543057,43.207121,371.8 -2.543039,43.207114,371.7 -2.543019,43.207102,371.7 -2.543002,43.207095,371.5 -2.542987,43.207086,371.4 -2.542970,43.207075,371.4 -2.542955,43.207067,371.3 -2.542936,43.207063,371.1 -2.542914,43.207061,370.9 -2.542896,43.207064,370.7 -2.542882,43.207067,370.5 -2.542867,43.207070,370.5 -2.542850,43.207072,370.5 -2.542832,43.207076,370.4 -2.542818,43.207075,370.5 -2.542812,43.207074,370.5 -2.542809,43.207075,370.6 -2.542794,43.207073,371.0 -2.542779,43.207064,371.2 -2.542769,43.207057,371.5 -2.542756,43.207052,371.5 -2.542742,43.207045,371.5 -2.542733,43.207040,371.2 -2.542731,43.207038,371.0 -2.542731,43.207038,370.9 -2.542731,43.207038,370.7 -2.542731,43.207038,370.5 -2.542731,43.207038,370.4 -2.542730,43.207040,370.4 -2.542718,43.207041,370.4 -2.542713,43.207039,370.4 -2.542700,43.207039,370.2 -2.542689,43.207038,370.3 -2.542673,43.207034,370.2 -2.542653,43.207028,370.2 -2.542634,43.207019,370.1 -2.542616,43.207009,370.0 -2.542601,43.206998,369.8 -2.542586,43.206988,369.9 -2.542569,43.206980,369.9 -2.542555,43.206970,369.8 -2.542540,43.206962,370.0 -2.542528,43.206954,370.2 -2.542516,43.206947,370.6 -2.542503,43.206941,371.0 -2.542490,43.206935,371.3 -2.542486,43.206929,371.7 -2.542487,43.206929,371.7 -2.542490,43.206930,371.5 -2.542490,43.206936,371.5 -2.542490,43.206939,371.3 -2.542494,43.206937,371.2 -2.542489,43.206936,371.2 -2.542474,43.206927,371.2 -2.542456,43.206923,371.3 -2.542444,43.206918,371.4 -2.542426,43.206905,371.4 -2.542408,43.206896,371.6 -2.542390,43.206887,371.9 -2.542375,43.206879,372.3 -2.542358,43.206869,372.5 -2.542341,43.206859,372.4 -2.542324,43.206849,372.4 -2.542307,43.206843,372.3 -2.542288,43.206832,371.8 -2.542272,43.206824,371.7 -2.542253,43.206816,371.4 -2.542234,43.206807,371.4 -2.542215,43.206801,371.4 -2.542199,43.206793,371.4 -2.542181,43.206786,371.6 -2.542167,43.206778,371.6 -2.542152,43.206774,371.6 -2.542130,43.206773,371.7 -2.542118,43.206769,371.4 -2.542096,43.206763,371.4 -2.542079,43.206759,371.2 -2.542061,43.206753,371.0 -2.542044,43.206748,371.1 -2.542024,43.206744,370.8 -2.542004,43.206739,370.7 -2.541987,43.206730,370.7 -2.541969,43.206719,370.6 -2.541949,43.206711,370.8 -2.541928,43.206705,370.9 -2.541901,43.206698,370.8 -2.541880,43.206692,371.1 -2.541861,43.206683,371.1 -2.541847,43.206673,370.9 -2.541835,43.206664,370.7 -2.541821,43.206655,370.4 -2.541804,43.206645,370.2 -2.541788,43.206634,370.0 -2.541775,43.206624,369.9 -2.541762,43.206609,369.6 -2.541750,43.206597,369.4 -2.541736,43.206583,369.2 -2.541720,43.206569,369.1 -2.541702,43.206555,368.9 -2.541686,43.206541,368.7 -2.541672,43.206528,368.4 -2.541656,43.206518,368.1 -2.541639,43.206507,367.7 -2.541622,43.206496,367.5 -2.541608,43.206484,367.0 -2.541592,43.206474,366.9 -2.541574,43.206464,366.5 -2.541560,43.206454,366.2 -2.541544,43.206445,366.0 -2.541530,43.206433,366.0 -2.541512,43.206420,366.0 -2.541496,43.206411,366.1 -2.541480,43.206400,366.1 -2.541464,43.206394,366.1 -2.541452,43.206390,365.9 -2.541439,43.206382,365.6 -2.541426,43.206369,365.5 -2.541411,43.206357,365.2 -2.541390,43.206343,365.1 -2.541370,43.206331,364.9 -2.541353,43.206320,364.4 -2.541333,43.206309,364.0 -2.541322,43.206297,363.8 -2.541306,43.206288,363.5 -2.541289,43.206280,363.0 -2.541273,43.206270,362.9 -2.541254,43.206259,362.4 -2.541234,43.206247,362.1 -2.541216,43.206236,361.6 -2.541199,43.206225,361.5 -2.541183,43.206213,361.1 -2.541168,43.206200,361.1 -2.541154,43.206189,360.9 -2.541142,43.206178,360.7 -2.541129,43.206167,360.4 -2.541112,43.206159,360.0 -2.541096,43.206148,359.7 -2.541078,43.206140,359.4 -2.541060,43.206131,359.0 -2.541040,43.206124,358.6 -2.541020,43.206114,358.3 -2.541004,43.206106,358.1 -2.540987,43.206096,357.9 -2.540967,43.206085,357.6 -2.540954,43.206072,357.4 -2.540938,43.206059,357.0 -2.540915,43.206049,356.7 -2.540900,43.206040,356.0 -2.540884,43.206029,355.6 -2.540865,43.206025,355.5 -2.540843,43.206019,355.2 -2.540822,43.206013,355.3 -2.540803,43.206006,355.2 -2.540786,43.205999,355.3 -2.540766,43.205991,355.3 -2.540745,43.205982,355.3 -2.540729,43.205973,354.8 -2.540709,43.205964,354.7 -2.540690,43.205954,354.5 -2.540671,43.205945,354.3 -2.540652,43.205936,354.0 -2.540636,43.205927,354.0 -2.540620,43.205917,354.1 -2.540603,43.205911,354.1 -2.540584,43.205905,354.0 -2.540567,43.205897,354.1 -2.540548,43.205888,353.8 -2.540536,43.205880,353.8 -2.540522,43.205873,353.7 -2.540503,43.205865,353.6 -2.540487,43.205857,353.6 -2.540473,43.205847,353.6 -2.540458,43.205836,353.7 -2.540439,43.205827,353.6 -2.540422,43.205820,353.4 -2.540405,43.205813,353.5 -2.540391,43.205809,353.2 -2.540378,43.205807,353.3 -2.540376,43.205810,353.3 -2.540376,43.205810,353.2 -2.540378,43.205810,353.2 -2.540378,43.205811,353.3 -2.540382,43.205813,353.2 -2.540387,43.205812,353.4 -2.540391,43.205811,353.7 -2.540389,43.205810,353.8 -2.540384,43.205808,353.8 -2.540382,43.205808,353.8 -2.540379,43.205807,353.6 -2.540373,43.205809,353.2 -2.540375,43.205809,353.0 -2.540376,43.205808,352.9 -2.540359,43.205797,352.8 -2.540341,43.205786,352.9 -2.540326,43.205777,352.9 -2.540308,43.205766,353.0 -2.540285,43.205758,353.0 -2.540265,43.205751,352.9 -2.540247,43.205741,352.9 -2.540230,43.205733,352.6 -2.540210,43.205726,352.6 -2.540192,43.205717,352.9 -2.540176,43.205707,352.9 -2.540165,43.205695,352.8 -2.540152,43.205683,352.9 -2.540141,43.205673,352.6 -2.540158,43.205676,352.5 -2.540169,43.205682,352.0 -2.540179,43.205689,351.9 -2.540184,43.205697,351.7 -2.540187,43.205701,351.5 -2.540189,43.205704,351.4 -2.540186,43.205704,351.4 -2.540184,43.205705,351.4 -2.540183,43.205704,351.3 -2.540183,43.205704,351.2 -2.540178,43.205701,351.2 -2.540164,43.205691,351.4 -2.540149,43.205682,351.9 -2.540133,43.205667,352.2 -2.540118,43.205657,352.7 -2.540100,43.205640,352.8 -2.540086,43.205627,353.3 -2.540075,43.205614,353.2 -2.540059,43.205599,353.4 -2.540041,43.205582,353.4 -2.540027,43.205571,353.2 -2.540016,43.205561,353.3 -2.540001,43.205548,353.1 -2.539983,43.205536,352.7 -2.539967,43.205520,352.5 -2.539953,43.205503,352.4 -2.539932,43.205487,352.2 -2.539913,43.205472,352.1 -2.539899,43.205456,352.1 -2.539883,43.205447,351.9 -2.539869,43.205433,351.6 -2.539858,43.205419,351.0 -2.539845,43.205408,350.4 -2.539833,43.205397,349.8 -2.539820,43.205386,349.3 -2.539807,43.205372,349.0 -2.539795,43.205364,348.8 -2.539784,43.205356,348.8 -2.539768,43.205346,349.1 -2.539756,43.205337,349.1 -2.539742,43.205325,349.0 -2.539730,43.205317,349.1 -2.539712,43.205305,348.6 -2.539699,43.205294,348.0 -2.539688,43.205284,347.6 -2.539671,43.205275,347.0 -2.539653,43.205260,346.8 -2.539637,43.205250,346.6 -2.539618,43.205242,346.2 -2.539601,43.205232,345.9 -2.539583,43.205222,345.7 -2.539566,43.205215,345.3 -2.539550,43.205205,344.8 -2.539540,43.205200,344.5 -2.539522,43.205194,344.0 -2.539506,43.205189,343.7 -2.539490,43.205179,343.3 -2.539472,43.205165,342.8 -2.539456,43.205157,342.4 -2.539441,43.205145,342.0 -2.539424,43.205135,341.7 -2.539409,43.205124,341.3 -2.539393,43.205113,341.0 -2.539377,43.205103,340.6 -2.539365,43.205095,340.3 -2.539350,43.205083,339.8 -2.539339,43.205074,339.3 -2.539325,43.205061,338.7 -2.539314,43.205050,338.3 -2.539301,43.205039,337.9 -2.539288,43.205030,337.5 -2.539275,43.205018,337.0 -2.539259,43.205007,336.6 -2.539251,43.204994,336.5 -2.539239,43.204982,336.0 -2.539229,43.204971,335.6 -2.539197,43.204929,334.5 -2.539186,43.204915,334.3 -2.539186,43.204915,334.0 -2.539174,43.204900,333.7 -2.539153,43.204880,333.3 -2.539141,43.204865,333.2 -2.539132,43.204850,333.1 -2.539129,43.204832,332.6 -2.539131,43.204813,332.4 -2.539122,43.204798,332.2 -2.539114,43.204781,331.3 -2.539111,43.204767,331.1 -2.539109,43.204752,330.7 -2.539104,43.204738,330.7 -2.539103,43.204720,330.6 -2.539105,43.204705,330.3 -2.539104,43.204688,329.9 -2.539101,43.204672,329.6 -2.539100,43.204655,329.3 -2.539101,43.204642,329.3 -2.539105,43.204631,329.3 -2.539107,43.204615,329.2 -2.539110,43.204597,329.2 -2.539116,43.204580,329.3 -2.539119,43.204560,329.0 -2.539121,43.204542,328.9 -2.539121,43.204525,328.8 -2.539117,43.204508,328.7 -2.539116,43.204493,328.5 -2.539117,43.204475,328.3 -2.539114,43.204456,328.2 -2.539113,43.204441,328.3 -2.539108,43.204426,327.9 -2.539105,43.204409,327.8 -2.539100,43.204393,327.4 -2.539098,43.204379,327.2 -2.539094,43.204364,326.9 -2.539089,43.204348,326.5 -2.539087,43.204335,326.2 -2.539080,43.204318,325.9 -2.539073,43.204300,325.5 -2.539068,43.204282,324.8 -2.539064,43.204266,324.6 -2.539062,43.204250,324.3 -2.539057,43.204235,324.3 -2.539050,43.204219,324.1 -2.539045,43.204200,323.9 -2.539037,43.204184,323.6 -2.539029,43.204169,323.4 -2.539023,43.204153,323.2 -2.539015,43.204134,323.0 -2.539008,43.204121,323.1 -2.539005,43.204111,322.9 -2.539001,43.204095,322.5 -2.538992,43.204079,322.2 -2.538979,43.204064,321.8 -2.538968,43.204053,321.7 -2.538958,43.204036,321.5 -2.538948,43.204019,321.4 -2.538936,43.204002,321.3 -2.538926,43.203988,321.2 -2.538917,43.203976,321.2 -2.538906,43.203962,321.1 -2.538896,43.203949,320.8 -2.538889,43.203936,320.8 -2.538880,43.203920,320.7 -2.538868,43.203911,320.4 -2.538853,43.203897,320.5 -2.538839,43.203885,320.2 -2.538824,43.203869,320.1 -2.538809,43.203855,319.9 -2.538796,43.203842,319.9 -2.538780,43.203831,319.6 -2.538761,43.203821,319.6 -2.538745,43.203813,319.6 -2.538728,43.203803,319.7 -2.538713,43.203796,319.6 -2.538692,43.203788,319.7 -2.538670,43.203773,319.7 -2.538657,43.203761,319.7 -2.538639,43.203751,319.4 -2.538622,43.203741,319.4 -2.538608,43.203732,319.3 -2.538593,43.203724,319.2 -2.538580,43.203715,319.1 -2.538567,43.203707,319.1 -2.538550,43.203700,318.8 -2.538535,43.203689,318.6 -2.538517,43.203676,318.6 -2.538503,43.203664,318.7 -2.538486,43.203654,318.7 -2.538470,43.203642,318.5 -2.538453,43.203629,318.3 -2.538438,43.203618,318.1 -2.538427,43.203608,318.0 -2.538410,43.203598,318.1 -2.538393,43.203588,318.1 -2.538383,43.203578,318.0 -2.538370,43.203569,317.9 -2.538353,43.203563,317.8 -2.538335,43.203553,317.4 -2.538319,43.203542,317.0 -2.538303,43.203535,317.0 -2.538275,43.203529,316.7 -2.538246,43.203523,316.6 -2.538222,43.203515,317.1 -2.538202,43.203511,317.4 -2.538183,43.203502,317.4 -2.538165,43.203491,317.5 -2.538146,43.203480,317.3 -2.538125,43.203469,317.0 -2.538104,43.203462,316.8 -2.538084,43.203455,316.6 -2.538066,43.203448,316.4 -2.538046,43.203438,316.3 -2.538026,43.203432,316.1 -2.538005,43.203423,315.7 -2.537982,43.203415,315.4 -2.537960,43.203406,315.3 -2.537940,43.203397,315.1 -2.537924,43.203388,315.1 -2.537907,43.203379,314.9 -2.537893,43.203370,314.9 -2.537876,43.203361,314.7 -2.537854,43.203354,314.4 -2.537830,43.203345,314.2 -2.537812,43.203333,314.2 -2.537791,43.203326,314.1 -2.537769,43.203317,314.0 -2.537749,43.203310,313.8 -2.537731,43.203302,313.8 -2.537714,43.203295,313.8 -2.537696,43.203292,313.9 -2.537679,43.203284,313.9 -2.537663,43.203277,313.9 -2.537642,43.203272,313.6 -2.537624,43.203267,313.7 -2.537608,43.203260,313.6 -2.537591,43.203251,313.6 -2.537574,43.203242,313.6 -2.537556,43.203231,313.5 -2.537535,43.203221,313.5 -2.537516,43.203212,313.3 -2.537501,43.203201,313.3 -2.537486,43.203192,313.2 -2.537469,43.203183,313.2 -2.537453,43.203174,313.2 -2.537438,43.203165,313.3 -2.537421,43.203156,313.3 -2.537406,43.203146,313.3 -2.537386,43.203136,313.2 -2.537368,43.203127,313.0 -2.537352,43.203115,313.0 -2.537336,43.203101,313.1 -2.537321,43.203086,312.9 -2.537309,43.203073,312.8 -2.537296,43.203060,312.9 -2.537285,43.203049,313.0 -2.537274,43.203039,312.9 -2.537262,43.203028,312.9 -2.537251,43.203019,312.8 -2.537239,43.203004,312.9 -2.537226,43.202992,312.8 -2.537214,43.202979,312.7 -2.537206,43.202965,312.6 -2.537198,43.202952,312.6 -2.537191,43.202940,312.4 -2.537181,43.202928,312.5 -2.537168,43.202917,312.2 -2.537151,43.202902,312.2 -2.537137,43.202889,312.3 -2.537126,43.202876,312.3 -2.537115,43.202862,312.2 -2.537105,43.202848,312.2 -2.537093,43.202834,312.3 -2.537087,43.202820,312.2 -2.537078,43.202805,312.2 -2.537064,43.202794,312.2 -2.537052,43.202784,312.2 -2.537042,43.202774,312.2 -2.537033,43.202764,312.5 -2.537024,43.202753,312.5 -2.537015,43.202740,312.5 -2.537004,43.202728,312.4 -2.536989,43.202715,312.5 -2.536977,43.202702,312.5 -2.536966,43.202690,312.5 -2.536955,43.202676,312.3 -2.536943,43.202660,312.2 -2.536927,43.202648,312.3 -2.536915,43.202636,312.2 -2.536900,43.202625,312.0 -2.536888,43.202615,311.9 -2.536878,43.202604,311.9 -2.536865,43.202594,311.7 -2.536852,43.202584,311.5 -2.536839,43.202574,311.3 -2.536825,43.202563,311.3 -2.536809,43.202556,311.0 -2.536793,43.202549,310.8 -2.536789,43.202529,310.5 -2.536789,43.202522,310.5 -2.536778,43.202512,310.2 -2.536768,43.202506,310.0 -2.536745,43.202495,310.0 -2.536726,43.202483,309.8 -2.536713,43.202474,309.6 -2.536705,43.202465,309.6 -2.536692,43.202452,309.4 -2.536687,43.202439,309.3 -2.536680,43.202430,309.0 -2.536655,43.202419,308.9 -2.536645,43.202406,308.6 -2.536639,43.202398,308.5 -2.536620,43.202383,308.2 -2.536600,43.202373,308.3 -2.536583,43.202367,308.0 -2.536567,43.202359,308.0 -2.536553,43.202353,307.8 -2.536537,43.202346,307.6 -2.536522,43.202336,307.5 -2.536505,43.202327,307.2 -2.536487,43.202317,307.1 -2.536467,43.202305,307.0 -2.536449,43.202292,306.8 -2.536432,43.202283,306.7 -2.536413,43.202271,306.4 -2.536394,43.202264,306.3 -2.536378,43.202257,306.0 -2.536359,43.202250,305.8 -2.536345,43.202240,305.6 -2.536334,43.202233,305.4 -2.536314,43.202227,305.5 -2.536300,43.202220,305.3 -2.536285,43.202209,305.1 -2.536262,43.202200,305.0 -2.536240,43.202189,304.8 -2.536220,43.202177,304.8 -2.536201,43.202169,304.6 -2.536186,43.202158,304.4 -2.536169,43.202150,304.5 -2.536157,43.202142,304.2 -2.536139,43.202133,304.2 -2.536127,43.202130,304.0 -2.536111,43.202125,304.1 -2.536100,43.202118,304.1 -2.536102,43.202112,304.0 -2.536091,43.202107,304.0 -2.536075,43.202103,304.1 -2.536063,43.202095,304.0 -2.536051,43.202089,304.0 -2.536028,43.202079,304.1 -2.536008,43.202072,304.1 -2.535991,43.202070,304.1 -2.535972,43.202065,304.1 -2.535956,43.202060,304.0 -2.535939,43.202054,304.0 -2.535921,43.202048,304.0 -2.535902,43.202041,304.1 -2.535882,43.202033,304.0 -2.535863,43.202025,304.0 -2.535846,43.202014,304.1 -2.535832,43.202005,304.3 -2.535818,43.201997,304.3 -2.535808,43.201984,304.2 -2.535795,43.201978,304.3 -2.535776,43.201971,304.3 -2.535758,43.201963,304.2 -2.535740,43.201953,304.2 -2.535724,43.201945,304.2 -2.535706,43.201934,304.2 -2.535690,43.201925,304.3 -2.535677,43.201917,304.0 -2.535664,43.201910,304.0 -2.535651,43.201899,303.8 -2.535636,43.201888,303.9 -2.535624,43.201879,303.7 -2.535611,43.201870,303.6 -2.535597,43.201859,303.3 -2.535582,43.201847,303.1 -2.535572,43.201837,303.0 -2.535560,43.201825,302.8 -2.535546,43.201816,302.6 -2.535534,43.201807,302.6 -2.535522,43.201796,302.8 -2.535510,43.201785,302.8 -2.535496,43.201775,302.9 -2.535485,43.201763,302.6 -2.535475,43.201752,302.7 -2.535463,43.201741,302.7 -2.535450,43.201729,302.6 -2.535437,43.201719,302.7 -2.535426,43.201706,302.9 -2.535411,43.201698,303.0 -2.535394,43.201688,303.0 -2.535385,43.201675,303.0 -2.535373,43.201663,303.0 -2.535359,43.201652,303.0 -2.535349,43.201640,303.1 -2.535339,43.201634,303.0 -2.535331,43.201624,303.0 -2.535320,43.201612,302.9 -2.535306,43.201602,302.8 -2.535292,43.201591,302.8 -2.535281,43.201576,302.7 -2.535267,43.201567,302.4 -2.535251,43.201558,302.5 -2.535237,43.201547,302.2 -2.535225,43.201538,302.2 -2.535210,43.201528,302.1 -2.535195,43.201518,302.0 -2.535183,43.201506,302.1 -2.535171,43.201494,302.1 -2.535163,43.201483,301.9 -2.535152,43.201470,301.6 -2.535140,43.201456,301.5 -2.535130,43.201443,301.2 -2.535119,43.201431,301.1 -2.535108,43.201418,300.9 -2.535097,43.201402,300.8 -2.535085,43.201389,300.6 -2.535076,43.201376,300.4 -2.535072,43.201361,300.4 -2.535063,43.201349,300.3 -2.535055,43.201337,300.1 -2.535049,43.201324,299.9 -2.535042,43.201313,299.6 -2.535035,43.201299,299.5 -2.535028,43.201286,299.5 -2.535021,43.201274,299.2 -2.535017,43.201260,299.1 -2.535011,43.201246,299.0 -2.535004,43.201234,298.8 -2.534997,43.201221,298.8 -2.534990,43.201208,298.8 -2.534984,43.201194,298.9 -2.534983,43.201176,298.6 -2.534983,43.201163,298.5 -2.534980,43.201147,298.5 -2.534975,43.201133,298.4 -2.534969,43.201120,298.3 -2.534965,43.201105,298.2 -2.534960,43.201090,298.1 -2.534953,43.201074,298.1 -2.534947,43.201058,297.9 -2.534938,43.201046,297.8 -2.534930,43.201031,297.6 -2.534918,43.201020,297.6 -2.534908,43.201007,297.6 -2.534908,43.200990,297.4 -2.534898,43.200985,297.5 -2.534888,43.200973,297.2 -2.534879,43.200958,297.1 -2.534868,43.200946,297.1 -2.534857,43.200934,296.9 -2.534843,43.200921,296.8 -2.534829,43.200908,296.8 -2.534819,43.200895,296.7 -2.534808,43.200882,296.4 -2.534799,43.200870,296.4 -2.534789,43.200857,296.2 -2.534780,43.200844,296.1 -2.534769,43.200828,296.0 -2.534762,43.200813,295.8 -2.534748,43.200801,295.9 -2.534734,43.200786,295.9 -2.534723,43.200774,295.7 -2.534714,43.200759,295.7 -2.534704,43.200747,295.7 -2.534693,43.200735,295.4 -2.534684,43.200725,295.5 -2.534676,43.200714,295.5 -2.534669,43.200703,295.2 -2.534659,43.200690,295.2 -2.534648,43.200677,295.1 -2.534637,43.200662,294.9 -2.534626,43.200646,294.8 -2.534615,43.200634,294.8 -2.534605,43.200623,294.9 -2.534595,43.200608,294.7 -2.534587,43.200594,294.7 -2.534576,43.200583,294.4 -2.534567,43.200569,294.4 -2.534560,43.200556,294.5 -2.534545,43.200544,294.4 -2.534534,43.200528,294.2 -2.534523,43.200515,294.2 -2.534508,43.200503,294.1 -2.534495,43.200491,293.8 -2.534482,43.200478,293.9 -2.534470,43.200467,293.9 -2.534458,43.200456,293.6 -2.534443,43.200444,293.7 -2.534429,43.200431,293.7 -2.534415,43.200423,293.7 -2.534405,43.200413,293.4 -2.534395,43.200402,293.5 -2.534383,43.200390,293.4 -2.534370,43.200379,293.2 -2.534360,43.200369,293.2 -2.534347,43.200357,293.2 -2.534333,43.200346,293.1 -2.534319,43.200335,292.9 -2.534304,43.200324,292.9 -2.534291,43.200314,292.9 -2.534278,43.200302,292.6 -2.534266,43.200289,292.7 -2.534255,43.200278,292.7 -2.534244,43.200267,292.7 -2.534233,43.200257,292.4 -2.534221,43.200246,292.5 -2.534209,43.200237,292.4 -2.534196,43.200225,292.4 -2.534185,43.200216,292.4 -2.534174,43.200207,292.4 -2.534161,43.200198,292.2 -2.534152,43.200190,292.2 -2.534139,43.200178,292.2 -2.534126,43.200164,292.0 -2.534112,43.200152,292.1 -2.534094,43.200138,291.9 -2.534081,43.200127,291.7 -2.534069,43.200115,291.4 -2.534052,43.200103,291.2 -2.534039,43.200093,291.0 -2.534027,43.200080,291.0 -2.534016,43.200068,290.8 -2.534004,43.200055,290.7 -2.533991,43.200044,290.4 -2.533977,43.200034,290.2 -2.533964,43.200023,290.1 -2.533950,43.200014,289.9 -2.533938,43.200003,289.8 -2.533923,43.199989,289.6 -2.533909,43.199978,289.5 -2.533891,43.199966,289.3 -2.533875,43.199949,289.2 -2.533860,43.199935,289.0 -2.533850,43.199922,288.8 -2.533839,43.199908,288.6 -2.533827,43.199897,288.5 -2.533812,43.199885,288.3 -2.533799,43.199871,288.2 -2.533786,43.199860,288.1 -2.533775,43.199850,288.1 -2.533762,43.199840,288.1 -2.533748,43.199827,287.8 -2.533737,43.199816,287.7 -2.533723,43.199803,287.3 -2.533709,43.199791,286.8 -2.533696,43.199782,286.6 -2.533680,43.199772,286.4 -2.533668,43.199758,286.3 -2.533653,43.199745,286.3 -2.533637,43.199735,286.3 -2.533620,43.199727,286.0 -2.533609,43.199717,285.9 -2.533595,43.199707,285.4 -2.533581,43.199699,285.2 -2.533566,43.199691,285.1 -2.533548,43.199682,284.9 -2.533533,43.199672,284.7 -2.533514,43.199665,284.2 -2.533496,43.199657,284.0 -2.533480,43.199649,283.8 -2.533463,43.199639,283.6 -2.533441,43.199634,283.4 -2.533422,43.199629,283.3 -2.533406,43.199622,283.3 -2.533387,43.199616,283.0 -2.533368,43.199610,283.1 -2.533352,43.199603,283.1 -2.533336,43.199594,283.0 -2.533319,43.199587,283.0 -2.533304,43.199583,283.0 -2.533291,43.199577,283.0 -2.533275,43.199569,282.8 -2.533258,43.199562,282.6 -2.533242,43.199554,282.5 -2.533225,43.199546,282.2 -2.533211,43.199537,282.2 -2.533193,43.199530,282.1 -2.533173,43.199519,281.9 -2.533157,43.199511,281.6 -2.533140,43.199503,281.3 -2.533119,43.199497,281.1 -2.533100,43.199489,280.7 -2.533084,43.199482,280.5 -2.533063,43.199474,280.4 -2.533046,43.199463,280.4 -2.533030,43.199449,280.6 -2.533017,43.199436,280.9 -2.533001,43.199429,280.7 -2.532988,43.199422,280.5 -2.532973,43.199417,280.3 -2.532958,43.199409,279.9 -2.532942,43.199403,279.7 -2.532925,43.199397,279.4 -2.532912,43.199386,279.3 -2.532892,43.199375,278.9 -2.532878,43.199365,278.6 -2.532861,43.199354,278.4 -2.532846,43.199345,278.2 -2.532830,43.199336,277.8 -2.532812,43.199326,277.6 -2.532797,43.199318,277.4 -2.532780,43.199307,277.2 -2.532767,43.199295,277.1 -2.532752,43.199284,276.8 -2.532738,43.199274,276.9 -2.532729,43.199262,276.7 -2.532722,43.199252,276.5 -2.532713,43.199243,276.4 -2.532697,43.199233,276.3 -2.532680,43.199226,276.2 -2.532667,43.199218,276.2 -2.532647,43.199209,276.2 -2.532630,43.199201,275.9 -2.532612,43.199191,275.6 -2.532597,43.199181,275.3 -2.532583,43.199171,275.1 -2.532565,43.199165,274.6 -2.532550,43.199157,274.5 -2.532536,43.199149,274.0 -2.532523,43.199141,273.8 -2.532511,43.199132,273.7 -2.532499,43.199123,273.5 -2.532487,43.199114,273.1 -2.532474,43.199103,272.8 -2.532460,43.199095,272.6 -2.532441,43.199089,272.3 -2.532427,43.199080,271.8 -2.532414,43.199072,271.6 -2.532398,43.199061,271.2 -2.532385,43.199051,270.8 -2.532373,43.199039,270.4 -2.532355,43.199036,270.0 -2.532337,43.199026,269.6 -2.532323,43.199013,269.4 -2.532311,43.199000,269.3 -2.532295,43.198988,269.1 -2.532281,43.198974,268.6 -2.532265,43.198962,268.2 -2.532251,43.198949,267.8 -2.532244,43.198936,267.5 -2.532233,43.198926,267.1 -2.532220,43.198914,266.4 -2.532208,43.198904,266.1 -2.532195,43.198894,265.6 -2.532179,43.198883,265.3 -2.532167,43.198869,264.8 -2.532155,43.198854,264.4 -2.532146,43.198840,264.1 -2.532132,43.198829,263.8 -2.532119,43.198816,263.8 -2.532109,43.198804,263.8 -2.532096,43.198793,263.9 -2.532086,43.198782,263.9 -2.532073,43.198770,263.9 -2.532059,43.198761,263.7 -2.532044,43.198750,263.5 -2.532028,43.198735,263.3 -2.532016,43.198723,262.8 -2.532003,43.198711,262.4 -2.531994,43.198698,262.0 -2.531983,43.198688,262.1 -2.531965,43.198682,261.8 -2.531951,43.198674,261.6 -2.531935,43.198665,261.2 -2.531916,43.198654,260.9 -2.531901,43.198645,260.5 -2.531882,43.198634,260.2 -2.531865,43.198622,259.8 -2.531848,43.198610,259.8 -2.531831,43.198599,259.7 -2.531816,43.198586,259.4 -2.531800,43.198577,259.3 -2.531784,43.198568,258.9 -2.531767,43.198561,258.4 -2.531755,43.198549,258.0 -2.531738,43.198540,257.6 -2.531723,43.198532,257.2 -2.531710,43.198522,256.9 -2.531695,43.198512,256.5 -2.531679,43.198502,256.1 -2.531662,43.198489,255.8 -2.531643,43.198482,255.4 -2.531629,43.198477,255.3 -2.531614,43.198469,255.1 -2.531597,43.198460,254.8 -2.531583,43.198451,254.6 -2.531567,43.198443,254.5 -2.531552,43.198435,254.3 -2.531536,43.198428,254.2 -2.531519,43.198421,254.2 -2.531502,43.198414,254.2 -2.531482,43.198406,254.3 -2.531463,43.198399,254.2 -2.531445,43.198393,254.3 -2.531427,43.198390,254.3 -2.531405,43.198381,254.1 -2.531387,43.198377,254.1 -2.531365,43.198373,253.8 -2.531344,43.198371,253.8 -2.531321,43.198366,253.9 -2.531303,43.198360,253.8 -2.531285,43.198357,253.8 -2.531264,43.198352,253.8 -2.531243,43.198349,253.5 -2.531217,43.198344,253.3 -2.531199,43.198338,253.1 -2.531178,43.198336,252.7 -2.531155,43.198334,252.4 -2.531138,43.198328,252.2 -2.531123,43.198324,252.1 -2.531103,43.198322,251.8 -2.531085,43.198319,251.7 -2.531067,43.198315,251.5 -2.531048,43.198304,251.3 -2.531028,43.198297,251.0 -2.531004,43.198290,250.6 -2.530984,43.198281,250.5 -2.530967,43.198270,250.3 -2.530949,43.198256,249.9 -2.530936,43.198251,249.6 -2.530919,43.198245,249.5 -2.530901,43.198234,249.3 -2.530887,43.198225,248.9 -2.530873,43.198215,248.6 -2.530860,43.198210,248.2 -2.530844,43.198199,248.0 -2.530830,43.198186,248.1 -2.530818,43.198176,248.0 -2.530805,43.198163,248.0 -2.530788,43.198147,248.0 -2.530775,43.198132,248.0 -2.530763,43.198118,247.8 -2.530752,43.198102,247.7 -2.530742,43.198087,247.4 -2.530733,43.198074,247.5 -2.530726,43.198061,247.2 -2.530716,43.198048,247.1 -2.530709,43.198035,246.8 -2.530703,43.198023,246.9 -2.530695,43.198010,246.7 -2.530688,43.197996,246.2 -2.530679,43.197983,245.8 -2.530666,43.197971,245.5 -2.530657,43.197955,245.3 -2.530650,43.197937,244.8 -2.530640,43.197923,244.7 -2.530627,43.197913,244.4 -2.530619,43.197899,244.0 -2.530610,43.197886,243.9 -2.530597,43.197871,243.9 -2.530587,43.197859,243.9 -2.530581,43.197844,244.0 -2.530569,43.197830,244.0 -2.530560,43.197817,243.8 -2.530552,43.197801,243.6 -2.530541,43.197789,243.3 -2.530535,43.197777,243.1 -2.530525,43.197761,242.9 -2.530518,43.197748,242.5 -2.530507,43.197737,242.1 -2.530496,43.197721,241.8 -2.530487,43.197706,241.6 -2.530481,43.197694,241.2 -2.530471,43.197684,241.1 -2.530462,43.197669,240.9 -2.530453,43.197657,240.6 -2.530445,43.197643,240.2 -2.530436,43.197630,240.0 -2.530423,43.197616,239.8 -2.530414,43.197604,239.6 -2.530408,43.197591,239.3 -2.530397,43.197579,239.1 -2.530387,43.197566,238.8 -2.530377,43.197557,238.6 -2.530368,43.197544,238.2 -2.530359,43.197534,238.1 -2.530350,43.197521,237.7 -2.530341,43.197508,237.4 -2.530336,43.197496,237.3 -2.530330,43.197485,237.0 -2.530323,43.197467,236.8 -2.530314,43.197454,236.4 -2.530306,43.197444,236.2 -2.530292,43.197430,235.8 -2.530283,43.197415,235.6 -2.530273,43.197403,235.7 -2.530260,43.197391,235.4 -2.530254,43.197376,235.1 -2.530246,43.197361,234.9 -2.530240,43.197350,234.4 -2.530237,43.197337,234.3 -2.530232,43.197320,233.9 -2.530228,43.197306,233.4 -2.530222,43.197291,233.0 -2.530217,43.197280,232.9 -2.530205,43.197264,232.6 -2.530191,43.197251,232.5 -2.530180,43.197239,232.4 -2.530170,43.197225,232.5 -2.530162,43.197210,232.5 -2.530150,43.197196,232.2 -2.530137,43.197181,232.0 -2.530128,43.197165,231.8 -2.530116,43.197154,231.6 -2.530103,43.197144,231.6 -2.530088,43.197133,231.4 -2.530069,43.197129,231.2 -2.530050,43.197126,231.3 -2.530035,43.197122,231.1 -2.530019,43.197115,230.9 -2.530004,43.197108,230.8 -2.529994,43.197096,230.9 -2.530002,43.197096,230.6 -2.530003,43.197094,230.6 -2.530001,43.197091,230.7 -2.529999,43.197089,230.5 -2.530000,43.197089,230.3 -2.530000,43.197089,230.1 -2.530000,43.197089,229.8 -2.530000,43.197089,229.8 -2.530000,43.197089,230.1 -2.530000,43.197089,230.0 -2.530000,43.197089,230.1 -2.530000,43.197089,229.9 -2.530002,43.197080,229.9 -2.530015,43.197077,229.9 -2.530034,43.197075,229.9 -2.530052,43.197076,229.6 -2.530073,43.197078,229.6 -2.530091,43.197079,229.5 -2.530112,43.197083,229.4 -2.530132,43.197089,229.4 -2.530146,43.197093,229.6 -2.530161,43.197098,229.7 -2.530181,43.197106,229.8 -2.530199,43.197115,229.9 -2.530221,43.197121,230.0 -2.530242,43.197124,230.1 -2.530259,43.197128,230.1 -2.530279,43.197134,229.8 -2.530298,43.197138,230.1 -2.530315,43.197137,230.1 -2.530330,43.197143,230.1 -2.530342,43.197145,230.2 -2.530354,43.197147,230.4 -2.530371,43.197150,230.4 -2.530386,43.197153,230.6 -2.530404,43.197154,230.7 -2.530423,43.197158,230.7 -2.530441,43.197159,230.8 -2.530460,43.197161,230.9 -2.530475,43.197168,230.6 -2.530489,43.197171,230.7 -2.530510,43.197176,230.6 -2.530531,43.197182,230.6 -2.530543,43.197186,230.8 -2.530560,43.197188,231.1 -2.530580,43.197194,231.4 -2.530596,43.197199,231.8 -2.530613,43.197206,232.3 -2.530634,43.197212,232.6 -2.530652,43.197219,232.8 -2.530670,43.197225,233.0 -2.530687,43.197230,232.9 -2.530708,43.197236,232.8 -2.530726,43.197241,232.6 -2.530744,43.197242,232.4 -2.530760,43.197242,232.6 -2.530779,43.197245,232.7 -2.530800,43.197247,232.8 -2.530820,43.197250,233.0 -2.530839,43.197254,233.0 -2.530857,43.197259,233.2 -2.530874,43.197264,233.3 -2.530892,43.197266,233.3 -2.530909,43.197270,233.5 -2.530926,43.197272,233.5 -2.530946,43.197271,233.4 -2.530966,43.197272,233.6 -2.530986,43.197270,233.6 -2.531004,43.197270,233.9 -2.531022,43.197271,234.1 -2.531038,43.197266,234.3 -2.531058,43.197263,234.2 -2.531075,43.197261,234.0 -2.531092,43.197262,233.9 -2.531109,43.197262,233.5 -2.531125,43.197262,233.3 -2.531138,43.197263,233.2 -2.531156,43.197263,233.5 -2.531177,43.197261,233.4 -2.531194,43.197263,233.7 -2.531211,43.197263,233.7 -2.531229,43.197262,233.7 -2.531249,43.197259,233.6 -2.531268,43.197256,233.6 -2.531287,43.197254,233.4 -2.531308,43.197253,233.4 -2.531328,43.197249,233.2 -2.531347,43.197246,233.3 -2.531368,43.197244,233.2 -2.531389,43.197240,233.5 -2.531407,43.197236,233.6 -2.531425,43.197234,233.9 -2.531442,43.197229,234.0 -2.531461,43.197225,234.3 -2.531478,43.197221,234.2 -2.531493,43.197219,234.3 -2.531512,43.197218,234.2 -2.531530,43.197213,234.2 -2.531547,43.197213,234.2 -2.531565,43.197211,234.3 -2.531580,43.197210,234.2 -2.531599,43.197210,234.4 -2.531618,43.197210,234.4 -2.531634,43.197209,234.5 -2.531648,43.197209,234.7 -2.531662,43.197209,234.9 -2.531679,43.197208,234.9 -2.531694,43.197207,234.9 -2.531710,43.197199,235.0 -2.531726,43.197199,235.1 -2.531739,43.197196,235.0 -2.531752,43.197194,235.0 -2.531762,43.197191,235.0 -2.531773,43.197189,235.1 -2.531786,43.197187,235.0 -2.531800,43.197184,235.1 -2.531816,43.197182,235.1 -2.531830,43.197179,235.3 -2.531848,43.197176,235.3 -2.531865,43.197172,235.1 -2.531881,43.197166,234.6 -2.531894,43.197163,234.5 -2.531909,43.197159,233.7 -2.531925,43.197154,233.8 -2.531940,43.197148,234.2 -2.531957,43.197141,234.9 -2.531975,43.197135,235.2 -2.531995,43.197130,235.5 -2.532014,43.197125,235.9 -2.532031,43.197121,236.0 -2.532051,43.197114,236.1 -2.532069,43.197108,236.1 -2.532090,43.197102,236.3 -2.532109,43.197097,236.2 -2.532129,43.197093,236.5 -2.532150,43.197089,236.6 -2.532169,43.197083,236.8 -2.532185,43.197079,236.8 -2.532204,43.197074,236.8 -2.532225,43.197068,236.5 -2.532246,43.197063,236.3 -2.532265,43.197058,236.1 -2.532283,43.197053,235.9 -2.532300,43.197048,235.9 -2.532315,43.197045,235.8 -2.532330,43.197042,235.9 -2.532348,43.197039,235.8 -2.532368,43.197038,235.8 -2.532387,43.197038,236.1 -2.532399,43.197041,236.2 -2.532409,43.197046,236.2 -2.532422,43.197049,236.4 -2.532438,43.197049,236.7 -2.532453,43.197047,236.8 -2.532472,43.197044,236.8 -2.532490,43.197044,236.9 -2.532509,43.197045,236.8 -2.532529,43.197045,236.7 -2.532543,43.197047,236.6 -2.532561,43.197046,236.7 -2.532576,43.197047,236.6 -2.532590,43.197049,236.9 -2.532605,43.197049,237.0 -2.532619,43.197052,236.8 -2.532631,43.197056,236.4 -2.532641,43.197059,236.3 -2.532657,43.197060,236.4 -2.532672,43.197063,236.7 -2.532690,43.197066,237.1 -2.532708,43.197069,237.4 -2.532725,43.197072,237.9 -2.532739,43.197077,237.9 -2.532755,43.197080,237.9 -2.532771,43.197084,237.8 -2.532789,43.197089,237.9 -2.532802,43.197096,237.8 -2.532816,43.197100,237.8 -2.532829,43.197103,237.9 -2.532845,43.197106,238.0 -2.532856,43.197110,238.0 -2.532872,43.197113,238.3 -2.532888,43.197116,238.3 -2.532906,43.197117,238.4 -2.532922,43.197120,238.5 -2.532939,43.197123,238.7 -2.532956,43.197126,238.9 -2.532975,43.197128,239.0 -2.532992,43.197133,238.8 -2.533009,43.197137,238.8 -2.533026,43.197141,238.4 -2.533042,43.197144,238.3 -2.533060,43.197149,238.1 -2.533079,43.197153,237.9 -2.533099,43.197156,237.9 -2.533116,43.197157,238.0 -2.533131,43.197159,238.1 -2.533152,43.197158,238.2 -2.533167,43.197158,238.3 -2.533181,43.197161,238.3 -2.533198,43.197164,238.5 -2.533216,43.197167,238.4 -2.533233,43.197169,238.4 -2.533249,43.197170,238.6 -2.533268,43.197171,238.6 -2.533286,43.197176,238.6 -2.533304,43.197179,238.9 -2.533320,43.197180,238.8 -2.533340,43.197181,239.0 -2.533358,43.197182,239.0 -2.533374,43.197183,239.0 -2.533392,43.197186,239.0 -2.533411,43.197187,239.1 -2.533431,43.197189,239.0 -2.533452,43.197191,239.2 -2.533476,43.197193,239.2 -2.533498,43.197194,239.4 -2.533516,43.197191,239.5 -2.533532,43.197189,239.4 -2.533550,43.197186,239.4 -2.533567,43.197183,239.7 -2.533584,43.197177,239.7 -2.533602,43.197174,239.8 -2.533620,43.197172,240.1 -2.533638,43.197169,240.0 -2.533657,43.197167,240.0 -2.533678,43.197167,239.9 -2.533698,43.197165,239.8 -2.533720,43.197162,239.8 -2.533744,43.197159,239.8 -2.533765,43.197158,239.9 -2.533788,43.197154,239.9 -2.533806,43.197153,240.1 -2.533824,43.197151,240.1 -2.533841,43.197151,240.2 -2.533859,43.197150,240.4 -2.533880,43.197151,240.3 -2.533899,43.197151,240.2 -2.533916,43.197154,240.2 -2.533934,43.197154,240.3 -2.533958,43.197151,240.5 -2.533979,43.197150,240.8 -2.533996,43.197149,241.0 -2.534013,43.197148,241.2 -2.534030,43.197146,241.5 -2.534051,43.197143,241.6 -2.534069,43.197141,241.7 -2.534088,43.197142,241.7 -2.534108,43.197142,241.6 -2.534127,43.197140,241.7 -2.534143,43.197141,241.7 -2.534157,43.197143,241.7 -2.534175,43.197143,241.9 -2.534192,43.197140,242.0 -2.534211,43.197137,241.8 -2.534228,43.197134,241.6 -2.534244,43.197130,241.5 -2.534257,43.197129,241.3 -2.534271,43.197126,240.9 -2.534281,43.197122,240.6 -2.534293,43.197117,240.7 -2.534304,43.197113,240.4 -2.534318,43.197109,240.5 -2.534333,43.197104,240.7 -2.534348,43.197096,241.0 -2.534364,43.197089,241.3 -2.534380,43.197080,241.6 -2.534397,43.197071,241.8 -2.534415,43.197060,241.8 -2.534432,43.197051,241.9 -2.534448,43.197043,241.6 -2.534466,43.197034,241.4 -2.534485,43.197023,241.5 -2.534503,43.197013,241.7 -2.534522,43.197005,241.7 -2.534543,43.196997,241.9 -2.534560,43.196991,242.0 -2.534576,43.196985,242.0 -2.534598,43.196977,241.8 -2.534616,43.196970,241.9 -2.534634,43.196963,241.4 -2.534651,43.196958,241.2 -2.534668,43.196955,241.1 -2.534682,43.196952,240.8 -2.534697,43.196949,240.7 -2.534714,43.196947,240.4 -2.534729,43.196949,240.3 -2.534746,43.196952,240.1 -2.534762,43.196949,240.1 -2.534776,43.196948,240.0 -2.534795,43.196948,240.2 -2.534814,43.196946,240.4 -2.534830,43.196943,240.4 -2.534850,43.196945,240.8 -2.534867,43.196946,241.2 -2.534886,43.196945,241.7 -2.534910,43.196941,241.9 -2.534931,43.196945,241.8 -2.534949,43.196947,241.7 -2.534970,43.196951,241.2 -2.534992,43.196952,241.1 -2.535011,43.196955,240.8 -2.535031,43.196953,240.9 -2.535054,43.196952,241.1 -2.535073,43.196952,241.2 -2.535091,43.196951,241.5 -2.535107,43.196953,241.4 -2.535129,43.196952,241.4 -2.535147,43.196955,241.6 -2.535164,43.196958,241.9 -2.535182,43.196962,241.9 -2.535203,43.196960,242.3 -2.535227,43.196962,242.3 -2.535246,43.196964,242.3 -2.535269,43.196969,242.1 -2.535286,43.196975,242.1 -2.535301,43.196977,241.9 -2.535323,43.196980,241.9 -2.535344,43.196978,241.9 -2.535364,43.196982,242.0 -2.535385,43.196985,242.2 -2.535404,43.196988,242.3 -2.535423,43.196990,242.2 -2.535443,43.196992,242.3 -2.535461,43.196995,242.2 -2.535478,43.196997,242.2 -2.535495,43.197000,242.1 -2.535510,43.197003,242.1 -2.535526,43.197007,242.0 -2.535544,43.197010,242.0 -2.535558,43.197014,241.9 -2.535575,43.197019,241.9 -2.535595,43.197026,241.8 -2.535618,43.197031,241.8 -2.535637,43.197037,241.6 -2.535652,43.197038,241.7 -2.535666,43.197042,241.7 -2.535674,43.197043,241.7 -2.535675,43.197044,241.4 -2.535675,43.197044,241.4 -2.535675,43.197044,241.4 -2.535675,43.197044,241.5 -2.535675,43.197044,241.5 -2.535681,43.197042,241.2 -2.535688,43.197047,241.3 -2.535706,43.197060,241.2 -2.535727,43.197073,241.2 -2.535746,43.197084,241.3 -2.535763,43.197094,241.2 -2.535783,43.197105,241.1 -2.535796,43.197114,241.1 -2.535812,43.197124,241.2 -2.535829,43.197134,241.4 -2.535843,43.197143,241.7 -2.535859,43.197152,241.8 -2.535874,43.197163,242.0 -2.535888,43.197172,242.1 -2.535901,43.197185,242.1 -2.535912,43.197199,242.2 -2.535923,43.197213,242.2 -2.535935,43.197223,242.2 -2.535943,43.197234,242.1 -2.535949,43.197247,242.2 -2.535957,43.197260,242.4 -2.535962,43.197271,242.5 -2.535969,43.197285,242.7 -2.535977,43.197297,242.9 -2.535986,43.197306,242.9 -2.535993,43.197317,242.5 -2.535998,43.197330,242.3 -2.536005,43.197343,242.1 -2.536014,43.197353,241.8 -2.536026,43.197366,241.4 -2.536035,43.197382,241.2 -2.536040,43.197395,241.6 -2.536046,43.197406,242.0 -2.536056,43.197415,242.4 -2.536060,43.197427,242.9 -2.536066,43.197437,243.2 -2.536070,43.197448,243.9 -2.536077,43.197458,244.3 -2.536084,43.197469,244.5 -2.536090,43.197480,244.7 -2.536099,43.197490,244.7 -2.536110,43.197497,244.6 -2.536119,43.197503,244.8 -2.536125,43.197509,244.8 -2.536129,43.197511,244.9 -2.536130,43.197510,245.1 -2.536131,43.197510,245.1 -2.536131,43.197510,245.0 -2.536131,43.197510,245.1 -2.536131,43.197510,245.0 -2.536131,43.197510,244.8 -2.536137,43.197512,244.8 -2.536144,43.197514,244.7 -2.536154,43.197516,244.4 -2.536162,43.197518,244.2 -2.536165,43.197519,244.2 -2.536167,43.197519,244.2 -2.536167,43.197519,244.3 -2.536167,43.197519,244.2 -2.536167,43.197519,244.3 -2.536167,43.197519,244.3 -2.536167,43.197519,244.2 -2.536167,43.197519,244.2 -2.536167,43.197519,244.0 -2.536167,43.197519,244.1 -2.536167,43.197519,243.8 -2.536167,43.197519,243.9 -2.536167,43.197519,243.8 -2.536167,43.197519,243.6 -2.536167,43.197519,243.7 -2.536167,43.197519,243.7 -2.536167,43.197519,243.5 -2.536167,43.197519,243.4 -2.536167,43.197519,243.5 -2.536167,43.197519,243.3 -2.536167,43.197519,243.3 -2.536167,43.197519,243.2 -2.536167,43.197519,243.3 -2.536167,43.197519,243.3 -2.536173,43.197518,243.2 -2.536186,43.197516,243.0 -2.536199,43.197514,243.0 -2.536216,43.197511,242.9 -2.536232,43.197508,242.7 -2.536248,43.197506,242.7 -2.536265,43.197501,242.6 -2.536281,43.197494,242.6 -2.536295,43.197488,242.8 -2.536309,43.197481,242.7 -2.536322,43.197475,242.6 -2.536337,43.197471,242.6 -2.536350,43.197468,242.7 -2.536365,43.197464,242.7 -2.536379,43.197459,242.6 -2.536396,43.197454,242.6 -2.536410,43.197449,242.8 -2.536424,43.197444,242.9 -2.536437,43.197437,243.1 -2.536451,43.197432,243.3 -2.536466,43.197428,243.3 -2.536485,43.197424,243.3 -2.536503,43.197416,243.1 -2.536519,43.197411,243.0 -2.536534,43.197407,243.0 -2.536548,43.197400,243.1 -2.536559,43.197396,243.3 -2.536569,43.197395,243.4 -2.536579,43.197393,243.8 -2.536583,43.197392,244.2 -2.536589,43.197393,244.2 -2.536595,43.197393,244.3 -2.536614,43.197393,244.1 -2.536638,43.197394,243.9 -2.536658,43.197397,243.6 -2.536674,43.197398,243.6 -2.536697,43.197399,243.7 -2.536716,43.197399,243.9 -2.536734,43.197399,244.1 -2.536751,43.197403,244.2 -2.536768,43.197406,244.2 -2.536782,43.197406,244.4 -2.536796,43.197407,244.6 -2.536811,43.197411,244.7 -2.536826,43.197416,244.9 -2.536843,43.197419,244.8 -2.536859,43.197422,245.1 -2.536871,43.197425,245.1 -2.536884,43.197426,245.0 -2.536899,43.197427,245.3 -2.536912,43.197427,245.3 -2.536928,43.197427,245.2 -2.536944,43.197431,245.2 -2.536958,43.197433,245.4 -2.536972,43.197438,245.6 -2.536983,43.197443,245.8 -2.536997,43.197449,245.8 -2.537009,43.197453,246.0 -2.537025,43.197458,246.0 -2.537038,43.197463,246.2 -2.537052,43.197467,246.4 -2.537064,43.197471,246.7 -2.537078,43.197477,246.9 -2.537087,43.197484,246.9 -2.537100,43.197489,247.1 -2.537110,43.197493,247.0 -2.537122,43.197497,247.0 -2.537131,43.197499,247.0 -2.537143,43.197501,247.2 -2.537155,43.197504,247.2 -2.537165,43.197510,247.2 -2.537178,43.197514,247.5 -2.537191,43.197516,247.5 -2.537204,43.197518,247.5 -2.537218,43.197521,247.7 -2.537232,43.197525,247.9 -2.537244,43.197532,248.0 -2.537259,43.197534,248.3 -2.537274,43.197539,248.5 -2.537288,43.197540,248.4 -2.537303,43.197544,248.6 -2.537314,43.197545,248.9 -2.537329,43.197545,249.3 -2.537345,43.197547,249.5 -2.537359,43.197551,249.9 -2.537377,43.197556,249.8 -2.537395,43.197556,250.1 -2.537414,43.197560,250.3 -2.537433,43.197564,250.3 -2.537443,43.197564,250.5 -2.537462,43.197567,250.7 -2.537481,43.197572,250.8 -2.537498,43.197576,251.0 -2.537517,43.197584,251.2 -2.537531,43.197588,251.2 -2.537544,43.197594,251.5 -2.537558,43.197598,251.4 -2.537571,43.197602,251.6 -2.537587,43.197606,251.9 -2.537607,43.197608,252.1 -2.537624,43.197613,252.2 -2.537639,43.197618,252.4 -2.537653,43.197623,252.5 -2.537672,43.197627,252.6 -2.537690,43.197632,252.6 -2.537704,43.197638,252.6 -2.537719,43.197645,252.6 -2.537727,43.197648,252.7 -2.537732,43.197652,252.9 -2.537729,43.197653,252.6 -2.537729,43.197654,252.7 -2.537731,43.197654,252.4 -2.537731,43.197654,252.4 -2.537731,43.197654,252.3 -2.537731,43.197653,252.0 -2.537739,43.197650,252.1 -2.537745,43.197655,252.1 -2.537756,43.197661,252.0 -2.537758,43.197664,252.0 -2.537769,43.197659,252.2 -2.537779,43.197663,252.3 -2.537777,43.197665,252.4 -2.537787,43.197669,252.5 -2.537797,43.197672,252.4 -2.537803,43.197667,252.4 -2.537822,43.197664,252.5 -2.537845,43.197665,252.6 -2.537865,43.197672,252.7 -2.537879,43.197676,252.8 -2.537897,43.197683,253.1 -2.537916,43.197689,253.0 -2.537932,43.197693,253.2 -2.537946,43.197699,253.2 -2.537960,43.197709,253.5 -2.537975,43.197717,253.5 -2.537988,43.197726,253.4 -2.538003,43.197736,253.7 -2.538018,43.197747,253.6 -2.538027,43.197762,253.9 -2.538035,43.197775,254.0 -2.538047,43.197790,254.3 -2.538049,43.197800,254.5 -2.538056,43.197814,254.7 -2.538062,43.197825,254.8 -2.538068,43.197834,255.0 -2.538065,43.197847,255.2 -2.538063,43.197858,255.5 -2.538064,43.197870,255.9 -2.538070,43.197885,256.0 -2.538078,43.197900,256.5 -2.538082,43.197909,256.7 -2.538089,43.197920,256.8 -2.538099,43.197930,257.0 -2.538107,43.197938,257.2 -2.538116,43.197946,257.5 -2.538129,43.197951,257.6 -2.538144,43.197960,257.8 -2.538158,43.197967,258.0 -2.538172,43.197969,258.2 -2.538192,43.197974,258.4 -2.538212,43.197978,258.7 -2.538228,43.197982,258.9 -2.538244,43.197988,259.1 -2.538259,43.197992,259.2 -2.538272,43.197996,259.5 -2.538287,43.198000,259.8 -2.538309,43.198003,260.3 -2.538328,43.198009,260.7 -2.538348,43.198006,261.0 -2.538367,43.198005,261.5 -2.538387,43.198008,261.8 -2.538405,43.198011,262.0 -2.538427,43.198011,262.4 -2.538449,43.198014,262.6 -2.538475,43.198021,262.8 -2.538499,43.198025,263.1 -2.538518,43.198028,263.4 -2.538535,43.198035,263.6 -2.538554,43.198038,264.1 -2.538574,43.198042,264.2 -2.538595,43.198044,264.7 -2.538614,43.198050,265.1 -2.538633,43.198056,265.4 -2.538654,43.198060,265.8 -2.538670,43.198066,266.4 -2.538687,43.198074,266.6 -2.538705,43.198081,267.1 -2.538721,43.198088,267.2 -2.538738,43.198097,267.6 -2.538753,43.198104,267.8 -2.538766,43.198114,268.0 -2.538776,43.198122,268.2 -2.538789,43.198134,268.5 -2.538803,43.198142,268.6 -2.538817,43.198149,269.0 -2.538831,43.198157,269.5 -2.538847,43.198163,269.6 -2.538860,43.198169,270.0 -2.538875,43.198178,270.4 -2.538890,43.198186,270.6 -2.538905,43.198189,271.0 -2.538925,43.198194,271.4 -2.538940,43.198201,271.6 -2.538951,43.198205,272.1 -2.538971,43.198208,272.2 -2.538987,43.198209,272.4 -2.538999,43.198209,272.8 -2.539016,43.198210,273.2 -2.539034,43.198212,273.4 -2.539053,43.198211,273.8 -2.539074,43.198214,274.0 -2.539094,43.198213,274.1 -2.539112,43.198215,274.1 -2.539134,43.198212,274.3 -2.539154,43.198210,274.3 -2.539176,43.198206,274.3 -2.539194,43.198201,274.4 -2.539213,43.198193,274.4 -2.539230,43.198186,274.6 -2.539251,43.198182,274.8 -2.539269,43.198176,275.1 -2.539285,43.198169,275.4 -2.539303,43.198161,275.6 -2.539319,43.198154,276.0 -2.539333,43.198147,276.2 -2.539348,43.198139,276.5 -2.539363,43.198131,276.6 -2.539378,43.198121,276.9 -2.539398,43.198114,277.2 -2.539411,43.198107,277.5 -2.539426,43.198099,277.6 -2.539445,43.198096,278.0 -2.539464,43.198092,278.4 -2.539480,43.198087,279.1 -2.539498,43.198084,279.4 -2.539515,43.198078,280.0 -2.539530,43.198071,280.4 -2.539546,43.198067,280.8 -2.539562,43.198066,281.0 -2.539577,43.198064,281.3 -2.539590,43.198061,281.5 -2.539603,43.198056,281.6 -2.539610,43.198049,281.7 -2.539612,43.198043,281.9 -2.539632,43.198042,282.0 -2.539647,43.198039,282.3 -2.539661,43.198038,282.5 -2.539673,43.198042,282.9 -2.539687,43.198046,283.0 -2.539700,43.198053,283.2 -2.539697,43.198062,283.5 -2.539698,43.198073,283.4 -2.539694,43.198080,283.7 -2.539692,43.198081,283.7 -2.539691,43.198082,283.6 -2.539691,43.198082,283.7 -2.539691,43.198082,283.7 -2.539691,43.198082,283.6 -2.539691,43.198082,283.5 -2.539691,43.198082,283.4 -2.539691,43.198082,283.4 -2.539691,43.198082,283.2 -2.539691,43.198082,283.2 -2.539691,43.198082,283.3 -2.539691,43.198082,283.2 -2.539691,43.198082,283.1 -2.539691,43.198082,283.0 -2.539691,43.198082,282.9 -2.539691,43.198082,282.9 -2.539685,43.198085,282.8 -2.539677,43.198090,282.8 -2.539673,43.198093,283.1 -2.539671,43.198097,283.1 -2.539671,43.198099,283.0 -2.539671,43.198099,283.2 -2.539671,43.198099,283.2 -2.539671,43.198099,283.3 -2.539666,43.198108,283.2 -2.539658,43.198118,283.3 -2.539650,43.198128,283.2 -2.539641,43.198139,283.1 -2.539631,43.198149,283.1 -2.539621,43.198158,283.1 -2.539612,43.198168,283.2 -2.539606,43.198180,283.2 -2.539598,43.198191,283.5 -2.539592,43.198201,283.6 -2.539583,43.198210,283.8 -2.539577,43.198222,283.8 -2.539571,43.198233,284.1 -2.539564,43.198245,284.1 -2.539555,43.198256,283.9 -2.539546,43.198267,283.9 -2.539538,43.198279,284.1 -2.539534,43.198290,284.0 -2.539527,43.198303,284.0 -2.539520,43.198315,284.3 -2.539513,43.198327,284.3 -2.539503,43.198337,284.5 -2.539494,43.198351,284.4 -2.539491,43.198362,284.6 -2.539487,43.198372,284.8 -2.539478,43.198381,284.9 -2.539468,43.198390,285.0 -2.539458,43.198397,285.1 -2.539450,43.198405,285.3 -2.539439,43.198412,285.4 -2.539429,43.198420,285.4 -2.539416,43.198427,285.9 -2.539406,43.198433,286.0 -2.539395,43.198441,286.1 -2.539383,43.198448,286.3 -2.539374,43.198459,286.3 -2.539365,43.198467,286.4 -2.539355,43.198475,286.4 -2.539346,43.198484,286.6 -2.539338,43.198493,286.8 -2.539330,43.198502,287.1 -2.539325,43.198512,287.3 -2.539317,43.198523,287.5 -2.539315,43.198533,287.7 -2.539308,43.198547,287.6 -2.539303,43.198559,287.6 -2.539301,43.198573,287.4 -2.539300,43.198587,287.5 -2.539300,43.198601,287.7 -2.539299,43.198613,287.6 -2.539300,43.198625,287.8 -2.539300,43.198636,288.0 -2.539297,43.198647,288.3 -2.539295,43.198658,288.5 -2.539292,43.198668,288.6 -2.539296,43.198677,288.9 -2.539293,43.198686,289.1 -2.539296,43.198697,289.2 -2.539300,43.198708,289.4 -2.539305,43.198718,289.5 -2.539309,43.198728,289.6 -2.539312,43.198739,289.6 -2.539315,43.198749,289.6 -2.539319,43.198760,289.6 -2.539327,43.198772,289.6 -2.539336,43.198781,289.9 -2.539345,43.198792,290.0 -2.539352,43.198802,290.3 -2.539360,43.198815,290.7 -2.539369,43.198825,290.9 -2.539379,43.198837,291.0 -2.539386,43.198845,291.2 -2.539395,43.198853,291.4 -2.539405,43.198863,291.6 -2.539415,43.198871,291.9 -2.539423,43.198878,292.0 -2.539431,43.198887,292.2 -2.539440,43.198897,292.3 -2.539447,43.198907,292.5 -2.539456,43.198918,292.5 -2.539464,43.198928,292.6 -2.539471,43.198936,292.9 -2.539478,43.198945,293.1 -2.539487,43.198956,293.3 -2.539496,43.198966,293.3 -2.539501,43.198975,293.5 -2.539511,43.198984,293.4 -2.539518,43.198997,293.6 -2.539526,43.199007,293.8 -2.539536,43.199015,294.0 -2.539545,43.199024,294.2 -2.539553,43.199035,294.5 -2.539564,43.199045,294.7 -2.539578,43.199060,295.3 -2.539592,43.199074,295.6 -2.539602,43.199086,296.1 -2.539615,43.199101,296.5 -2.539629,43.199117,296.4 -2.539638,43.199132,296.6 -2.539652,43.199149,296.9 -2.539664,43.199167,297.2 -2.539680,43.199183,297.4 -2.539697,43.199202,297.6 -2.539708,43.199219,297.8 -2.539719,43.199238,297.9 -2.539729,43.199253,298.0 -2.539742,43.199271,298.3 -2.539754,43.199286,298.4 -2.539767,43.199302,298.9 -2.539778,43.199317,298.8 -2.539791,43.199330,299.1 -2.539802,43.199342,299.3 -2.539814,43.199356,299.5 -2.539826,43.199368,299.6 -2.539839,43.199383,299.8 -2.539853,43.199398,300.2 -2.539869,43.199412,300.4 -2.539885,43.199424,300.6 -2.539902,43.199436,300.9 -2.539919,43.199449,301.0 -2.539934,43.199459,301.2 -2.539949,43.199470,301.4 -2.539968,43.199483,301.7 -2.539987,43.199493,302.1 -2.540008,43.199504,302.0 -2.540022,43.199514,302.3 -2.540037,43.199527,302.4 -2.540055,43.199535,302.4 -2.540077,43.199544,302.6 -2.540100,43.199552,302.8 -2.540120,43.199559,302.8 -2.540139,43.199564,303.1 -2.540158,43.199573,303.3 -2.540176,43.199582,303.4 -2.540195,43.199587,303.7 -2.540215,43.199592,303.9 -2.540234,43.199598,303.9 -2.540250,43.199607,304.1 -2.540267,43.199613,304.0 -2.540286,43.199617,304.2 -2.540302,43.199624,304.4 -2.540320,43.199632,304.8 -2.540337,43.199644,305.1 -2.540351,43.199649,305.3 -2.540371,43.199653,305.3 -2.540393,43.199660,305.3 -2.540410,43.199662,305.4 -2.540428,43.199667,305.4 -2.540448,43.199674,305.7 -2.540468,43.199678,305.8 -2.540489,43.199684,306.0 -2.540511,43.199690,306.3 -2.540528,43.199695,306.7 -2.540548,43.199700,306.6 -2.540567,43.199705,306.8 -2.540586,43.199709,307.1 -2.540606,43.199714,307.3 -2.540622,43.199720,307.4 -2.540639,43.199726,307.6 -2.540655,43.199733,307.8 -2.540673,43.199739,308.3 -2.540692,43.199744,308.4 -2.540710,43.199751,308.8 -2.540728,43.199758,309.0 -2.540746,43.199766,309.0 -2.540763,43.199775,309.3 -2.540782,43.199784,309.2 -2.540800,43.199794,309.4 -2.540814,43.199805,309.7 -2.540829,43.199817,309.9 -2.540841,43.199828,309.9 -2.540851,43.199839,310.0 -2.540865,43.199852,310.2 -2.540879,43.199864,310.2 -2.540888,43.199875,310.4 -2.540900,43.199888,310.4 -2.540913,43.199902,310.4 -2.540922,43.199914,310.6 -2.540930,43.199928,310.9 -2.540938,43.199940,311.0 -2.540946,43.199954,311.4 -2.540953,43.199967,311.6 -2.540957,43.199982,311.9 -2.540963,43.199997,312.1 -2.540971,43.200009,312.0 -2.540981,43.200021,312.3 -2.540989,43.200035,312.5 -2.540997,43.200048,312.5 -2.541004,43.200059,312.7 -2.541012,43.200071,312.8 -2.541020,43.200084,313.0 -2.541032,43.200097,313.3 -2.541043,43.200110,313.4 -2.541055,43.200121,313.6 -2.541069,43.200134,313.7 -2.541082,43.200144,313.8 -2.541096,43.200155,314.1 -2.541110,43.200167,314.3 -2.541123,43.200181,314.5 -2.541137,43.200192,314.9 -2.541150,43.200203,315.1 -2.541162,43.200213,315.2 -2.541174,43.200225,315.7 -2.541189,43.200240,315.9 -2.541201,43.200250,316.0 -2.541215,43.200261,316.2 -2.541231,43.200267,316.4 -2.541244,43.200278,316.6 -2.541257,43.200288,316.9 -2.541271,43.200300,316.9 -2.541284,43.200313,316.9 -2.541298,43.200326,317.1 -2.541313,43.200336,317.1 -2.541324,43.200347,317.1 -2.541339,43.200358,317.1 -2.541352,43.200367,317.3 -2.541365,43.200377,317.4 -2.541380,43.200387,317.7 -2.541394,43.200396,317.8 -2.541406,43.200406,318.0 -2.541422,43.200415,318.1 -2.541436,43.200423,318.2 -2.541450,43.200432,318.3 -2.541466,43.200438,318.4 -2.541481,43.200440,318.8 -2.541499,43.200442,319.0 -2.541515,43.200449,319.2 -2.541531,43.200455,319.7 -2.541550,43.200461,320.1 -2.541571,43.200465,320.2 -2.541591,43.200468,320.4 -2.541613,43.200471,320.4 -2.541631,43.200474,320.4 -2.541651,43.200476,320.4 -2.541671,43.200479,320.6 -2.541693,43.200483,320.6 -2.541711,43.200486,320.7 -2.541734,43.200489,320.8 -2.541758,43.200492,320.9 -2.541774,43.200495,320.8 -2.541789,43.200499,321.0 -2.541810,43.200502,321.2 -2.541828,43.200503,321.2 -2.541845,43.200506,321.5 -2.541865,43.200511,321.6 -2.541884,43.200519,321.8 -2.541899,43.200527,321.9 -2.541914,43.200535,322.1 -2.541927,43.200545,322.3 -2.541940,43.200558,322.4 -2.541953,43.200571,322.7 -2.541964,43.200585,322.8 -2.541972,43.200602,323.0 -2.541981,43.200618,323.2 -2.541990,43.200631,323.3 -2.541999,43.200647,323.2 -2.542005,43.200661,323.2 -2.542013,43.200674,323.4 -2.542023,43.200687,323.4 -2.542034,43.200696,323.6 -2.542046,43.200706,323.9 -2.542060,43.200717,324.0 -2.542078,43.200729,324.2 -2.542089,43.200740,324.3 -2.542102,43.200755,324.5 -2.542113,43.200769,324.7 -2.542125,43.200778,324.6 -2.542140,43.200788,324.9 -2.542154,43.200798,325.1 -2.542169,43.200807,325.0 -2.542184,43.200820,325.2 -2.542196,43.200828,325.2 -2.542209,43.200836,325.5 -2.542223,43.200844,325.4 -2.542235,43.200854,325.7 -2.542248,43.200863,325.8 -2.542266,43.200873,325.9 -2.542280,43.200878,326.1 -2.542296,43.200884,326.1 -2.542314,43.200890,326.3 -2.542327,43.200896,326.3 -2.542345,43.200905,326.4 -2.542360,43.200911,326.7 -2.542377,43.200918,326.8 -2.542397,43.200923,327.0 -2.542414,43.200925,327.3 -2.542431,43.200927,327.6 -2.542453,43.200933,327.8 -2.542474,43.200936,328.1 -2.542497,43.200934,328.3 -2.542518,43.200936,328.5 -2.542538,43.200937,328.4 -2.542558,43.200935,328.6 -2.542575,43.200932,329.1 -2.542592,43.200929,329.2 -2.542606,43.200925,329.4 -2.542620,43.200924,329.8 -2.542634,43.200922,330.0 -2.542650,43.200919,330.5 -2.542668,43.200917,330.6 -2.542686,43.200913,330.8 -2.542701,43.200907,331.0 -2.542718,43.200901,331.3 -2.542734,43.200896,331.3 -2.542752,43.200890,331.5 -2.542771,43.200881,331.4 -2.542789,43.200874,331.4 -2.542807,43.200867,331.5 -2.542825,43.200860,331.6 -2.542844,43.200855,331.8 -2.542863,43.200849,332.0 -2.542881,43.200841,332.0 -2.542900,43.200833,332.0 -2.542922,43.200824,332.2 -2.542940,43.200818,332.4 -2.542957,43.200811,332.6 -2.542977,43.200802,332.9 -2.542994,43.200795,333.0 -2.543014,43.200790,333.1 -2.543038,43.200786,333.3 -2.543059,43.200782,333.2 -2.543081,43.200780,333.3 -2.543107,43.200779,333.4 -2.543132,43.200780,333.8 -2.543154,43.200782,334.0 -2.543177,43.200786,334.2 -2.543198,43.200793,334.5 -2.543220,43.200801,334.6 -2.543237,43.200809,334.8 -2.543253,43.200818,335.0 -2.543266,43.200829,335.5 -2.543266,43.200844,335.5 -2.543270,43.200852,335.7 -2.543272,43.200858,335.7 -2.543270,43.200858,335.6 -2.543269,43.200857,335.4 -2.543269,43.200858,335.4 -2.543270,43.200859,335.5 -2.543272,43.200859,335.4 -2.543273,43.200859,335.4 -2.543273,43.200859,335.4 -2.543273,43.200859,335.5 -2.543273,43.200859,335.2 -2.543273,43.200859,335.3 -2.543279,43.200855,335.1 -2.543293,43.200863,335.1 -2.543310,43.200872,335.0 -2.543325,43.200881,335.0 -2.543332,43.200889,335.2 -2.543345,43.200897,335.2 -2.543352,43.200905,335.4 -2.543364,43.200916,335.8 -2.543374,43.200926,336.1 -2.543384,43.200935,336.2 -2.543394,43.200949,336.5 -2.543406,43.200961,336.6 -2.543416,43.200970,336.6 -2.543425,43.200983,336.8 -2.543436,43.200998,336.9 -2.543446,43.201011,337.2 -2.543461,43.201025,337.7 -2.543474,43.201038,337.8 -2.543490,43.201051,338.0 -2.543502,43.201070,338.5 -2.543518,43.201083,338.7 -2.543529,43.201099,339.1 -2.543537,43.201117,339.3 -2.543546,43.201131,339.5 -2.543557,43.201151,339.6 -2.543567,43.201166,339.8 -2.543573,43.201179,340.0 -2.543584,43.201193,340.0 -2.543595,43.201207,340.2 -2.543605,43.201218,340.3 -2.543612,43.201234,340.4 -2.543619,43.201246,340.4 -2.543628,43.201262,340.5 -2.543637,43.201276,340.6 -2.543640,43.201290,340.8 -2.543648,43.201307,341.0 -2.543659,43.201322,341.3 -2.543670,43.201338,341.4 -2.543680,43.201351,341.5 -2.543690,43.201365,341.4 -2.543698,43.201377,341.2 -2.543708,43.201390,341.2 -2.543717,43.201402,341.4 -2.543728,43.201416,341.6 -2.543740,43.201429,341.8 -2.543755,43.201442,342.1 -2.543771,43.201458,342.1 -2.543783,43.201470,342.3 -2.543798,43.201481,342.5 -2.543811,43.201495,342.7 -2.543823,43.201510,342.6 -2.543833,43.201519,342.6 -2.543848,43.201536,343.1 -2.543863,43.201551,343.4 -2.543878,43.201565,343.5 -2.543891,43.201575,343.7 -2.543903,43.201582,343.6 -2.543910,43.201594,343.6 -2.543915,43.201601,343.7 -2.543918,43.201605,343.9 -2.543920,43.201610,344.0 -2.543922,43.201611,344.2 -2.543925,43.201610,344.4 -2.543925,43.201610,344.5 -2.543926,43.201609,344.2 -2.543926,43.201609,344.2 -2.543926,43.201609,344.1 -2.543926,43.201609,344.1 -2.543935,43.201605,343.8 -2.543955,43.201611,343.6 -2.543975,43.201619,343.6 -2.543991,43.201627,343.7 -2.544006,43.201634,343.6 -2.544025,43.201642,343.8 -2.544047,43.201653,344.0 -2.544065,43.201663,344.3 -2.544083,43.201670,344.5 -2.544100,43.201677,344.5 -2.544120,43.201683,344.6 -2.544143,43.201689,344.7 -2.544160,43.201699,344.9 -2.544181,43.201704,344.8 -2.544204,43.201711,345.0 -2.544226,43.201719,345.0 -2.544246,43.201725,345.2 -2.544267,43.201732,345.3 -2.544287,43.201739,345.5 -2.544309,43.201746,345.4 -2.544331,43.201753,345.7 -2.544352,43.201759,345.7 -2.544371,43.201767,345.6 -2.544392,43.201769,345.8 -2.544410,43.201776,345.8 -2.544426,43.201783,346.0 -2.544447,43.201787,346.2 -2.544471,43.201795,346.2 -2.544491,43.201804,346.4 -2.544509,43.201809,346.2 -2.544528,43.201813,346.2 -2.544545,43.201817,346.3 -2.544558,43.201822,346.3 -2.544574,43.201829,346.3 -2.544589,43.201835,346.4 -2.544609,43.201841,346.6 -2.544624,43.201846,346.9 -2.544640,43.201851,346.9 -2.544655,43.201858,347.0 -2.544671,43.201864,347.2 -2.544687,43.201868,347.2 -2.544701,43.201873,347.2 -2.544728,43.201875,347.5 -2.544750,43.201880,347.5 -2.544770,43.201887,347.5 -2.544789,43.201891,347.5 -2.544807,43.201897,347.7 -2.544826,43.201903,347.7 -2.544843,43.201911,347.6 -2.544859,43.201919,347.9 -2.544877,43.201928,347.8 -2.544893,43.201934,347.9 -2.544909,43.201940,347.6 -2.544923,43.201947,347.6 -2.544937,43.201955,347.8 -2.544952,43.201962,347.8 -2.544970,43.201970,347.8 -2.544986,43.201980,347.9 -2.545004,43.201989,347.8 -2.545020,43.201999,347.9 -2.545037,43.202007,347.8 -2.545050,43.202015,348.1 -2.545066,43.202026,348.1 -2.545082,43.202035,348.1 -2.545096,43.202044,348.2 -2.545109,43.202055,348.3 -2.545124,43.202064,348.4 -2.545139,43.202074,348.4 -2.545154,43.202085,348.6 -2.545170,43.202095,348.8 -2.545186,43.202104,349.1 -2.545200,43.202115,349.2 -2.545212,43.202124,349.7 -2.545225,43.202133,349.9 -2.545235,43.202143,350.0 -2.545246,43.202152,350.2 -2.545261,43.202164,350.4 -2.545272,43.202176,350.8 -2.545286,43.202188,351.1 -2.545296,43.202205,351.4 -2.545308,43.202214,351.6 -2.545319,43.202223,352.0 -2.545334,43.202231,352.3 -2.545348,43.202242,352.3 -2.545363,43.202253,352.4 -2.545377,43.202267,352.7 -2.545384,43.202273,352.6 -2.545385,43.202277,352.7 -2.545389,43.202281,352.7 -2.545391,43.202281,352.6 -2.545390,43.202281,352.4 -2.545390,43.202281,352.4 -2.545390,43.202281,352.4 -2.545390,43.202281,352.2 -2.545390,43.202281,352.3 -2.545390,43.202281,352.3 -2.545390,43.202281,352.2 -2.545390,43.202281,352.3 -2.545390,43.202281,352.2 -2.545390,43.202281,352.3 -2.545390,43.202281,352.1 -2.545390,43.202281,352.1 -2.545390,43.202281,351.8 -2.545391,43.202278,351.9 -2.545406,43.202285,351.7 -2.545429,43.202294,351.6 -2.545447,43.202301,351.6 -2.545471,43.202304,351.9 -2.545500,43.202310,352.1 -2.545522,43.202314,352.5 -2.545539,43.202315,353.1 -2.545550,43.202311,353.5 -2.545567,43.202313,353.4 -2.545588,43.202319,353.5 -2.545608,43.202326,353.5 -2.545631,43.202328,353.5 -2.545656,43.202330,353.6 -2.545678,43.202333,353.6 -2.545700,43.202338,354.0 -2.545719,43.202342,354.2 -2.545732,43.202340,354.7 -2.545736,43.202344,354.8 -2.545739,43.202345,355.0 -2.545738,43.202344,355.1 -2.545738,43.202343,355.0 -2.545738,43.202343,354.9 -2.545738,43.202343,354.9 -2.545738,43.202343,354.8 -2.545738,43.202343,355.1 -2.545738,43.202343,355.0 -2.545738,43.202343,355.2 -2.545738,43.202343,355.2 -2.545743,43.202340,355.2 -2.545745,43.202338,355.3 -2.545738,43.202343,355.1 -2.545738,43.202343,355.1 -2.545738,43.202343,354.9 -2.545738,43.202343,354.6 -2.545738,43.202343,354.6 -2.545738,43.202343,354.4 -2.545738,43.202343,354.2 -2.545756,43.202337,354.0 -2.545757,43.202336,354.1 -2.545757,43.202336,354.0 -2.545757,43.202336,354.0 -2.545762,43.202334,354.0 -2.545775,43.202339,354.1 -2.545784,43.202340,354.1 -2.545784,43.202337,354.2 -2.545785,43.202336,354.2 -2.545782,43.202349,354.5 -2.545781,43.202358,354.5 -2.545786,43.202358,354.4 -2.545806,43.202352,354.3 -2.545827,43.202351,354.3 -2.545855,43.202351,354.1 -2.545876,43.202356,354.1 -2.545897,43.202363,354.0 -2.545913,43.202368,354.2 -2.545924,43.202369,354.5 -2.545934,43.202364,354.6 -2.545932,43.202368,354.9 -2.545927,43.202364,355.1 -2.545927,43.202350,355.1 -2.545926,43.202348,355.3 -2.545925,43.202344,355.2 -2.545924,43.202339,355.5 -2.545926,43.202335,355.7 -2.545924,43.202335,355.8 -2.545927,43.202336,355.9 -2.545934,43.202350,355.8 -2.545953,43.202372,355.6 -2.545979,43.202381,355.3 -2.546013,43.202389,355.1 -2.546046,43.202392,354.7 -2.546073,43.202397,354.7 -2.546103,43.202395,354.5 -2.546135,43.202396,354.5 -2.546167,43.202401,354.4 -2.546191,43.202405,354.5 -2.546217,43.202409,354.7 -2.546241,43.202412,354.7 -2.546265,43.202414,354.8 -2.546289,43.202419,355.0 -2.546315,43.202424,355.2 -2.546338,43.202429,355.5 -2.546359,43.202428,355.5 -2.546381,43.202429,355.7 -2.546404,43.202430,355.8 -2.546428,43.202432,355.9 -2.546453,43.202437,356.0 -2.546477,43.202439,356.3 -2.546501,43.202441,356.2 -2.546529,43.202438,356.2 -2.546551,43.202441,356.3 -2.546575,43.202444,356.3 -2.546600,43.202448,356.4 -2.546627,43.202452,356.8 -2.546654,43.202453,357.2 -2.546680,43.202458,357.5 -2.546710,43.202459,357.9 -2.546739,43.202461,358.0 -2.546761,43.202466,358.0 -2.546780,43.202468,358.2 -2.546804,43.202472,358.5 -2.546829,43.202470,358.7 -2.546851,43.202472,358.8 -2.546876,43.202475,359.1 -2.546900,43.202474,359.4 -2.546928,43.202476,359.6 -2.546953,43.202475,359.6 -2.546980,43.202477,359.6 -2.547001,43.202479,359.9 -2.547027,43.202482,360.0 -2.547052,43.202493,360.0 -2.547075,43.202500,360.0 -2.547097,43.202504,360.0 -2.547120,43.202516,360.0 -2.547143,43.202524,360.1 -2.547163,43.202534,360.0 -2.547183,43.202544,360.0 -2.547205,43.202556,360.3 -2.547224,43.202567,360.4 -2.547242,43.202580,360.4 -2.547258,43.202584,360.5 -2.547278,43.202590,360.4 -2.547287,43.202592,360.3 -2.547284,43.202593,360.3 -2.547282,43.202595,360.1 -2.547282,43.202594,360.1 -2.547282,43.202594,360.0 -2.547282,43.202594,360.1 -2.547282,43.202594,360.1 -2.547282,43.202594,359.8 -2.547282,43.202594,359.9 -2.547282,43.202594,359.6 -2.547276,43.202590,359.6 -2.547269,43.202599,359.7 -2.547269,43.202615,359.5 -2.547273,43.202636,359.5 -2.547273,43.202656,359.5 -2.547274,43.202681,359.4 -2.547280,43.202703,359.5 -2.547290,43.202721,359.7 -2.547303,43.202724,359.8 -2.547316,43.202729,360.1 -2.547327,43.202730,360.1 -2.547332,43.202732,360.0 -2.547330,43.202734,360.0 -2.547330,43.202734,360.0 -2.547330,43.202734,359.9 -2.547330,43.202734,359.7 -2.547330,43.202734,359.5 -2.547330,43.202734,359.5 -2.547330,43.202734,359.4 -2.547330,43.202734,359.3 -2.547330,43.202734,359.2 -2.547330,43.202734,359.2 -2.547330,43.202734,359.2 -2.547330,43.202734,359.3 -2.547330,43.202734,359.0 -2.547330,43.202734,358.8 -2.547330,43.202734,358.8 -2.547330,43.202734,358.7 -2.547330,43.202734,358.4 -2.547330,43.202734,358.3 -2.547330,43.202734,358.3 -2.547330,43.202734,358.0 -2.547327,43.202734,358.1 -2.547327,43.202751,357.8 -2.547330,43.202765,358.0 -2.547336,43.202783,358.0 -2.547344,43.202801,358.4 -2.547343,43.202820,358.6 -2.547341,43.202839,358.8 -2.547351,43.202861,358.8 -2.547358,43.202880,358.8 -2.547367,43.202901,358.9 -2.547374,43.202920,359.0 -2.547377,43.202937,359.3 -2.547388,43.202957,359.7 -2.547399,43.202973,359.8 -2.547409,43.202994,360.3 -2.547422,43.203010,360.7 -2.547434,43.203024,361.2 -2.547443,43.203040,361.7 -2.547451,43.203057,362.3 -2.547448,43.203071,362.6 -2.547451,43.203080,362.8 -2.547456,43.203085,362.9 -2.547460,43.203087,362.7 -2.547462,43.203089,362.2 -2.547462,43.203089,362.2 -2.547462,43.203089,362.3 -2.547462,43.203089,362.3 -2.547462,43.203089,362.3 -2.547462,43.203089,362.2 -2.547462,43.203089,362.2 -2.547462,43.203089,362.3 -2.547462,43.203089,362.0 -2.547462,43.203089,362.0 -2.547462,43.203089,362.0 -2.547462,43.203089,362.1 -2.547462,43.203089,361.8 -2.547462,43.203089,361.8 -2.547462,43.203089,361.9 -2.547462,43.203089,361.7 -2.547462,43.203089,361.5 -2.547459,43.203090,361.5 -2.547466,43.203101,361.5 -2.547481,43.203120,361.4 -2.547497,43.203143,361.5 -2.547516,43.203165,361.9 -2.547533,43.203186,362.2 -2.547551,43.203207,362.4 -2.547572,43.203228,362.8 -2.547591,43.203248,363.3 -2.547610,43.203264,363.7 -2.547630,43.203281,363.9 -2.547649,43.203293,364.3 -2.547673,43.203307,364.6 -2.547700,43.203322,364.8 -2.547724,43.203338,365.3 -2.547745,43.203350,365.7 -2.547767,43.203361,366.0 -2.547788,43.203369,366.3 -2.547811,43.203372,366.4 -2.547828,43.203375,366.6 -2.547847,43.203381,366.8 -2.547865,43.203388,367.0 -2.547883,43.203396,367.3 -2.547902,43.203403,367.3 -2.547914,43.203413,367.4 -2.547929,43.203414,367.4 -2.547931,43.203414,367.4 -2.547929,43.203424,367.7 -2.547941,43.203434,367.7 -2.547956,43.203438,367.7 -2.547970,43.203442,367.8 -2.547976,43.203450,367.8 -2.547979,43.203454,368.0 -2.547984,43.203457,368.1 -2.547986,43.203458,367.9 -2.547986,43.203458,367.9 -2.547986,43.203458,367.9 -2.547986,43.203458,367.9 -2.547986,43.203458,367.9 -2.547986,43.203458,367.8 -2.547986,43.203458,367.8 -2.547986,43.203458,368.1 -2.547986,43.203458,368.2 -2.547986,43.203458,368.5 -2.547986,43.203458,368.6 -2.547986,43.203458,369.0 -2.547986,43.203458,369.0 -2.547986,43.203458,369.2 -2.547986,43.203458,369.5 -2.547986,43.203458,369.5 -2.547986,43.203458,369.4 -2.547986,43.203458,369.4 -2.547986,43.203458,369.4 -2.547986,43.203458,369.6 -2.547986,43.203458,369.7 -2.547986,43.203458,369.9 -2.547986,43.203458,369.9 -2.547986,43.203458,370.0 -2.547986,43.203458,370.0 -2.547986,43.203458,370.1 -2.547986,43.203458,370.1 -2.547986,43.203458,370.0 -2.547986,43.203458,370.1 -2.547986,43.203458,370.3 -2.547986,43.203458,370.2 -2.547986,43.203458,370.5 -2.547986,43.203458,370.5 -2.547986,43.203458,370.4 -2.547986,43.203458,370.4 -2.547986,43.203458,370.4 -2.547986,43.203458,370.4 -2.547986,43.203458,370.6 -2.547986,43.203458,370.6 -2.547986,43.203458,370.7 -2.547986,43.203458,370.5 -2.547986,43.203458,370.4 -2.547986,43.203458,370.4 -2.547986,43.203458,370.3 -2.547986,43.203458,370.2 -2.547986,43.203458,370.3 -2.547986,43.203458,370.1 -2.547986,43.203458,370.0 -2.547986,43.203458,370.0 -2.547986,43.203458,370.0 -2.547986,43.203458,370.0 -2.547986,43.203458,370.1 -2.547986,43.203458,369.8 -2.547986,43.203458,369.8 -2.547986,43.203458,369.8 -2.547986,43.203458,369.6 -2.547986,43.203458,369.7 -2.547986,43.203458,369.5 -2.547986,43.203458,369.4 -2.547986,43.203458,369.4 -2.547986,43.203458,369.3 -2.547986,43.203458,369.3 -2.547986,43.203458,369.2 -2.547986,43.203458,369.2 -2.547986,43.203458,369.2 -2.547986,43.203458,369.3 -2.547986,43.203458,369.3 -2.547986,43.203458,369.3 -2.547986,43.203458,369.3 -2.547986,43.203458,369.2 -2.547986,43.203458,369.3 -2.547986,43.203458,369.2 -2.547986,43.203458,369.3 -2.547986,43.203458,369.2 -2.547986,43.203458,369.3 -2.547986,43.203458,369.0 -2.547986,43.203458,369.2 -2.547986,43.203458,369.2 -2.547986,43.203458,369.2 -2.547986,43.203458,369.2 -2.547986,43.203458,369.3 -2.547986,43.203458,369.2 -2.547986,43.203458,369.0 -2.547986,43.203458,369.1 -2.547986,43.203458,369.0 -2.547986,43.203458,369.0 -2.547986,43.203458,369.3 -2.547986,43.203458,369.3 -2.547986,43.203458,369.2 -2.547986,43.203458,369.4 -2.547986,43.203458,369.2 -2.547986,43.203458,369.2 -2.547986,43.203458,369.0 -2.547985,43.203451,369.1 -2.547988,43.203452,368.9 -2.547984,43.203448,368.8 -2.547984,43.203444,369.1 -2.547982,43.203445,369.3 -2.547982,43.203445,369.3 -2.547982,43.203445,369.3 -2.547982,43.203445,369.3 -2.547982,43.203445,369.0 -2.547982,43.203445,369.0 -2.547982,43.203445,369.0 -2.547982,43.203445,368.9 -2.547982,43.203445,368.8 -2.547982,43.203445,368.9 -2.547982,43.203445,368.9 -2.547982,43.203445,368.9 -2.547982,43.203445,368.6 -2.547982,43.203445,368.6 -2.547982,43.203445,368.6 -2.547982,43.203445,368.6 -2.547982,43.203445,368.7 -2.547982,43.203445,368.6 -2.547982,43.203445,368.8 -2.547982,43.203445,368.9 -2.547982,43.203445,368.9 -2.547982,43.203445,368.8 -2.547984,43.203442,368.8 -2.547982,43.203445,368.8 -2.547982,43.203445,368.8 -2.547982,43.203445,369.0 -2.547982,43.203445,369.0 -2.547982,43.203445,368.8 -2.547982,43.203445,368.9 -2.547982,43.203445,368.8 -2.547982,43.203445,368.6 -2.547982,43.203445,368.6 -2.547982,43.203445,368.7 -2.547982,43.203445,368.8 -2.547982,43.203445,368.9 -2.547982,43.203445,368.9 -2.547982,43.203445,368.9 -2.547982,43.203445,368.8 -2.547982,43.203445,368.9 -2.547982,43.203445,368.9 -2.547982,43.203445,368.7 -2.547982,43.203445,368.7 -2.547982,43.203445,368.6 -2.547982,43.203445,368.6 -2.547982,43.203445,368.6 -2.547982,43.203445,368.9 -2.547991,43.203446,369.0 -2.547982,43.203445,369.2 -2.547982,43.203445,369.5 -2.547982,43.203445,369.6 -2.547982,43.203445,369.7 -2.547982,43.203445,369.9 -2.547982,43.203445,370.1 -2.547982,43.203445,370.1 -2.547982,43.203445,370.2 -2.547982,43.203445,370.3 -2.547982,43.203445,370.4 -2.547982,43.203445,370.4 -2.547982,43.203445,370.5 -2.547982,43.203445,370.4 -2.547982,43.203445,370.4 -2.547982,43.203445,370.5 -2.547982,43.203445,370.3 -2.547982,43.203445,370.3 -2.547982,43.203445,370.2 -2.547982,43.203445,370.3 -2.547982,43.203445,370.3 -2.547982,43.203445,370.3 -2.547995,43.203442,370.0 -2.547986,43.203443,370.0 -2.548003,43.203440,370.2 -2.548007,43.203442,370.3 -2.548007,43.203443,370.3 -2.548016,43.203441,370.2 -2.548015,43.203442,370.2 -2.548016,43.203440,370.1 -2.548016,43.203441,370.1 -2.548017,43.203445,369.9 -2.548026,43.203443,370.1 -2.548028,43.203442,370.1 -2.548020,43.203442,370.1 -2.548014,43.203441,370.2 -2.548007,43.203442,370.2 -2.548012,43.203443,370.2 -2.548015,43.203440,370.2 -2.548023,43.203441,370.3 -2.548026,43.203439,370.1 -2.548033,43.203438,370.0 -2.548031,43.203433,370.1 -2.548035,43.203434,370.1 -2.548034,43.203432,369.8 -2.548033,43.203431,369.9 -2.548033,43.203431,369.7 -2.548033,43.203431,369.4 -2.548033,43.203431,369.4 -2.548033,43.203431,369.4 -2.548033,43.203431,369.4 -2.548033,43.203431,369.4 -2.548033,43.203431,369.4 -2.548033,43.203431,369.7 -2.548033,43.203431,369.6 -2.548033,43.203431,369.4 -2.548033,43.203431,369.5 -2.548033,43.203431,369.2 -2.548033,43.203431,369.2 -2.548033,43.203431,369.0 -2.548033,43.203431,368.8 -2.548033,43.203431,368.7 -2.548033,43.203431,368.6 -2.548033,43.203431,368.6 -2.548033,43.203431,368.4 -2.548033,43.203431,368.4 -2.548033,43.203431,368.4 -2.548033,43.203431,368.4 -2.548033,43.203431,368.3 -2.548033,43.203431,368.2 -2.548033,43.203431,368.2 -2.548033,43.203431,368.4 -2.548033,43.203431,368.7 -2.548033,43.203431,369.0 -2.548033,43.203431,369.2 -2.548036,43.203431,369.2 -2.548041,43.203435,369.2 -2.548041,43.203437,369.3 -2.548042,43.203438,369.5 -2.548044,43.203440,369.5 -2.548045,43.203438,369.5 -2.548045,43.203437,369.5 -2.548042,43.203439,369.7 -2.548044,43.203438,369.7 -2.548050,43.203442,369.6 -2.548045,43.203438,369.9 -2.548033,43.203431,369.9 -2.548033,43.203431,369.7 -2.548033,43.203431,369.8 -2.548033,43.203431,369.8 -2.548033,43.203431,369.9 -2.548033,43.203431,370.0 -2.548033,43.203431,370.2 -2.548033,43.203431,370.7 -2.548033,43.203431,370.8 -2.548033,43.203431,371.0 -2.548033,43.203431,371.2 -2.548047,43.203442,371.2 -2.548057,43.203441,371.5 -2.548059,43.203443,371.4 -2.548056,43.203446,371.6 -2.548060,43.203449,371.6 -2.548065,43.203450,371.8 -2.548072,43.203449,371.9 -2.548070,43.203450,372.0 -2.548071,43.203450,372.3 -2.548071,43.203450,372.5 -2.548071,43.203450,372.4 -2.548071,43.203450,372.6 -2.548081,43.203451,372.7 -2.548071,43.203450,372.7 -2.548088,43.203449,372.7 -2.548102,43.203449,372.6 -2.548104,43.203453,372.8 -2.548113,43.203456,373.0 -2.548122,43.203454,373.0 -2.548122,43.203454,373.1 -2.548122,43.203454,372.9 -2.548122,43.203454,372.7 -2.548122,43.203454,372.4 -2.548122,43.203454,372.5 -2.548122,43.203454,372.4 -2.548122,43.203454,372.4 -2.548122,43.203454,372.6 -2.548122,43.203454,372.6 -2.548122,43.203454,372.7 -2.548122,43.203454,372.6 -2.548127,43.203462,372.8 -2.548128,43.203464,372.8 -2.548126,43.203463,372.8 -2.548125,43.203464,372.6 -2.548125,43.203464,372.7 -2.548124,43.203459,372.7 -2.548131,43.203458,372.4 -2.548142,43.203461,372.4 -2.548143,43.203462,372.7 -2.548147,43.203462,372.7 -2.548157,43.203465,372.6 -2.548159,43.203467,372.7 -2.548159,43.203466,372.7 -2.548159,43.203465,372.6 -2.548158,43.203465,372.4 -2.548298,43.203478,370.9 -2.548323,43.203484,371.1 -2.548349,43.203490,371.2 -2.548378,43.203498,371.4 -2.548407,43.203505,371.9 -2.548437,43.203518,372.3 -2.548465,43.203526,372.5 -2.548495,43.203540,372.9 -2.548517,43.203553,373.1 -2.548538,43.203567,373.3 -2.548559,43.203579,373.5 -2.548581,43.203592,373.6 -2.548599,43.203607,373.8 -2.548614,43.203623,374.3 -2.548629,43.203636,374.4 -2.548642,43.203650,374.6 -2.548655,43.203664,374.9 -2.548666,43.203677,375.3 -2.548678,43.203691,375.6 -2.548689,43.203707,376.1 -2.548700,43.203725,376.4 -2.548711,43.203740,376.9 -2.548724,43.203755,377.0 -2.548737,43.203770,377.2 -2.548750,43.203784,377.6 -2.548758,43.203801,377.8 -2.548770,43.203816,377.9 -2.548789,43.203831,378.3 -2.548809,43.203841,378.4 -2.548827,43.203854,378.7 -2.548844,43.203867,378.9 -2.548859,43.203880,379.3 -2.548875,43.203895,379.5 -2.548887,43.203910,379.6 -2.548900,43.203923,380.1 -2.548917,43.203939,380.2 -2.548931,43.203953,380.5 -2.548948,43.203968,380.6 -2.548962,43.203984,380.6 -2.548977,43.204001,380.8 -2.548990,43.204018,381.1 -2.549000,43.204036,381.3 -2.549012,43.204054,381.2 -2.549026,43.204069,381.4 -2.549036,43.204084,381.4 -2.549043,43.204102,381.6 -2.549052,43.204120,381.6 -2.549061,43.204137,381.9 -2.549071,43.204152,382.1 -2.549080,43.204169,382.5 -2.549087,43.204189,382.8 -2.549094,43.204207,383.0 -2.549101,43.204225,383.3 -2.549107,43.204243,383.4 -2.549115,43.204262,383.5 -2.549121,43.204281,383.4 -2.549126,43.204301,383.7 -2.549132,43.204321,383.9 -2.549137,43.204344,383.8 -2.549140,43.204366,384.0 -2.549143,43.204389,384.2 -2.549147,43.204409,384.5 -2.549151,43.204427,384.6 -2.549151,43.204444,384.8 -2.549150,43.204459,385.0 -2.549146,43.204477,385.0 -2.549141,43.204494,385.2 -2.549136,43.204507,385.2 -2.549128,43.204519,385.4 -2.549120,43.204531,385.7 -2.549117,43.204546,385.7 -2.549111,43.204563,385.8 -2.549098,43.204576,386.0 -2.549084,43.204588,386.2 -2.549074,43.204599,386.2 -2.549065,43.204610,386.4 -2.549049,43.204625,386.6 -2.549039,43.204637,386.6 -2.549030,43.204649,386.8 -2.549019,43.204661,386.8 -2.549007,43.204678,387.1 -2.548998,43.204696,387.1 -2.548994,43.204713,387.3 -2.548988,43.204730,387.6 -2.548983,43.204745,388.1 -2.548979,43.204760,388.4 -2.548978,43.204773,388.6 -2.548979,43.204788,388.9 -2.548979,43.204800,389.1 -2.548981,43.204810,389.2 -2.548985,43.204825,389.2 -2.548993,43.204836,389.7 -2.549002,43.204847,389.9 -2.549013,43.204860,390.0 -2.549022,43.204874,390.3 -2.549035,43.204882,390.5 -2.549048,43.204891,390.5 -2.549058,43.204898,390.7 -2.549071,43.204908,390.9 -2.549084,43.204912,391.1 -2.549095,43.204920,391.1 -2.549109,43.204928,391.2 -2.549125,43.204935,391.4 -2.549143,43.204936,391.4 -2.549160,43.204941,391.6 -2.549176,43.204945,391.9 -2.549195,43.204952,392.1 -2.549209,43.204957,392.0 -2.549229,43.204960,392.3 -2.549250,43.204965,392.5 -2.549266,43.204970,392.4 -2.549285,43.204975,392.7 -2.549306,43.204980,392.8 -2.549326,43.204985,393.1 -2.549347,43.204988,393.0 -2.549366,43.204994,393.0 -2.549383,43.205001,393.0 -2.549398,43.205007,393.2 -2.549419,43.205010,393.5 -2.549438,43.205014,393.6 -2.549458,43.205020,393.8 -2.549475,43.205024,394.0 -2.549489,43.205029,394.3 -2.549508,43.205031,394.3 -2.549525,43.205034,394.3 -2.549537,43.205037,394.2 -2.549547,43.205042,394.2 -2.549555,43.205045,394.5 -2.549561,43.205044,394.4 -2.549576,43.205046,394.6 -2.549592,43.205049,394.7 -2.549615,43.205054,394.6 -2.549633,43.205062,394.9 -2.549645,43.205070,394.8 -2.549654,43.205077,395.1 -2.549666,43.205085,395.1 -2.549675,43.205095,395.5 -2.549686,43.205105,395.7 -2.549697,43.205115,396.0 -2.549714,43.205124,396.4 -2.549729,43.205133,396.9 -2.549740,43.205143,397.2 -2.549753,43.205156,397.6 -2.549767,43.205173,398.3 -2.549775,43.205187,398.6 -2.549784,43.205199,399.1 -2.549797,43.205210,399.2 -2.549812,43.205223,399.5 -2.549830,43.205236,399.7 -2.549846,43.205252,399.9 -2.549865,43.205267,400.3 -2.549887,43.205284,400.4 -2.549907,43.205302,400.7 -2.549928,43.205319,400.8 -2.549947,43.205333,401.2 -2.549962,43.205343,401.4 -2.549984,43.205355,401.5 -2.550005,43.205360,401.7 -2.550027,43.205373,401.8 -2.550045,43.205382,402.2 -2.550063,43.205393,402.4 -2.550080,43.205406,402.6 -2.550097,43.205419,402.9 -2.550114,43.205429,403.3 -2.550127,43.205440,403.4 -2.550142,43.205455,403.7 -2.550156,43.205470,403.8 -2.550170,43.205487,404.0 -2.550180,43.205506,404.2 -2.550191,43.205525,404.5 -2.550202,43.205543,404.7 -2.550212,43.205563,404.9 -2.550220,43.205578,405.1 -2.550230,43.205592,405.3 -2.550241,43.205607,405.5 -2.550253,43.205625,405.7 -2.550264,43.205639,405.8 -2.550275,43.205650,406.1 -2.550285,43.205661,406.2 -2.550295,43.205671,406.5 -2.550308,43.205682,406.6 -2.550321,43.205691,406.8 -2.550336,43.205699,407.1 -2.550350,43.205709,407.3 -2.550361,43.205724,407.5 -2.550374,43.205736,407.6 -2.550386,43.205745,407.9 -2.550399,43.205757,408.1 -2.550412,43.205773,408.3 -2.550423,43.205784,408.7 -2.550437,43.205798,408.7 -2.550455,43.205813,408.9 -2.550469,43.205824,409.0 -2.550484,43.205837,409.2 -2.550497,43.205848,409.2 -2.550510,43.205856,409.4 -2.550523,43.205866,409.7 -2.550537,43.205873,409.9 -2.550559,43.205878,410.0 -2.550577,43.205883,410.2 -2.550603,43.205889,410.2 -2.550628,43.205894,410.5 -2.550652,43.205898,410.6 -2.550681,43.205901,410.6 -2.550709,43.205903,410.8 -2.550734,43.205900,411.0 -2.550754,43.205900,411.2 -2.550771,43.205898,411.4 -2.550797,43.205894,411.7 -2.550821,43.205894,411.8 -2.550837,43.205895,412.1 -2.550861,43.205896,412.3 -2.550883,43.205898,412.4 -2.550905,43.205900,412.6 -2.550930,43.205905,412.9 -2.550958,43.205911,412.9 -2.550978,43.205915,413.0 -2.550998,43.205920,413.3 -2.551016,43.205925,413.4 -2.551034,43.205934,413.6 -2.551051,43.205942,413.8 -2.551067,43.205954,413.9 -2.551083,43.205966,414.1 -2.551094,43.205977,414.3 -2.551111,43.205989,414.7 -2.551127,43.206001,414.9 -2.551131,43.206009,415.1 -2.551123,43.206002,415.2 -2.551120,43.206004,415.2 -2.551111,43.206010,415.4 -2.551110,43.206011,415.3 -2.551111,43.206011,415.3 -2.551112,43.206012,415.0 -2.551113,43.206013,414.8 -2.551113,43.206013,414.8 -2.551113,43.206013,414.8 -2.551113,43.206013,414.9 -2.551113,43.206013,414.9 -2.551113,43.206013,414.8 -2.551113,43.206013,414.6 -2.551127,43.206012,414.7 -2.551137,43.206022,414.6 -2.551151,43.206036,414.7 -2.551165,43.206053,414.9 -2.551180,43.206068,415.0 -2.551197,43.206078,415.4 -2.551210,43.206093,415.8 -2.551228,43.206105,416.0 -2.551246,43.206116,416.5 -2.551262,43.206127,416.8 -2.551281,43.206137,417.3 -2.551297,43.206150,417.5 -2.551318,43.206160,417.8 -2.551339,43.206170,418.0 -2.551357,43.206181,418.0 -2.551384,43.206193,418.3 -2.551402,43.206203,418.3 -2.551417,43.206211,418.3 -2.551429,43.206216,418.2 -2.551442,43.206223,418.2 -2.551462,43.206224,418.3 -2.551480,43.206231,418.4 -2.551500,43.206240,418.5 -2.551516,43.206249,418.6 -2.551527,43.206259,418.6 -2.551548,43.206268,418.6 -2.551568,43.206275,418.6 -2.551589,43.206283,418.5 -2.551610,43.206289,418.5 -2.551628,43.206296,418.3 -2.551637,43.206303,418.2 -2.551654,43.206313,418.2 -2.551669,43.206321,418.2 -2.551683,43.206331,418.3 -2.551697,43.206342,418.5 -2.551712,43.206355,418.4 -2.551726,43.206367,418.2 -2.551739,43.206377,418.2 -2.551754,43.206388,418.0 -2.551770,43.206399,417.9 -2.551786,43.206410,417.8 -2.551799,43.206420,417.9 -2.551811,43.206432,417.7 -2.551821,43.206443,417.7 -2.551835,43.206454,417.4 -2.551851,43.206466,417.4 -2.551865,43.206478,417.3 -2.551877,43.206491,417.3 -2.551886,43.206504,417.3 -2.551900,43.206519,417.1 -2.551911,43.206532,417.0 -2.551919,43.206547,416.9 -2.551923,43.206561,416.9 -2.551930,43.206573,416.6 -2.551940,43.206585,416.6 -2.551950,43.206599,416.4 -2.551961,43.206612,416.4 -2.551972,43.206626,416.4 -2.551985,43.206639,416.2 -2.552003,43.206650,416.3 -2.552016,43.206662,416.0 -2.552031,43.206675,416.1 -2.552043,43.206686,415.9 -2.552051,43.206697,415.9 -2.552063,43.206708,415.8 -2.552075,43.206722,415.6 -2.552090,43.206730,415.7 -2.552107,43.206741,415.7 -2.552123,43.206752,415.9 -2.552132,43.206757,415.9 -2.552155,43.206759,415.8 -2.552185,43.206761,415.8 -2.552211,43.206769,415.9 -2.552241,43.206785,415.6 -2.552270,43.206798,415.7 -2.552295,43.206816,415.6 -2.552318,43.206837,415.6 -2.552333,43.206853,415.8 -2.552345,43.206867,416.0 -2.552357,43.206882,416.1 -2.552371,43.206898,416.0 -2.552380,43.206913,415.9 -2.552390,43.206930,415.7 -2.552407,43.206944,415.2 -2.552423,43.206956,415.2 -2.552430,43.206970,415.3 -2.552445,43.206980,415.5 -2.552458,43.206994,415.7 -2.552470,43.207008,415.8 -2.552482,43.207025,415.9 -2.552492,43.207037,415.8 -2.552502,43.207051,415.8 -2.552513,43.207066,415.7 -2.552521,43.207082,415.7 -2.552530,43.207101,415.4 -2.552539,43.207113,415.2 -2.552546,43.207123,415.2 -2.552556,43.207133,415.2 -2.552565,43.207147,415.2 -2.552573,43.207158,415.3 -2.552585,43.207173,415.3 -2.552598,43.207192,415.0 -2.552606,43.207206,415.0 -2.552620,43.207222,414.9 -2.552636,43.207236,414.9 -2.552648,43.207252,414.6 -2.552661,43.207269,414.5 -2.552670,43.207284,414.1 -2.552677,43.207303,413.8 -2.552681,43.207317,413.6 -2.552685,43.207332,413.6 -2.552691,43.207346,413.5 -2.552696,43.207360,413.2 -2.552700,43.207372,413.0 -2.552705,43.207387,413.0 -2.552711,43.207401,412.9 -2.552715,43.207416,412.8 -2.552722,43.207427,413.0 -2.552725,43.207443,413.2 -2.552728,43.207457,413.5 -2.552735,43.207474,413.4 -2.552737,43.207486,413.5 -2.552741,43.207501,413.2 -2.552745,43.207518,413.0 -2.552750,43.207536,412.9 -2.552756,43.207549,412.8 -2.552756,43.207564,413.1 -2.552757,43.207582,413.2 -2.552759,43.207597,413.4 -2.552758,43.207613,413.7 -2.552756,43.207629,413.5 -2.552759,43.207644,413.5 -2.552757,43.207658,413.4 -2.552758,43.207673,413.3 -2.552756,43.207690,413.0 -2.552754,43.207707,412.8 -2.552757,43.207721,412.8 -2.552758,43.207735,412.7 -2.552754,43.207751,412.7 -2.552751,43.207769,412.6 -2.552749,43.207787,412.6 -2.552746,43.207804,412.7 -2.552741,43.207823,412.5 -2.552744,43.207837,412.5 -2.552737,43.207855,412.3 -2.552730,43.207870,412.0 -2.552733,43.207887,411.8 -2.552734,43.207902,411.9 -2.552730,43.207915,411.6 -2.552726,43.207929,411.6 -2.552725,43.207941,411.4 -2.552722,43.207954,411.3 -2.552720,43.207971,411.3 -2.552715,43.207984,411.3 -2.552707,43.207997,411.1 -2.552701,43.208011,411.1 -2.552699,43.208028,411.1 -2.552698,43.208043,411.0 -2.552692,43.208057,410.9 -2.552686,43.208070,410.6 -2.552617,43.208159,408.3 -2.552620,43.208182,408.6 -2.552614,43.208201,408.8 -2.552610,43.208221,409.1 -2.552605,43.208235,409.3 -2.552603,43.208252,409.3 -2.552600,43.208265,409.2 -2.552595,43.208280,409.2 -2.552586,43.208293,409.2 -2.552576,43.208304,409.3 -2.552567,43.208317,409.5 -2.552558,43.208332,409.7 -2.552544,43.208347,409.8 -2.552528,43.208360,410.1 -2.552516,43.208370,410.0 -2.552501,43.208384,410.2 -2.552485,43.208396,410.3 -2.552470,43.208404,410.3 -2.552455,43.208415,410.5 -2.552442,43.208428,410.6 -2.552427,43.208439,410.6 -2.552412,43.208451,410.7 -2.552397,43.208464,410.5 -2.552380,43.208475,410.5 -2.552363,43.208486,410.3 -2.552351,43.208496,410.2 -2.552334,43.208503,410.0 -2.552315,43.208511,410.2 -2.552303,43.208524,410.2 -2.552292,43.208533,410.4 -2.552271,43.208544,410.3 -2.552265,43.208551,410.2 -2.552249,43.208563,410.0 -2.552229,43.208574,410.0 -2.552217,43.208587,410.0 -2.552203,43.208600,410.1 -2.552189,43.208610,409.9 -2.552176,43.208621,409.9 -2.552160,43.208630,409.7 -2.552144,43.208637,409.4 -2.552130,43.208646,409.2 -2.552117,43.208657,409.2 -2.552102,43.208665,409.2 -2.552086,43.208675,409.0 -2.552069,43.208687,409.3 -2.552051,43.208700,409.3 -2.552034,43.208709,409.2 -2.552013,43.208717,409.0 -2.551997,43.208726,408.9 -2.551983,43.208734,408.7 -2.551966,43.208743,408.4 -2.551949,43.208749,408.5 -2.551927,43.208757,408.4 -2.551907,43.208763,408.4 -2.551889,43.208772,408.2 -2.551868,43.208776,408.3 -2.551846,43.208781,408.0 -2.551828,43.208788,407.9 -2.551809,43.208796,407.6 -2.551785,43.208805,407.4 -2.551769,43.208815,407.3 -2.551753,43.208822,407.3 -2.551732,43.208828,407.1 -2.551712,43.208833,407.1 -2.551690,43.208840,406.8 -2.551670,43.208845,406.9 -2.551648,43.208850,406.6 -2.551626,43.208854,406.4 -2.551609,43.208858,406.3 -2.551592,43.208862,406.0 -2.551577,43.208865,406.1 -2.551557,43.208872,406.3 -2.551538,43.208876,406.4 -2.551522,43.208883,406.7 -2.551502,43.208892,406.9 -2.551482,43.208895,406.7 -2.551460,43.208897,406.4 -2.551442,43.208900,406.0 -2.551419,43.208905,405.9 -2.551401,43.208910,405.8 -2.551375,43.208913,406.0 -2.551352,43.208914,406.0 -2.551331,43.208918,406.1 -2.551308,43.208922,406.0 -2.551284,43.208925,405.9 -2.551264,43.208925,405.6 -2.551246,43.208929,405.6 -2.551228,43.208930,405.4 -2.551217,43.208933,405.2 -2.551196,43.208937,405.3 -2.551178,43.208940,405.3 -2.551159,43.208946,405.2 -2.551138,43.208950,405.6 -2.551116,43.208952,405.8 -2.551099,43.208956,405.8 -2.551074,43.208960,406.1 -2.551053,43.208964,405.6 -2.551032,43.208968,405.4 -2.551013,43.208972,405.1 -2.550995,43.208975,404.9 -2.550980,43.208975,404.6 -2.550965,43.208978,404.7 -2.550946,43.208983,404.5 -2.550929,43.208989,404.5 -2.550911,43.208995,404.4 -2.550890,43.209000,404.2 -2.550868,43.209001,404.2 -2.550847,43.209006,404.1 -2.550827,43.209012,403.8 -2.550803,43.209018,403.6 -2.550782,43.209022,403.7 -2.550760,43.209026,403.6 -2.550741,43.209032,403.6 -2.550722,43.209038,403.5 -2.550705,43.209043,403.1 -2.550689,43.209048,402.8 -2.550668,43.209054,402.2 -2.550643,43.209057,401.8 -2.550626,43.209059,401.6 -2.550610,43.209065,401.8 -2.550593,43.209071,402.1 -2.550577,43.209079,402.0 -2.550561,43.209080,401.8 -2.550542,43.209088,401.7 -2.550530,43.209098,401.7 -2.550511,43.209105,401.6 -2.550495,43.209109,402.0 -2.550480,43.209114,402.5 -2.550462,43.209122,402.9 -2.550446,43.209130,403.0 -2.550431,43.209137,403.1 -2.550414,43.209145,403.0 -2.550397,43.209153,402.8 -2.550382,43.209162,402.7 -2.550365,43.209171,402.5 -2.550349,43.209178,402.4 -2.550332,43.209187,402.2 -2.550315,43.209195,402.0 -2.550298,43.209201,401.8 -2.550282,43.209209,401.7 -2.550262,43.209217,401.4 -2.550243,43.209215,401.2 -2.550219,43.209207,401.1 -2.550200,43.209198,401.1 -2.550183,43.209193,401.0 -2.550164,43.209189,401.0 -2.550149,43.209185,401.0 -2.550133,43.209183,401.3 -2.550125,43.209181,401.4</coordinates>
</LineString>
</Placemark>
</Document>
</kml>
