<?xml version="1.0" encoding="UTF-8"?>
<kml xmlns="http://www.opengis.net/kml/2.2">
<Document>
<name>Trabakua, Zengotitagane, Iturzuri y Longa</name>
<Style id="track">
<LineStyle><color>ff2fe0f5</color><width>4</width></LineStyle>
</Style>
<Placemark>
<name>Trabakua, Zengotitagane, Iturzuri y Longa</name>
<styleUrl>#track</styleUrl>
<LineString>
<tessellate>1</tessellate>
<altitudeMode>clampToGround</altitudeMode>
<coordinates>-2.545475,43.210679,406.841 -2.545147,43.211055,404.381 -2.54517,43.211067,404.709 -2.545193,43.211078,405.009 -2.545631,43.210731,409.496 -2.546317,43.211041,414.592 -2.546568,43.211057,416.728 -2.546563,43.211091,416.212 -2.546758,43.211107,417.755 -2.547102,43.211054,420.696 -2.548254,43.210879,434.050 -2.548251,43.21085,434.549 -2.549115,43.210729,443.931 -2.54913,43.21078,443.962 -2.550302,43.210581,460.283 -2.550343,43.210574,460.911 -2.550822,43.210841,469.709 -2.551197,43.210881,477.888 -2.551208,43.210844,478.454 -2.551801,43.210903,490.270 -2.552046,43.210893,495.034 -2.552059,43.210953,495.047 -2.552764,43.210891,513.258 -2.553351,43.21084,529.112 -2.553627,43.210977,532.281 -2.553923,43.211123,536.363 -2.555495,43.211406,565.627 -2.55577,43.211455,571.968 -2.557167,43.211339,614.514 -2.558441,43.211233,653.809 -2.558578,43.21127,659.124 -2.558799,43.211329,666.490 -2.559759,43.211127,703.416 -2.559961,43.211231,710.620 -2.560129,43.211318,716.423 -2.560636,43.211162,742.744 -2.560682,43.211308,741.138 -2.560875,43.211156,754.617 -2.56126,43.211149,771.569 -2.561241,43.21098,773.318 -2.56141,43.210903,781.098 -2.561967,43.210862,801.017 -2.562231,43.210843,808.809 -2.562695,43.211203,808.443 -2.562926,43.211451,809.169 -2.562976,43.211489,809.615 -2.562994,43.211539,810.219 -2.562994,43.211584,810.652 -2.563025,43.21163,812.183 -2.563051,43.211673,813.787 -2.563084,43.211719,812.966 -2.563127,43.211767,812.368 -2.563177,43.211805,812.276 -2.563184,43.211821,812.190 -2.563179,43.211821,812.119 -2.563214,43.211811,812.409 -2.563291,43.211943,814.189 -2.563732,43.212232,812.435 -2.563859,43.212315,810.081 -2.564281,43.212226,805.415 -2.564515,43.212307,803.888 -2.564473,43.21237,805.469 -2.565428,43.212731,802.383 -2.565672,43.212878,799.872 -2.566547,43.213407,796.464 -2.567575,43.214274,803.472 -2.568607,43.214391,813.813 -2.568758,43.214307,814.314 -2.568767,43.214329,814.409 -2.56932,43.214241,818.469 -2.56934,43.21437,817.385 -2.56969,43.214345,817.831 -2.571725,43.213467,828.045 -2.572464,43.21286,829.438 -2.573265,43.213048,831.589 -2.573616,43.21313,830.333 -2.574369,43.213101,831.062 -2.574935,43.213079,832.244 -2.575073,43.21319,832.529 -2.57503,43.213207,831.700 -2.575271,43.213516,831.920 -2.575423,43.21406,832.409 -2.575382,43.21407,831.264 -2.575469,43.214319,832.840 -2.575455,43.2148,833.776 -2.575828,43.215155,831.180 -2.575829,43.215154,831.193 -2.575978,43.215274,831.244 -2.576507,43.216132,834.598 -2.576436,43.216264,835.687 -2.576379,43.216262,835.089 -2.576334,43.21654,836.712 -2.576016,43.217278,832.432 -2.576007,43.2173,832.705 -2.575431,43.217745,837.009 -2.575096,43.21854,833.183 -2.575173,43.21865,834.279 -2.575151,43.218658,833.975 -2.575135,43.218665,833.759 -2.575031,43.218721,832.672 -2.574999,43.21873,832.473 -2.57491,43.218722,832.067 -2.573616,43.219195,819.176 -2.573625,43.219203,819.278 -2.573605,43.21921,818.933 -2.573484,43.219248,816.123 -2.573396,43.219323,813.915 -2.573287,43.219369,811.109 -2.573178,43.219421,808.225 -2.573062,43.21946,805.011 -2.572936,43.219441,801.217 -2.572829,43.219493,797.011 -2.572698,43.219473,792.984 -2.572596,43.21942,790.565 -2.572468,43.219428,786.229 -2.572464,43.219519,783.748 -2.572368,43.219458,781.830 -2.572397,43.219547,780.263 -2.572321,43.21962,774.544 -2.572197,43.219629,768.618 -2.572086,43.219587,765.709 -2.571969,43.219556,762.268 -2.571842,43.219539,758.164 -2.571718,43.219534,753.730 -2.571592,43.219526,749.564 -2.57148,43.219478,747.287 -2.571361,43.219447,743.828 -2.571375,43.219542,741.752 -2.571376,43.219543,741.721 -2.570889,43.219584,723.643 -2.570888,43.219573,723.693 -2.570864,43.21957,722.665 -2.570822,43.219531,720.821 -2.570801,43.219485,719.509 -2.570844,43.219446,721.581 -2.570875,43.219398,720.817 -2.570925,43.219371,721.993 -2.570967,43.219332,722.067 -2.570995,43.219289,721.370 -2.571024,43.219248,720.791 -2.571045,43.219204,719.775 -2.571036,43.219154,717.244 -2.571049,43.219109,717.016 -2.57107,43.219062,717.117 -2.571069,43.219014,716.187 -2.571058,43.21897,714.715 -2.571034,43.218926,712.609 -2.571039,43.218877,711.783 -2.571048,43.218828,710.729 -2.571083,43.218787,711.385 -2.571052,43.218746,708.459 -2.571064,43.218698,707.592 -2.5711,43.218661,708.113 -2.57112,43.218613,707.477 -2.57113,43.218568,705.656 -2.571165,43.218528,705.138 -2.571172,43.218523,705.235 -2.571105,43.218477,700.086 -2.570445,43.218918,682.414 -2.569466,43.220156,660.509 -2.56947,43.220159,660.715 -2.569455,43.22017,660.421 -2.569396,43.220192,659.027 -2.56933,43.220213,657.581 -2.569277,43.22024,656.784 -2.569224,43.220268,656.165 -2.569163,43.220262,654.349 -2.569102,43.220279,653.138 -2.56904,43.220294,651.260 -2.569006,43.220331,650.136 -2.568959,43.220361,648.717 -2.568892,43.220374,647.118 -2.568824,43.220384,645.009 -2.568769,43.220412,643.515 -2.568707,43.220434,642.061 -2.568649,43.220461,640.927 -2.568591,43.220489,640.161 -2.568544,43.220526,640.164 -2.568482,43.220529,638.915 -2.568408,43.220545,638.019 -2.568401,43.220523,637.268 -2.568385,43.220528,637.040 -2.568325,43.220483,634.117 -2.568582,43.220038,625.787 -2.568496,43.220028,622.815 -2.568087,43.21998,609.109 -2.567569,43.220365,599.713 -2.567461,43.220406,597.639 -2.566871,43.220627,586.685 -2.566271,43.221104,572.769 -2.565821,43.221962,547.332 -2.565911,43.221988,549.293 -2.56585,43.222099,546.177 -2.566138,43.222526,538.956 -2.565959,43.222969,523.228 -2.564673,43.223775,500.745 -2.564468,43.223971,498.747 -2.564115,43.224309,496.211 -2.56399,43.224912,488.709 -2.563446,43.225662,470.056 -2.56307,43.225943,464.872 -2.563006,43.225957,464.278 -2.562685,43.226024,461.292 -2.562413,43.225972,459.065 -2.562393,43.225905,458.656 -2.562357,43.225898,458.380 -2.562581,43.225386,457.539 -2.562346,43.224721,447.711 -2.562248,43.224676,447.238 -2.562241,43.224681,446.970 -2.562228,43.224676,446.817 -2.562153,43.224648,446.309 -2.562092,43.224624,446.135 -2.562036,43.224597,446.171 -2.561982,43.224573,446.117 -2.561923,43.224543,446.341 -2.561874,43.22451,446.654 -2.561821,43.224475,447.045 -2.561774,43.224444,447.339 -2.561712,43.224421,446.618 -2.561645,43.224389,445.820 -2.561596,43.22435,445.633 -2.561545,43.224322,445.223 -2.561494,43.224294,444.815 -2.561433,43.224272,444.209 -2.561369,43.224246,443.935 -2.561298,43.224244,442.941 -2.561239,43.224228,442.617 -2.561181,43.224192,443.171 -2.561119,43.224161,443.114 -2.561073,43.224121,442.285 -2.561078,43.224072,442.189 -2.561058,43.224017,441.768 -2.56105,43.223972,441.570 -2.561055,43.223919,441.524 -2.561084,43.223872,441.104 -2.561122,43.223833,440.314 -2.561157,43.223782,439.609 -2.561205,43.223744,439.734 -2.561228,43.223691,438.450 -2.561281,43.223652,438.576 -2.561321,43.223608,437.970 -2.561369,43.22357,438.143 -2.561412,43.223537,438.274 -2.561459,43.223495,438.068 -2.561505,43.22346,438.027 -2.561546,43.223416,437.419 -2.561573,43.223375,436.564 -2.561619,43.223328,435.806 -2.561679,43.2233,436.316 -2.561714,43.223259,436.109 -2.561766,43.223214,436.588 -2.561819,43.223177,437.214 -2.561846,43.223135,437.170 -2.56185,43.223079,435.924 -2.561856,43.223018,434.687 -2.56187,43.222968,433.998 -2.561874,43.222919,432.892 -2.561899,43.22287,432.321 -2.561936,43.22283,432.363 -2.561957,43.222768,431.331 -2.561996,43.222718,432.361 -2.562019,43.222672,432.907 -2.562008,43.222616,432.609 -2.561977,43.222568,431.865 -2.56192,43.222527,430.571 -2.561855,43.2225,429.117 -2.561787,43.222486,428.561 -2.561713,43.222474,427.754 -2.561636,43.222458,427.275 -2.56157,43.222447,426.839 -2.561507,43.222447,425.738 -2.561426,43.222443,424.510 -2.561342,43.222437,423.863 -2.561269,43.22242,424.144 -2.561187,43.222413,423.518 -2.561126,43.222403,423.509 -2.561045,43.222399,422.698 -2.560966,43.222382,422.644 -2.560887,43.222378,421.770 -2.56082,43.222379,420.794 -2.560753,43.222374,420.227 -2.560687,43.222353,420.728 -2.560621,43.222339,420.792 -2.560551,43.222327,420.551 -2.560486,43.222308,420.873 -2.560412,43.222296,420.658 -2.560349,43.222292,419.952 -2.560286,43.222281,419.717 -2.56022,43.222284,418.609 -2.56016,43.222266,418.737 -2.5601,43.222254,418.563 -2.560024,43.222237,418.499 -2.559949,43.222229,417.983 -2.559885,43.222231,416.896 -2.559819,43.222239,415.427 -2.559744,43.222219,415.431 -2.559682,43.222193,415.270 -2.559615,43.222159,415.152 -2.559572,43.22212,415.452 -2.559565,43.222063,416.453 -2.559559,43.222016,417.308 -2.559584,43.22197,418.509 -2.559642,43.22194,419.757 -2.559697,43.221896,419.213 -2.55975,43.221867,419.139 -2.559817,43.221839,419.243 -2.559881,43.221813,419.286 -2.559937,43.221792,419.357 -2.560001,43.221778,419.651 -2.560068,43.221756,420.550 -2.560122,43.221726,420.962 -2.560182,43.221703,421.727 -2.560233,43.221662,421.768 -2.560268,43.221625,421.314 -2.560326,43.22158,421.309 -2.560379,43.221543,421.344 -2.560436,43.221524,422.190 -2.560487,43.221489,421.936 -2.56054,43.221461,422.020 -2.560563,43.221412,420.293 -2.560616,43.221387,419.894 -2.560677,43.221359,420.068 -2.560734,43.221336,420.267 -2.560794,43.221301,420.219 -2.560851,43.221273,420.425 -2.560916,43.221235,420.526 -2.560963,43.22119,420.208 -2.561026,43.221153,420.409 -2.561085,43.221109,420.534 -2.56114,43.221062,421.110 -2.561183,43.221004,421.226 -2.56121,43.220953,421.060 -2.561262,43.220913,421.313 -2.561307,43.220876,421.584 -2.561372,43.220845,422.048 -2.561435,43.220808,421.447 -2.561476,43.220773,420.569 -2.561527,43.220747,420.023 -2.561593,43.220726,419.883 -2.561659,43.220707,419.811 -2.561699,43.220672,419.609 -2.561762,43.220653,420.394 -2.561816,43.220631,420.610 -2.561868,43.220603,420.636 -2.561911,43.22057,420.190 -2.561964,43.220546,420.783 -2.562033,43.22056,421.524 -2.561971,43.220589,421.788 -2.561922,43.220623,422.367 -2.561868,43.220655,422.449 -2.561815,43.220626,420.574 -2.561768,43.220593,418.656 -2.561724,43.220556,416.821 -2.56167,43.220513,417.709 -2.561621,43.220483,418.349 -2.561572,43.220444,419.375 -2.56152,43.220405,420.141 -2.561466,43.220372,420.615 -2.561404,43.220336,421.198 -2.561334,43.220312,421.529 -2.561269,43.220295,421.983 -2.561197,43.220272,422.582 -2.561129,43.220246,423.044 -2.561072,43.22022,423.139 -2.561007,43.220189,423.101 -2.560935,43.22016,422.921 -2.560883,43.220136,422.809 -2.560831,43.220109,422.835 -2.560762,43.220094,422.371 -2.560712,43.22005,422.887 -2.560646,43.220009,423.071 -2.560594,43.219979,422.924 -2.560539,43.219955,422.485 -2.560486,43.21992,422.099 -2.560434,43.219888,421.858 -2.560381,43.219857,421.660 -2.560349,43.2198,422.257 -2.560309,43.219763,422.500 -2.560257,43.219727,422.720 -2.560222,43.219686,423.309 -2.560181,43.219636,424.027 -2.560153,43.219583,424.873 -2.560119,43.219542,425.059 -2.56008,43.21949,425.233 -2.560064,43.219443,425.626 -2.560039,43.219387,426.147 -2.560027,43.219338,426.741 -2.560009,43.219286,427.280 -2.55998,43.219244,427.092 -2.559931,43.219198,426.278 -2.559903,43.219146,426.533 -2.559857,43.219113,426.026 -2.559809,43.219071,425.809 -2.55976,43.219039,425.319 -2.559692,43.219006,424.895 -2.559637,43.218973,424.921 -2.559585,43.218944,424.955 -2.559538,43.218914,425.078 -2.559485,43.218876,424.839 -2.559453,43.218829,424.493 -2.559445,43.218784,424.472 -2.559419,43.218739,423.964 -2.559368,43.218695,423.071 -2.559314,43.218662,422.341 -2.559254,43.218636,421.715 -2.559194,43.218619,421.209 -2.559128,43.218613,421.269 -2.559059,43.218608,421.955 -2.558984,43.218618,422.121 -2.558919,43.218638,421.855 -2.558857,43.218647,422.148 -2.558792,43.218665,422.389 -2.558718,43.218683,422.763 -2.558657,43.218698,423.232 -2.558578,43.2187,423.824 -2.558491,43.218713,423.422 -2.558424,43.218734,422.962 -2.558328,43.218746,422.608 -2.558265,43.218749,422.209 -2.558197,43.218783,420.964 -2.558114,43.218808,419.770 -2.558044,43.218817,419.176 -2.557965,43.218834,418.870 -2.557902,43.218866,418.223 -2.557833,43.218884,417.914 -2.557757,43.218888,417.928 -2.557684,43.218905,417.227 -2.55762,43.218908,416.999 -2.557554,43.218917,416.513 -2.557488,43.218932,415.843 -2.557424,43.218923,415.407 -2.557356,43.21892,414.709 -2.557275,43.218901,414.353 -2.557179,43.21889,414.189 -2.557104,43.218883,414.625 -2.557041,43.218878,415.029 -2.556966,43.21888,415.222 -2.556904,43.218887,415.543 -2.556844,43.218913,415.057 -2.556774,43.218934,414.826 -2.556713,43.218952,414.768 -2.556651,43.218965,414.944 -2.556583,43.218999,414.305 -2.556525,43.219022,414.015 -2.556444,43.219043,414.209 -2.556366,43.219048,414.966 -2.556299,43.219053,415.142 -2.55623,43.219073,414.968 -2.556162,43.219093,414.672 -2.55608,43.219109,414.465 -2.556016,43.21913,413.896 -2.555953,43.219144,413.550 -2.555883,43.219175,412.439 -2.555813,43.219182,412.611 -2.555745,43.219197,413.055 -2.555682,43.219207,413.507 -2.555621,43.219222,413.817 -2.555551,43.219243,414.009 -2.555483,43.21926,413.727 -2.555416,43.219282,413.233 -2.555349,43.219273,414.039 -2.55528,43.219267,414.763 -2.555215,43.219264,414.296 -2.555152,43.219265,413.577 -2.555089,43.219261,413.181 -2.555022,43.219248,413.260 -2.55496,43.219227,414.082 -2.554904,43.219206,414.779 -2.554844,43.219197,414.605 -2.554769,43.219185,414.525 -2.554704,43.219183,414.209 -2.554635,43.219173,414.779 -2.554565,43.219144,415.895 -2.5545,43.21912,416.561 -2.554441,43.219098,416.995 -2.554363,43.219093,416.228 -2.5543,43.219075,415.759 -2.554231,43.219055,415.083 -2.554168,43.219018,414.032 -2.554131,43.218965,412.954 -2.554111,43.218915,412.141 -2.554106,43.218869,411.981 -2.554097,43.218818,411.909 -2.554094,43.21877,412.009 -2.554073,43.218718,411.766 -2.55405,43.21867,411.372 -2.554014,43.218631,410.598 -2.553978,43.21858,410.312 -2.553943,43.218535,410.515 -2.553908,43.218493,410.816 -2.553858,43.218455,410.710 -2.553804,43.218424,410.349 -2.553745,43.218391,409.921 -2.553694,43.218356,410.084 -2.553632,43.218331,409.507 -2.553573,43.218311,408.617 -2.553509,43.218304,407.109 -2.55347,43.218267,406.920 -2.553446,43.218222,407.296 -2.553424,43.218169,407.612 -2.553403,43.21811,408.236 -2.553392,43.21806,408.849 -2.553378,43.218007,408.580 -2.553371,43.217956,408.324 -2.553362,43.217903,408.063 -2.553373,43.217851,408.485 -2.55338,43.217789,408.787 -2.553389,43.217741,408.242 -2.553403,43.217694,407.626 -2.553385,43.217636,405.709 -2.5534,43.217586,405.150 -2.553402,43.217537,404.176 -2.553429,43.217492,404.152 -2.553443,43.217446,404.456 -2.553446,43.217398,404.379 -2.553432,43.217346,403.610 -2.553426,43.217298,403.394 -2.553371,43.217251,401.333 -2.553305,43.217238,399.185 -2.553248,43.217213,397.529 -2.553199,43.217178,397.200 -2.553151,43.217146,396.820 -2.553108,43.217099,397.309 -2.553061,43.217062,397.534 -2.553012,43.217008,398.320 -2.552973,43.216969,398.976 -2.552947,43.216919,399.270 -2.552936,43.216865,398.773 -2.552954,43.216811,399.044 -2.552961,43.216762,399.088 -2.552972,43.216704,399.047 -2.552975,43.216654,398.789 -2.552981,43.216601,398.097 -2.552972,43.216547,396.823 -2.552965,43.216489,395.525 -2.552992,43.216439,395.609 -2.553018,43.216394,395.781 -2.553055,43.216352,395.897 -2.553095,43.216302,395.223 -2.553151,43.216258,395.257 -2.553203,43.216216,395.060 -2.553259,43.216177,394.911 -2.553318,43.216134,394.635 -2.553359,43.216084,394.624 -2.5534,43.216039,395.726 -2.553418,43.215989,396.493 -2.553419,43.215942,396.665 -2.5534,43.215897,396.221 -2.553378,43.21585,395.609 -2.553365,43.215805,395.251 -2.553367,43.215752,395.417 -2.553366,43.215701,395.563 -2.553363,43.215645,395.637 -2.553392,43.215599,396.670 -2.5534,43.215553,396.961 -2.553417,43.215497,396.535 -2.553441,43.215449,396.414 -2.553474,43.215397,396.516 -2.553483,43.215346,395.935 -2.553497,43.215292,395.486 -2.553518,43.215233,395.314 -2.553547,43.215183,395.609 -2.553583,43.215139,396.275 -2.55362,43.215092,396.911 -2.553646,43.215035,397.117 -2.553695,43.214988,398.191 -2.553749,43.214955,399.264 -2.553767,43.214901,399.195 -2.553714,43.214841,397.759 -2.553666,43.214796,396.858 -2.553601,43.214757,395.930 -2.553528,43.214731,395.343 -2.553464,43.214715,395.164 -2.553379,43.214701,394.810 -2.553304,43.214687,394.909 -2.553238,43.214664,395.556 -2.553162,43.214657,395.942 -2.553105,43.214638,396.438 -2.553032,43.214631,396.512 -2.552962,43.214616,396.465 -2.552897,43.214591,396.546 -2.552839,43.214565,396.710 -2.552793,43.214535,397.129 -2.55274,43.214492,397.951 -2.552674,43.214472,398.321 -2.552596,43.214454,398.741 -2.552525,43.214436,399.305 -2.552455,43.21444,399.509 -2.552375,43.214434,400.354 -2.552297,43.214431,400.990 -2.552236,43.21442,401.626 -2.55217,43.214404,401.510 -2.552114,43.214369,401.783 -2.552086,43.21432,402.544 -2.552052,43.214269,403.128 -2.552031,43.214224,403.657 -2.552029,43.214176,404.619 -2.55202,43.214126,405.396 -2.551995,43.214076,405.531 -2.551968,43.214028,405.624 -2.551912,43.213987,405.109 -2.551883,43.213943,405.511 -2.551823,43.213913,405.547 -2.551748,43.213904,405.143 -2.551684,43.213912,404.237 -2.551606,43.213922,403.980 -2.551541,43.213927,403.981 -2.551463,43.213928,404.195 -2.551389,43.213917,404.854 -2.551323,43.213892,404.986 -2.551268,43.213862,405.169 -2.551216,43.213837,405.004 -2.551178,43.21379,405.724 -2.551114,43.21377,405.109 -2.551046,43.213743,405.588 -2.550982,43.21373,405.674 -2.550896,43.213752,404.730 -2.550838,43.213768,403.924 -2.550762,43.213782,404.657 -2.550712,43.213811,404.528 -2.550646,43.213848,404.552 -2.550581,43.213861,405.361 -2.550514,43.213887,405.953 -2.550472,43.213925,406.277 -2.550434,43.21397,406.261 -2.55039,43.214007,406.527 -2.550342,43.21404,406.909 -2.550288,43.214074,407.449 -2.550227,43.2141,407.885 -2.550173,43.214125,407.961 -2.550116,43.21416,407.965 -2.550051,43.214174,408.398 -2.54998,43.21418,408.729 -2.549914,43.214182,408.673 -2.549848,43.21417,408.952 -2.549778,43.214161,409.154 -2.549709,43.214149,409.245 -2.549668,43.21411,409.447 -2.549621,43.214065,409.611 -2.549608,43.214019,410.209 -2.549627,43.213958,411.596 -2.549626,43.213913,412.272 -2.549636,43.213863,412.978 -2.549648,43.213806,413.352 -2.549645,43.213756,413.425 -2.549671,43.213708,414.286 -2.549714,43.213673,415.410 -2.54974,43.21363,416.039 -2.549772,43.213586,416.181 -2.549811,43.213551,416.299 -2.549861,43.213516,416.707 -2.549897,43.213468,417.127 -2.549917,43.213421,417.509 -2.549941,43.213374,418.241 -2.549971,43.21333,419.297 -2.54997,43.213283,419.553 -2.549964,43.213238,419.777 -2.549932,43.213188,419.140 -2.549934,43.213141,419.541 -2.549906,43.213099,419.075 -2.549888,43.213045,418.724 -2.5499,43.212987,418.656 -2.54991,43.212939,418.689 -2.549924,43.212886,418.606 -2.549944,43.212843,418.926 -2.549976,43.212793,419.409 -2.55,43.212746,419.560 -2.550044,43.212705,420.146 -2.55007,43.21266,420.212 -2.550098,43.212611,420.396 -2.550125,43.212563,420.489 -2.550144,43.212511,420.370 -2.550163,43.212465,421.144 -2.550174,43.212411,422.113 -2.550154,43.212364,422.195 -2.550131,43.212317,422.171 -2.550092,43.212281,421.541 -2.550058,43.212241,421.215 -2.550032,43.212191,421.309 -2.550001,43.212152,421.079 -2.549978,43.212103,421.155 -2.549954,43.212056,421.191 -2.549929,43.212011,421.175 -2.549917,43.211967,421.348 -2.54989,43.211911,421.619 -2.549851,43.211868,421.373 -2.549806,43.211819,420.922 -2.549761,43.211778,420.384 -2.549716,43.211745,419.512 -2.549659,43.211712,419.832 -2.549602,43.211684,420.105 -2.549523,43.211645,421.309 -2.549459,43.211641,421.243 -2.549396,43.211624,421.679 -2.54934,43.211603,422.365 -2.549275,43.211601,422.179 -2.549197,43.2116,421.812 -2.549125,43.211593,421.963 -2.549052,43.211587,422.077 -2.549048,43.211586,422.136 -2.549045,43.211598,421.648 -2.549033,43.211543,423.717 -2.548798,43.211568,423.387 -2.548567,43.211576,424.315 -2.548386,43.211486,424.809 -2.548117,43.211291,423.413 -2.548096,43.211273,423.399 -2.548085,43.211258,423.445 -2.547801,43.211091,423.739 -2.547465,43.211028,422.642 -2.547038,43.211059,420.393 -2.546612,43.211095,416.697 -2.546229,43.211029,414.086 -2.545904,43.21084,413.098 -2.545683,43.210692,409.943 -2.545665,43.210643,409.564 -2.545475,43.210679,406.810</coordinates>
</LineString>
</Placemark>
</Document>
</kml>
